,Postleitzahl,Ort,Name,Straße,Anzahl Empfehlungen,Latitude,Longitude,Komplette Addresse
0,01069,Dresden,Willy Vanilli's,Helmut-Schön-Allee 2,3,51.0424575,13.7496928,"Willy Vanilli's, Helmut-Schön-Allee 2, 01069 Dresden"
1,01097,Dresden,Tiki im Hecht,Rudolf-Leonhard-Str. 26,7,51.07374,13.74898,"Tiki im Hecht, Rudolf-Leonhard-Str. 26, 01097 Dresden"
2,01099,Dresden,I Love YO,Rothenburger Str. 36,3,51.0654057,13.7534733,"I Love YO, Rothenburger Str. 36, 01099 Dresden"
3,01099,Dresden,Neumanns Tiki Eisbar & Lounge,Görlitzer Str. 21,6,51.0675499,13.7544102,"Neumanns Tiki Eisbar & Lounge, Görlitzer Str. 21, 01099 Dresden"
4,01099,Dresden,Mimi's Eismanufaktur,Alaunstr. 57,39,51.06786,13.75241,"Mimi's Eismanufaktur, Alaunstr. 57, 01099 Dresden"
5,01127,Dresden,Nepple Eis,Torgauer Str. 5,35,51.0757367,13.7222356,"Nepple Eis, Torgauer Str. 5, 01127 Dresden"
6,01139,Dresden,Eiscafe Dolce Vita,Peschelstr. 33,3,51.0850192,13.6962112,"Eiscafe Dolce Vita, Peschelstr. 33, 01139 Dresden"
7,01187,Dresden,Eiscafé Piccolino,Coschützer Str. 10,4,51.0285959,13.706017,"Eiscafé Piccolino, Coschützer Str. 10, 01187 Dresden"
8,01217,Dresden,Café Jähnig,Geinitzstr. 16,4,51.03036,13.74516,"Café Jähnig, Geinitzstr. 16, 01217 Dresden"
9,01219,Dresden,Gelatu und Caffé Edelweiss,Spitzwegstr. 67,3,51.0160099999999,13.76789,"Gelatu und Caffé Edelweiss, Spitzwegstr. 67, 01219 Dresden"
10,01259,Dresden,Gasthaus Altkleinzschachwitz No. 1,Altkleinzschachwitz 1,32,51.004501,13.8499125,"Gasthaus Altkleinzschachwitz No. 1, Altkleinzschachwitz 1, 01259 Dresden"
11,01277,Dresden,Cafe Lösch,Niederwaldstr. 22,35,51.04798,13.80123,"Cafe Lösch, Niederwaldstr. 22, 01277 Dresden"
12,01309,Dresden,SchillerGarten,Schillerplatz 9,7,51.0525321999999,13.8085918,"SchillerGarten, Schillerplatz 9, 01309 Dresden"
13,01326,Dresden,Bäckerei Wippler,Söbringer Str. 1,3,51.0062,13.87501,"Bäckerei Wippler, Söbringer Str. 1, 01326 Dresden"
14,01328,Dresden,Bauernhof-Eis,Bautzner Landstr. 273,3,51.0608145,13.8816217,"Bauernhof-Eis, Bautzner Landstr. 273, 01328 Dresden"
15,02625,Bautzen,Eisdealer,Seminarstr. 25,27,51.17769,14.42554,"Eisdealer, Seminarstr. 25, 02625 Bautzen"
16,02708,Schönbach,Cafe Oberlausitz,Am Teichdamm 6,11,51.06245,14.56978,"Cafe Oberlausitz, Am Teichdamm 6, 02708 Schönbach"
17,02739,Eibau,Milchbar-Cafe,Hauptstr. 112a,4,50.9834969,14.6617998,"Milchbar-Cafe, Hauptstr. 112a, 02739 Eibau"
18,02943,Boxberg/Oberlausitz,Gruners,Schloßstr. 1,66,51.36564,14.51058,"Gruners, Schloßstr. 1, 02943 Boxberg/Oberlausitz"
19,03046,Cottbus,Eiscafé Da Capo,Marktstr. 14,14,51.7605359,14.3330472,"Eiscafé Da Capo, Marktstr. 14, 03046 Cottbus"
20,03096,Burg (Spree),Urban's,Hauptstr. 39,6,51.8340758999999,14.1480087,"Urban's, Hauptstr. 39, 03096 Burg (Spree)"
21,03130,Spremberg,Marktcafe,Amaliengasse 1,19,51.57147,14.37843,"Marktcafe, Amaliengasse 1, 03130 Spremberg"
22,04105,Leipzig,Softeis Eugen Hendrich,Waldstr. 38,5,51.34475,12.358,"Softeis Eugen Hendrich, Waldstr. 38, 04105 Leipzig"
23,04109,Leipzig,TONIS,Thomaskirchhof 17,26,51.3388749999999,12.3720288,"TONIS, Thomaskirchhof 17, 04109 Leipzig"
24,04109,Leipzig,San Remo,Nikolaistr. 1,23,51.3399,12.37785,"San Remo, Nikolaistr. 1, 04109 Leipzig"
25,04109,Leipzig,Milchbar Pinguin,Katharinenstr. 4,16,51.3411914,12.3751109,"Milchbar Pinguin, Katharinenstr. 4, 04109 Leipzig"
26,04109,Leipzig,La Grotta,Ratsfreischulstr. 6-8,5,51.3378728,12.3725639,"La Grotta, Ratsfreischulstr. 6-8, 04109 Leipzig"
27,04157,Leipzig,Leipziger Eishaus,Coppistraße,4,51.3669,12.3764,"Leipziger Eishaus, Coppistraße, 04157 Leipzig"
28,04229,Leipzig,Tonis Eisladen,Könneritzstr. 21,65,51.3274649,12.3458776,"Tonis Eisladen, Könneritzstr. 21, 04229 Leipzig"
29,04229,Leipzig,Eis an der Kö,Stieglitzstr. 84,4,51.3234299999999,12.34379,"Eis an der Kö, Stieglitzstr. 84, 04229 Leipzig"
30,04229,Leipzig,Pauls Schleckeria,Zschochersche Str. 99,49,51.3208845,12.33089,"Pauls Schleckeria, Zschochersche Str. 99, 04229 Leipzig"
31,04229,Leipzig,Softeisbude,Karl-Heine-Str. 68,11,51.3311,12.33164,"Softeisbude, Karl-Heine-Str. 68, 04229 Leipzig"
32,04275,Leipzig,Pfeifer,Kochstr. 20,26,51.3222993,12.3716817,"Pfeifer, Kochstr. 20, 04275 Leipzig"
33,04277,Leipzig,Eisdiele Braker Go,Bornaische Str.  42,17,51.3075863,12.3787877,"Eisdiele Braker Go, Bornaische Str.  42, 04277 Leipzig"
34,04277,Leipzig,Scholles Eismanufaktur Vanille & Zimt,Bornaische Str. 102,3,51.3025455999999,12.3834425,"Scholles Eismanufaktur Vanille & Zimt, Bornaische Str. 102, 04277 Leipzig"
35,04315,Leipzig,Eis Oase,Rabet 44,17,51.342609,12.4041481,"Eis Oase, Rabet 44, 04315 Leipzig"
36,04317,Leipzig,Gustav H,Baedekerstr. 8,6,51.33541,12.39957,"Gustav H, Baedekerstr. 8, 04317 Leipzig"
37,04317,Leipzig,Eisträumerei,Riebeckstr. 23,139,51.32891,12.40446,"Eisträumerei, Riebeckstr. 23, 04317 Leipzig"
38,04318,Leipzig,Eiscafé am Stünzer Park,Theodor-Neubauer-Str. 63,4,51.33641,12.42303,"Eiscafé am Stünzer Park, Theodor-Neubauer-Str. 63, 04318 Leipzig"
39,04509,Löbnitz,Eisdiele Matteo,Dübener Str. 22,4,51.5922330999999,12.4659246,"Eisdiele Matteo, Dübener Str. 22, 04509 Löbnitz"
40,04808,Lossatal,Café Eisprinzessin,Philipp-Müller-Platz 3,26,51.36974,12.86762,"Café Eisprinzessin, Philipp-Müller-Platz 3, 04808 Lossatal"
41,04808,Wurzen,Eiscafé Schönemann,Markt 2,5,51.3694581,12.7355046,"Eiscafé Schönemann, Markt 2, 04808 Wurzen"
42,04821,Brandis,Eiscafé Lilly Vanilly,Naunhofer Str. 30,4,51.32588,12.5982,"Eiscafé Lilly Vanilly, Naunhofer Str. 30, 04821 Brandis"
43,04849,Bad Düben,Eiscafe Sicilia,Markt 5,10,51.5907892,12.5851627,"Eiscafe Sicilia, Markt 5, 04849 Bad Düben"
44,04924,Bad Liebenwerda,Konditorei und Cafe Beeg,Roßmarkt 1,5,51.5152333,13.3956765,"Konditorei und Cafe Beeg, Roßmarkt 1, 04924 Bad Liebenwerda"
45,06108,Halle (Saale),Eisdealer,Ludwig-Wucherer-Straße 62,211,51.4929673,11.9716923,"Eisdealer, Ludwig-Wucherer-Straße 62, 06108 Halle (Saale)"
46,06110,Halle (Saale),Eisbar am Hansering,Johannesplatz 1,21,51.4703016,11.9743231,"Eisbar am Hansering, Johannesplatz 1, 06110 Halle (Saale)"
47,06112,Halle (Saale),Eisdiele Schmidt,Freiimfelder Str. 21,10,51.48348,11.99445,"Eisdiele Schmidt, Freiimfelder Str. 21, 06112 Halle (Saale)"
48,06114,Halle (Saale),Vanilla,Schleiermacherstr. 20,25,51.4937599999999,11.97483,"Vanilla, Schleiermacherstr. 20, 06114 Halle (Saale)"
49,06114,Halle (Saale),Bernd Köhler,Seebener Str. 173,3,51.5052131,11.9598665,"Bernd Köhler, Seebener Str. 173, 06114 Halle (Saale)"
50,06179,Stingray,Eiscafe Stingray,Albert-Heise-Str. 53,5,51.4542833,11.8128313,"Eiscafe Stingray, Albert-Heise-Str. 53, 06179 Stingray"
51,06217,Merseburg (Saale),Eiscafé Fresco Gelato,Gotthardstr. 36,5,51.35456,11.99534,"Eiscafé Fresco Gelato, Gotthardstr. 36, 06217 Merseburg (Saale)"
52,06449,Aschersleben,Eiscafe Pellegrini,Taubenstr. 2,7,51.7551365,11.4561228,"Eiscafe Pellegrini, Taubenstr. 2, 06449 Aschersleben"
53,06484,Quedlinburg,Eiscafé Blumenbunt,Marktstraße 1,6,51.789703,11.141364,"Eiscafé Blumenbunt, Marktstraße 1, 06484 Quedlinburg"
54,06502,Thale,Eisvilla,Hubertusstraße 7 a,4,51.74301,11.0314,"Eisvilla, Hubertusstraße 7 a, 06502 Thale"
55,06526,Sangerhausen,Eisdiele Schmidt,Allstedter Str. 2,10,51.43848,11.30694,"Eisdiele Schmidt, Allstedter Str. 2, 06526 Sangerhausen"
56,06567,Bad Frankenhausen/Kyffhäuser,Eiscafé Schütze,Klosterstr. 41,3,51.3551612,11.0984808,"Eiscafé Schütze, Klosterstr. 41, 06567 Bad Frankenhausen/Kyffhäuser"
57,07616,Bürgel,Axels Eisdiele,Jenaer Str. 17,8,50.9418777,11.7521413,"Axels Eisdiele, Jenaer Str. 17, 07616 Bürgel"
58,07616,Bürgel,Eiscafé Hesse,Eisenberger Str. 3,4,50.9417945999999,11.7554826,"Eiscafé Hesse, Eisenberger Str. 3, 07616 Bürgel"
59,07743,Jena,Eiscafé Riva,Holzmarkt 10,17,50.9265491,11.584741,"Eiscafé Riva, Holzmarkt 10, 07743 Jena"
60,07743,Jena,Milchmix,Johannisstraße 17,3,50.929334,11.5853981,"Milchmix, Johannisstraße 17, 07743 Jena"
61,08064,Zwickau,Der Eisbär,Äußere Zwickauer Str. 46,4,50.6809,12.4749,"Der Eisbär, Äußere Zwickauer Str. 46, 08064 Zwickau"
62,08233,Treuen,Pieschels Eisdiele,Pfarrstr. 9,11,50.53984,12.30869,"Pieschels Eisdiele, Pfarrstr. 9, 08233 Treuen"
63,08289,Schneeberg,Venezia,Markt 28,4,50.5952224,12.6405153,"Venezia, Markt 28, 08289 Schneeberg"
64,09111,Chemnitz,Cortina,Straße der Nationen 12,6,50.8342839,12.9234939,"Cortina, Straße der Nationen 12, 09111 Chemnitz"
65,09111,Chemnitz,Winters Eisgarten,Theaterstraße,6,50.8335,12.9152,"Winters Eisgarten, Theaterstraße, 09111 Chemnitz"
66,09117,Chemnitz,Marschner's Eiscafé,Zwickauer Str. 424,16,50.8173706,12.8469013,"Marschner's Eiscafé, Zwickauer Str. 424, 09117 Chemnitz"
67,09126,Chemnitz,Frollein Sommer,Bernsdorfer Str. 57,3,50.8194527,12.9365458,"Frollein Sommer, Bernsdorfer Str. 57, 09126 Chemnitz"
68,09355,Gersdorf,Ulrich Dietz,Hauptstr. 6,4,50.7805,12.69886,"Ulrich Dietz, Hauptstr. 6, 09355 Gersdorf"
69,09366,Stollberg/Erzgebirge,Eisbeere,Pfarrstr. 8,4,50.7089359999999,12.7800839,"Eisbeere, Pfarrstr. 8, 09366 Stollberg/Erzgebirge"
70,09548,Kurort Seiffen,Eiswürfel am Holzwurm,Hauptstr. 71A,56,50.6476671,13.4481373,"Eiswürfel am Holzwurm, Hauptstr. 71A, 09548 Kurort Seiffen"
71,10115,Berlin,Eismieze Berlin,Schlegelstr. 21,9,52.5305,13.38708,"Eismieze Berlin, Schlegelstr. 21, 10115 Berlin"
72,10115,Berlin,Atelier Cacao,Linienstr. 139/140,3,52.5265239999999,13.389879,"Atelier Cacao, Linienstr. 139/140, 10115 Berlin"
73,10117,Berlin,Eismanufaktur,Kleine Hamburger Str. 15,22,52.5273599999999,13.39686,"Eismanufaktur, Kleine Hamburger Str. 15, 10117 Berlin"
74,10117,Berlin,Der Eisladen,Luisenstr. 14,5,52.5233652,13.379304,"Der Eisladen, Luisenstr. 14, 10117 Berlin"
75,10117,Berlin,Woop Woop Icecream,Friedrichstr. 48,9,52.5084768,13.3905408,"Woop Woop Icecream, Friedrichstr. 48, 10117 Berlin"
76,10119,Berlin,Cuore Di Vetro,Max-Beer-Str. 19,35,52.5258668,13.4081907,"Cuore Di Vetro, Max-Beer-Str. 19, 10119 Berlin"
77,10119,Berlin,Süsse Sünde,Weinbergsweg 21,18,52.53118,13.402,"Süsse Sünde, Weinbergsweg 21, 10119 Berlin"
78,10119,Berlin,Giorgio Lombardi,Weinbergsweg 5,12,52.53066,13.4029,"Giorgio Lombardi, Weinbergsweg 5, 10119 Berlin"
79,10178,Berlin,Amorino Eisboutique,Oranienburger Str. 1-3,3,52.5237683,13.4014655,"Amorino Eisboutique, Oranienburger Str. 1-3, 10178 Berlin"
80,10178,Berlin,Waffel oder Becher,Spandauer Str. 2,10,52.5212242,13.4040133,"Waffel oder Becher, Spandauer Str. 2, 10178 Berlin"
81,10245,Berlin,Eismanufaktur Berlin,Gärtnerstr. 33A,15,52.5082345999999,13.4594501,"Eismanufaktur Berlin, Gärtnerstr. 33A, 10245 Berlin"
82,10245,Berlin,Eiscafé Caramello,Wühlischstr. 31,6,52.50983,13.45714,"Eiscafé Caramello, Wühlischstr. 31, 10245 Berlin"
83,10245,Berlin,EisPiraten,Grünberger Str. 85,59,52.5111175,13.4617598,"EisPiraten, Grünberger Str. 85, 10245 Berlin"
84,10245,Berlin,EisPiraten,Grünberger Str. 85,5,52.5111175,13.4617598,"EisPiraten, Grünberger Str. 85, 10245 Berlin"
85,10245,Berlin,Süße Sünde,Niederbarnimstr. 21,15,52.51396,13.4592,"Süße Sünde, Niederbarnimstr. 21, 10245 Berlin"
86,10247,Berlin,Eisdiele SchneeEISchen,Scharnweberstr. 20,4,52.51284,13.46746,"Eisdiele SchneeEISchen, Scharnweberstr. 20, 10247 Berlin"
87,10249,Berlin,Eiscafè Eisklecks,Mühsamstr. 64,14,52.5205,13.4533,"Eiscafè Eisklecks, Mühsamstr. 64, 10249 Berlin"
88,10317,Berlin,SchokoLadenEis Manufaktur,Kaskelstr. 15,8,52.5049,13.47755,"SchokoLadenEis Manufaktur, Kaskelstr. 15, 10317 Berlin"
89,10405,Berlin,Early Birds,Winsstr. 68,8,52.53202,13.4234287,"Early Birds, Winsstr. 68, 10405 Berlin"
90,10407,Berlin,Rosa Canina,Hufelandstr. 7,56,52.5327759,13.4308615,"Rosa Canina, Hufelandstr. 7, 10407 Berlin"
91,10435,Berlin,Kauf Dich Glücklich,Oderberger Str. 44,7,52.5390865,13.407239,"Kauf Dich Glücklich, Oderberger Str. 44, 10435 Berlin"
92,10435,Berlin,Kontor Eismanufaktur,Danziger Str. 65,101,52.5396666,13.4229831,"Kontor Eismanufaktur, Danziger Str. 65, 10435 Berlin"
93,10435,Berlin,Eis Bar,Kastanienallee 10,3,52.53959,13.41011,"Eis Bar, Kastanienallee 10, 10435 Berlin"
94,10435,Berlin,Eiscafe Annamaria,Husemannstr. 14,18,52.53794,13.41783,"Eiscafe Annamaria, Husemannstr. 14, 10435 Berlin"
95,10437,Berlin,Hokey Pokey,Stargarder Str. 73,235,52.546799442054,13.417574707486,"Hokey Pokey, Stargarder Str. 73, 10437 Berlin"
96,10437,Berlin,Hedwig,Raumerstr. 8,6,52.54267,13.41761,"Hedwig, Raumerstr. 8, 10437 Berlin"
97,10437,Berlin,Cholila Eisdiele,Gleimstr. 54,11,52.5471365,13.4036621,"Cholila Eisdiele, Gleimstr. 54, 10437 Berlin"
98,10439,Berlin,Kulteis,Stahlheimer Str.25,3,52.5499375,13.4215231,"Kulteis, Stahlheimer Str.25, 10439 Berlin"
99,10439,Berlin,Bolle Eis,Bornholmer Str. 14 a,56,52.55465,13.4085,"Bolle Eis, Bornholmer Str. 14 a, 10439 Berlin"
100,10551,Berlin,Eis Marcon,Turmstr.  64,5,52.5270537,13.3299333,"Eis Marcon, Turmstr.  64, 10551 Berlin"
101,10551,Moabit,Einer Dieser Tage,Waldstr. 32,15,52.53231,13.33135,"Einer Dieser Tage, Waldstr. 32, 10551 Moabit"
102,10555,Berlin,Eisbox,Elberfelder Str. 27,51,52.5222389,13.3362065,"Eisbox, Elberfelder Str. 27, 10555 Berlin"
103,10557,3,Eisteufelchen," Stadtbahnbogen 414""",4,52.50683,13.346329,"Eisteufelchen,  Stadtbahnbogen 414"", 10557 3"
104,10623,Berlin,Magnum,Kurfürstendamm 24,3,52.5038977,13.3294112,"Magnum, Kurfürstendamm 24, 10623 Berlin"
105,10623,Berlin,Carmer X Eiscafe,Carmerstr. 10,37,52.50654,13.32384,"Carmer X Eiscafe, Carmerstr. 10, 10623 Berlin"
106,10711,Berlin,Vanille & Co,Joachim-Friedrich-Str. 27,26,52.50066,13.29693,"Vanille & Co, Joachim-Friedrich-Str. 27, 10711 Berlin"
107,10711,Berlin,Eisgrün,Kurfürstendamm 115,158,52.4974565,13.2919708,"Eisgrün, Kurfürstendamm 115, 10711 Berlin"
108,10713,Berlin,Eiscafé Monheim,Blissestr. 12,10,52.4852467,13.3199102,"Eiscafé Monheim, Blissestr. 12, 10713 Berlin"
109,10719,Berlin,Sweet2Go,Pfalzburger Str. 79,4,52.4979534999999,13.3229132,"Sweet2Go, Pfalzburger Str. 79, 10719 Berlin"
110,10719,Berlin,Fräulein Frost,Uhlandstr. 168,5,52.5006661,13.3255046,"Fräulein Frost, Uhlandstr. 168, 10719 Berlin"
111,10777,Berlin,Viktoria Eis,Motzstr. 58,11,52.4953114,13.340166,"Viktoria Eis, Motzstr. 58, 10777 Berlin"
112,10777,Berlin,Freddo Dolce,Maaßenstr. 6,7,52.49832,13.35379,"Freddo Dolce, Maaßenstr. 6, 10777 Berlin"
113,10777,Berlin,Franken & Grunewald Eis,Gossowstr. 6,12,52.4975112,13.3479848,"Franken & Grunewald Eis, Gossowstr. 6, 10777 Berlin"
114,10779,Berlin,Café Engelchen,Prager Platz 1-3,14,52.4933981,13.332398,"Café Engelchen, Prager Platz 1-3, 10779 Berlin"
115,10781,Berlin,Jones Ice Cream,Goltzstr. 3,4,52.490486,13.3534529,"Jones Ice Cream, Goltzstr. 3, 10781 Berlin"
116,10781,Berlin,Berlin Homemade Icecream,Elßholzstr. 10,22,52.4926304,13.3562462,"Berlin Homemade Icecream, Elßholzstr. 10, 10781 Berlin"
117,10785,Berlin,Caffé e Gelato,Alte Potsdamer Str. 7,18,52.50823,13.37473,"Caffé e Gelato, Alte Potsdamer Str. 7, 10785 Berlin"
118,10785,Berlin,Eisdiele Am Gleisdreieck,Flottwellstr. 14,11,52.50103,13.36969,"Eisdiele Am Gleisdreieck, Flottwellstr. 14, 10785 Berlin"
119,10823,Berlin,Inka Eis,Belziger Str. 44,4,52.48629,13.35029,"Inka Eis, Belziger Str. 44, 10823 Berlin"
120,10823,Berlin,Vanille & Marille,Belziger Str. 24,37,52.48733,13.3532,"Vanille & Marille, Belziger Str. 24, 10823 Berlin"
121,10823,Berlin,Eisfee,Akazienstr. 3A,7,52.4867542,13.3556345,"Eisfee, Akazienstr. 3A, 10823 Berlin"
122,10827,Berlin,Franken & Grunewald Eis,Kolonnenstr. 56,12,52.4867299999999,13.36046,"Franken & Grunewald Eis, Kolonnenstr. 56, 10827 Berlin"
123,10965,Berlin,Vanille & Marille,Hagelberger Str. 1,84,52.4915046,13.3863701,"Vanille & Marille, Hagelberger Str. 1, 10965 Berlin"
124,10965,Berlin,Eiskimo,Bergmannstr. 5,8,52.489675,13.38896,"Eiskimo, Bergmannstr. 5, 10965 Berlin"
125,10967,Berlin,Isabel,Böckhstr. 1,28,52.494379,13.4156063,"Isabel, Böckhstr. 1, 10967 Berlin"
126,10967,Berlin,Anna Durkes,Graefestr. 80,78,52.49313,13.41867,"Anna Durkes, Graefestr. 80, 10967 Berlin"
127,10967,Berlin,Eismanufaktur Berlin,Graefestr. 7,11,52.4945877,13.4187531,"Eismanufaktur Berlin, Graefestr. 7, 10967 Berlin"
128,10967,Berlin,Die Eismacher,Körtestr. 10,45,52.4914099999999,13.41056,"Die Eismacher, Körtestr. 10, 10967 Berlin"
129,10967,Berlin,Gelateria Tosoni,Planufer 92d,13,52.4953276,13.4179213,"Gelateria Tosoni, Planufer 92d, 10967 Berlin"
130,10997,Berlin,Wonder Waffel,Adalbertstr. 88,20,52.5017953,13.4193907,"Wonder Waffel, Adalbertstr. 88, 10997 Berlin"
131,10997,Berlin,Aldemir Eis,Falckensteinstr. 7,22,52.4993,13.4425,"Aldemir Eis, Falckensteinstr. 7, 10997 Berlin"
132,10997,Berlin,Eissalon Tanne B,Eisenbahnstr. 48,12,52.5010635999999,13.4310061,"Eissalon Tanne B, Eisenbahnstr. 48, 10997 Berlin"
133,10997,Berlin,California Pops,Falckensteinstr. 4,10,52.50002,13.44342,"California Pops, Falckensteinstr. 4, 10997 Berlin"
134,10999,Berlin,Roka Bell,Ohlauer Str. 27,7,52.49528,13.43024,"Roka Bell, Ohlauer Str. 27, 10999 Berlin"
135,10999,Berlin,Vanille & Marille,Reichenberger Str. 118,10,52.49501,13.43305,"Vanille & Marille, Reichenberger Str. 118, 10999 Berlin"
136,12043,Berlin,Eismanufaktur,Karl-Marx-Platz 17,9,52.474074,13.442537,"Eismanufaktur, Karl-Marx-Platz 17, 12043 Berlin"
137,12045,Berlin,Rudimarie,Weichselstr. 34,4,52.4890599999999,13.43843,"Rudimarie, Weichselstr. 34, 12045 Berlin"
138,12047,Berlin,Eismanufaktur,Weserstr. 6,6,52.48818,13.42753,"Eismanufaktur, Weserstr. 6, 12047 Berlin"
139,12047,Berlin,Fräulein Frost,Friedelstr. 39,115,52.4920306,13.4279094,"Fräulein Frost, Friedelstr. 39, 12047 Berlin"
140,12049,Berlin,Erste Sahne,Kienitzer Str. 116,9,52.47582,13.42169,"Erste Sahne, Kienitzer Str. 116, 12049 Berlin"
141,12049,Berlin,Gelateria Mos Eisley,Herrfurthplatz 6,78,52.47729,13.421,"Gelateria Mos Eisley, Herrfurthplatz 6, 12049 Berlin"
142,12051,Berlin,Lauter Eis,Warthestr. 4,17,52.47057,13.42835,"Lauter Eis, Warthestr. 4, 12051 Berlin"
143,12053,Berlin,Wonder Waffel No.2,Neckarstr. 2,4,52.4805682999999,13.435244,"Wonder Waffel No.2, Neckarstr. 2, 12053 Berlin"
144,12099,Berlin,Eis Hennig,Tempelhofer Damm 134,3,52.4675327,13.3851423,"Eis Hennig, Tempelhofer Damm 134, 12099 Berlin"
145,12103,Berlin,Vanille & Marille,Friedrich-Wilhelm-Str. 22,17,52.45871,13.38128,"Vanille & Marille, Friedrich-Wilhelm-Str. 22, 12103 Berlin"
146,12157,Berlin,La Donna Cannone,Bismarckstr. 1,18,52.46426,13.33858,"La Donna Cannone, Bismarckstr. 1, 12157 Berlin"
147,12161,Berlin,Eis Voh,Bundesallee 118,6,52.4683633999999,13.3285847,"Eis Voh, Bundesallee 118, 12161 Berlin"
148,12163,Berlin,Eisfee,Brentanostr. 5,7,52.4662989,13.3095349,"Eisfee, Brentanostr. 5, 12163 Berlin"
149,12163,Berlin,Nunzio,Muthesiusstr. 1,31,52.4584177,13.321658,"Nunzio, Muthesiusstr. 1, 12163 Berlin"
150,12163,Berlin,Henrys,Schöneberger Str. 11,21,52.464158,13.33088,"Henrys, Schöneberger Str. 11, 12163 Berlin"
151,12165,Berlin,Vanille & Marille,Leydenallee 92,21,52.4540543,13.3232555,"Vanille & Marille, Leydenallee 92, 12165 Berlin"
152,12203,Berlin,Lauter Eis,Hortensienstr. 12 b,36,52.4483529,13.3061117,"Lauter Eis, Hortensienstr. 12 b, 12203 Berlin"
153,12205,Berlin,Eiskimo Eiscafé,Curtiusstr. 8,85,52.44265,13.29503,"Eiskimo Eiscafé, Curtiusstr. 8, 12205 Berlin"
154,12205,Berlin,Frau Lüske Kaffeehaus,Baseler Str. 46,3,52.4381148,13.2955086,"Frau Lüske Kaffeehaus, Baseler Str. 46, 12205 Berlin"
155,12305,Berlin,Coco Beach,Lichtenrader Damm 44,4,52.40994,13.40343,"Coco Beach, Lichtenrader Damm 44, 12305 Berlin"
156,12439,Berlin,Eiskultur Berlin,Schnellerstr. 118,99,52.45504,13.51506,"Eiskultur Berlin, Schnellerstr. 118, 12439 Berlin"
157,12487,Berlin,Blaue Lagune,Sterndamm 65,4,52.4471299999999,13.50722,"Blaue Lagune, Sterndamm 65, 12487 Berlin"
158,12529,Großziethen,Eiscafé MoinMoin,Alt Großziethen 60,14,52.3979475,13.4504201,"Eiscafé MoinMoin, Alt Großziethen 60, 12529 Großziethen"
159,12587,Berlin,Da Dalt,Bölschestraße 94,16,52.4533435,13.6247752,"Da Dalt, Bölschestraße 94, 12587 Berlin"
160,12621,Berlin,Der Eisladen,Bausdorfstr. 65,4,52.512983,13.5946157,"Der Eisladen, Bausdorfstr. 65, 12621 Berlin"
161,12685,Berlin,Café Krümelkeks,Allee der Kosmonauten 151F,3,52.53481,13.5517,"Café Krümelkeks, Allee der Kosmonauten 151F, 12685 Berlin"
162,13086,Berlin,eisspatz,Schönstr. 1,27,52.55302,13.44957,"eisspatz, Schönstr. 1, 13086 Berlin"
163,13156,Berlin,Cafe Kubitza,Dietzgenstr. 22,12,52.581988,13.404309,"Cafe Kubitza, Dietzgenstr. 22, 13156 Berlin"
164,13187,Berlin,Café Paula,Florastr. 14,3,52.5655759,13.4002724,"Café Paula, Florastr. 14, 13187 Berlin"
165,13187,Berlin,Eisspatz,Berliner Str. 5,27,52.56984,13.41063,"Eisspatz, Berliner Str. 5, 13187 Berlin"
166,13347,Berlin,Eismanufaktur Berlin,Maxstr. 11,7,52.5500799999999,13.36402,"Eismanufaktur Berlin, Maxstr. 11, 13347 Berlin"
167,13351,Berlin,Eiscafé Kibo,Transvaalstr. 13,6,52.55208,13.34131,"Eiscafé Kibo, Transvaalstr. 13, 13351 Berlin"
168,13355,Berlin,Eis Henri,Brunnenstr.96,4,52.54597,13.39049,"Eis Henri, Brunnenstr.96, 13355 Berlin"
169,13465,Berlin,Dolce Vita,Welfenallee 3-7,3,52.6317178,13.2895429,"Dolce Vita, Welfenallee 3-7, 13465 Berlin"
170,13469,Berlin,Eisdiele Angelina,Alt-Lübars 36,34,52.6179014,13.3545512,"Eisdiele Angelina, Alt-Lübars 36, 13469 Berlin"
171,13581,Berlin,Fantasia Del Gelato,Klosterstr. 3,3,52.53329,13.19779,"Fantasia Del Gelato, Klosterstr. 3, 13581 Berlin"
172,13581,Berlin,Eiscafé Florida,Klosterstr. 15,38,52.5304821999999,13.1959517,"Eiscafé Florida, Klosterstr. 15, 13581 Berlin"
173,13591,Berlin,Florida-Eis Manufaktur,Am Zeppelinpark 53,4,52.5339573,13.127322,"Florida-Eis Manufaktur, Am Zeppelinpark 53, 13591 Berlin"
174,13597,Berlin,Eis to go Da Dalt,Am Juliusturm 106,6,52.5397887,13.2058919,"Eis to go Da Dalt, Am Juliusturm 106, 13597 Berlin"
175,13597,Berlin,Eiscafé Florida,Altstädter Ring 1,12,52.53535,13.19934,"Eiscafé Florida, Altstädter Ring 1, 13597 Berlin"
176,14050,Berlin,Ital Eis Gloria,Steubenplatz 5,6,52.51705,13.26167,"Ital Eis Gloria, Steubenplatz 5, 14050 Berlin"
177,14052,Berlin,Eiscafé Mauritius,Theodor-Heuss-Platz 2,3,52.5100466,13.2736175,"Eiscafé Mauritius, Theodor-Heuss-Platz 2, 14052 Berlin"
178,14057,Berlin,Eiscafe Eisstein,Kaiserdamm 11,19,52.5107789,13.29009,"Eiscafe Eisstein, Kaiserdamm 11, 14057 Berlin"
179,14059,Berlin,Berliner Eismanufaktur,Seelingstr. 38,10,52.5154527,13.2909898,"Berliner Eismanufaktur, Seelingstr. 38, 14059 Berlin"
180,14089,Berlin,Eiskrem Hausgemacht,Sakrower Kirchweg 1-3,4,52.4525,13.14494,"Eiskrem Hausgemacht, Sakrower Kirchweg 1-3, 14089 Berlin"
181,14163,Berlin,Eis Faldon,Fischerhüttenstr. 83,3,52.4424494,13.2412325,"Eis Faldon, Fischerhüttenstr. 83, 14163 Berlin"
182,14163,Berlin,Café Alte Backstube,Martin-Buber-Str. 18,10,52.4348743,13.2576705,"Café Alte Backstube, Martin-Buber-Str. 18, 14163 Berlin"
183,14199,Berlin,Eis Da Dalt,Breite Str. 14a,3,52.4746856999999,13.2937963,"Eis Da Dalt, Breite Str. 14a, 14199 Berlin"
184,14199,Berlin,I Scream,Warnemünder Str. 29,9,52.47512,13.28989,"I Scream, Warnemünder Str. 29, 14199 Berlin"
185,14467,Potsdam,Vanille & Marille,Benkertstr. 17,157,52.40273,13.06082,"Vanille & Marille, Benkertstr. 17, 14467 Potsdam"
186,14467,Potsdam,Eismanufaktur Potsdam,Brandenburger Str. 67,20,52.3998388,13.0493478,"Eismanufaktur Potsdam, Brandenburger Str. 67, 14467 Potsdam"
187,14482,Potsdam,Die Eisfrau,Rudolf-Breitscheid-Str. 42,53,52.3917959,13.0934976,"Die Eisfrau, Rudolf-Breitscheid-Str. 42, 14482 Potsdam"
188,14513,Teltow,Dolci Eis-Lounge,Kanada-Allee 10,28,52.39302,13.27078,"Dolci Eis-Lounge, Kanada-Allee 10, 14513 Teltow"
189,14542,Werder,Dolci E Gelati,Torstr. 4,4,52.3786643,12.9402597,"Dolci E Gelati, Torstr. 4, 14542 Werder"
190,14712,Rathenow,Eiscafé Schwarz,Steckelsdorfer Gartenstr. 23,14,52.6052084,12.2814713,"Eiscafé Schwarz, Steckelsdorfer Gartenstr. 23, 14712 Rathenow"
191,15345,Altlandsberg,Eisdiele Berliner Tor,Berliner Allee 14,4,52.56198,13.72344,"Eisdiele Berliner Tor, Berliner Allee 14, 15345 Altlandsberg"
192,15377,Buckow (Märkische Schweiz),Eiskörbchen Rohsmeisl,Hauptstr. 77,3,52.5662582999999,14.0741607,"Eiskörbchen Rohsmeisl, Hauptstr. 77, 15377 Buckow (Märkische Schweiz)"
193,15566,Schöneiche,Süsse Sünde,Am Goethepark 17,11,52.4702176,13.6887201,"Süsse Sünde, Am Goethepark 17, 15566 Schöneiche"
194,15755,Teupitz,Eiscafé Wronowski,Am Markt 21,9,52.13616,13.60927,"Eiscafé Wronowski, Am Markt 21, 15755 Teupitz"
195,15806,Zossen,Eiscafé Im Grünen,Am Dorfplatz 10,4,52.1145202,13.5246925,"Eiscafé Im Grünen, Am Dorfplatz 10, 15806 Zossen"
196,15831,Blankenfelde-Mahlow,EisZeit,Am Bahnhof 8,53,52.3604458,13.4101189,"EisZeit, Am Bahnhof 8, 15831 Blankenfelde-Mahlow"
197,15831,Großbeeren,Eiscafe,Dorfstr. 18B,8,52.34091,13.3536,"Eiscafe, Dorfstr. 18B, 15831 Großbeeren"
198,15848,Friedland,Eiscafe am Markt,Markt 5,3,52.1044712,14.263185,"Eiscafe am Markt, Markt 5, 15848 Friedland"
199,15848,Beeskow,Schukurama,Bahnhofstr. 14,23,52.1760266999999,14.2489587,"Schukurama, Bahnhofstr. 14, 15848 Beeskow"
200,16306,Berkholz-Meyenburg,Eis-Café Silke Schakat,Hauptstr. 1,3,53.0585783,14.2101005,"Eis-Café Silke Schakat, Hauptstr. 1, 16306 Berkholz-Meyenburg"
201,16461,Wustermark,Karls Erlebnis-Dorf,Zur Döbritzer Heide 1,8,52.5334252,12.9949407,"Karls Erlebnis-Dorf, Zur Döbritzer Heide 1, 16461 Wustermark"
202,16816,Neuruppin,Il Gelato,Karl-Marx-Str. 49,127,52.92353,12.80302,"Il Gelato, Karl-Marx-Str. 49, 16816 Neuruppin"
203,16831,Rheinsberg,EIS-Zauberei Wolfgang,Kurt-Tucholsky-Str. 36,14,53.1012814,12.8917918,"EIS-Zauberei Wolfgang, Kurt-Tucholsky-Str. 36, 16831 Rheinsberg"
204,17034,Neubrandenburg,Jackle & Heidi,Gerstenstr. 2,7,53.5798299999999,13.26744,"Jackle & Heidi, Gerstenstr. 2, 17034 Neubrandenburg"
205,17039,Wulkenzin,Eiscafé Eisbär,Alter Damm  1,7,53.5450887999999,13.168526,"Eiscafé Eisbär, Alter Damm  1, 17039 Wulkenzin"
206,17094,Burg Stargard,Pinguin Eisdiele,Markstr. 19,245,53.4960974,13.3083889,"Pinguin Eisdiele, Markstr. 19, 17094 Burg Stargard"
207,17213,Malchow,Eiscafe & Pizzeria Al Porto Malchow,Kirchenstr. 1,3,53.4741996,12.4268015,"Eiscafe & Pizzeria Al Porto Malchow, Kirchenstr. 1, 17213 Malchow"
208,17424,Heringsdorf,Villa-Stein,Kulmstr. 4,4,53.9576475,14.1655995,"Villa-Stein, Kulmstr. 4, 17424 Heringsdorf"
209,17459,Koserow,Cafe Moritz,Hauptstr. 100,39,54.0513428,13.9984165,"Cafe Moritz, Hauptstr. 100, 17459 Koserow"
210,17489,Greifswald,Kontor Eismanufaktur,Am Markt 12,241,54.09579,13.3822,"Kontor Eismanufaktur, Am Markt 12, 17489 Greifswald"
211,18055,Rostock,Eiswerkstatt Rostock,Kröpeliner Str. 18,136,54.08828,12.13701,"Eiswerkstatt Rostock, Kröpeliner Str. 18, 18055 Rostock"
212,18055,Rostock,Eiscafé Milano,Kröpeliner Str. 26,11,54.0881702999999,12.1356784,"Eiscafé Milano, Kröpeliner Str. 26, 18055 Rostock"
213,18057,Rostock,Eisschplle,Waldemarstr. 5,54,54.08741,12.11415,"Eisschplle, Waldemarstr. 5, 18057 Rostock"
214,18057,Rostock,Veis,Fritz-Reuter-Str. 52,19,54.0880714,12.1125219,"Veis, Fritz-Reuter-Str. 52, 18057 Rostock"
215,18107,Rostock,Eiswerkstatt Rostock,Rigaer Str. 5,6,54.1389806,12.0590645,"Eiswerkstatt Rostock, Rigaer Str. 5, 18107 Rostock"
216,18109,Rostock,Eiscafé Bella Pupina,Albrecht-Tischbein-Str. 45,23,54.1513713,12.0716658,"Eiscafé Bella Pupina, Albrecht-Tischbein-Str. 45, 18109 Rostock"
217,18119,Rostock,Die Eisdiele,Am Strom 102,12,54.179903,12.0868578,"Die Eisdiele, Am Strom 102, 18119 Rostock"
218,18182,Rövershagen,Karls Eismanufaktur,Purkshof 2,26,54.1605041,12.2309396,"Karls Eismanufaktur, Purkshof 2, 18182 Rövershagen"
219,18374,Zingst,Eiscafé Tiziano,Klosterstraße 20a,5,54.4394036,12.6828724,"Eiscafé Tiziano, Klosterstraße 20a, 18374 Zingst"
220,18375,Prerow,Hein & Stin,Waldstr. 11,3,54.4473099999999,12.56941,"Hein & Stin, Waldstr. 11, 18375 Prerow"
221,18556,Breege,Strandcafe Juliusruh,Ringstr. 6,4,54.6213261,13.3772575,"Strandcafe Juliusruh, Ringstr. 6, 18556 Breege"
222,18556,Breege,Gelateria Sirolo,Am Waldwinkel 10,29,54.62106,13.37755,"Gelateria Sirolo, Am Waldwinkel 10, 18556 Breege"
223,18565,Insel Hiddensee,Sommerpalast,Norderende 156,40,54.57034,13.10482,"Sommerpalast, Norderende 156, 18565 Insel Hiddensee"
224,18569,Schaprode,Eishafen,Lange Str. 40,19,54.5133215,13.165266,"Eishafen, Lange Str. 40, 18569 Schaprode"
225,18586,Sellin,Janny's Eis Cafe,Wilhelmstr. 21,4,54.3817625,13.6977029,"Janny's Eis Cafe, Wilhelmstr. 21, 18586 Sellin"
226,19055,Schwerin,Ilka Eis & Heiss,2. Enge Str. 2,158,53.62779,11.41429,"Ilka Eis & Heiss, 2. Enge Str. 2, 19055 Schwerin"
227,19063,Schwerin,Eis-Manufaktur,Zum Reppin 4,49,53.6003674,11.4878394,"Eis-Manufaktur, Zum Reppin 4, 19063 Schwerin"
228,19370,Parchim,Café am Brunnen,Am Brunnen 1,6,53.4063698,11.8364125,"Café am Brunnen, Am Brunnen 1, 19370 Parchim"
229,19370,Parchim,Krolls Eis- und Milchbar,Schuhmarkt 7,8,53.4270393,11.8472376,"Krolls Eis- und Milchbar, Schuhmarkt 7, 19370 Parchim"
230,19399,Dobbertin,Eiscafe Konditorei Kentzler,Kleestener Weg 8,6,53.6233735,12.0745735,"Eiscafe Konditorei Kentzler, Kleestener Weg 8, 19399 Dobbertin"
231,20095,Hamburg,L'Italiana Gelateria,Ballindamm 40,10,53.5516945,9.99521719999999,"L'Italiana Gelateria, Ballindamm 40, 20095 Hamburg"
232,20099,Hamburg,Luciella's Ice Cream,Lange Reihe 113,147,53.5599015,10.0140068,"Luciella's Ice Cream, Lange Reihe 113, 20099 Hamburg"
233,20146,Hamburg,La Veneziana,Grindelallee 108,3,53.567926,9.98073859999999,"La Veneziana, Grindelallee 108, 20146 Hamburg"
234,20146,Hamburg,Eiscafe La Veneziana,Grindelallee 108,15,53.567926,9.98073859999999,"Eiscafe La Veneziana, Grindelallee 108, 20146 Hamburg"
235,20148,Hamburg,Luigi Ballarin Eiscafé Il-Gelato,Mittelweg 29,5,53.56833,9.99439999999999,"Luigi Ballarin Eiscafé Il-Gelato, Mittelweg 29, 20148 Hamburg"
236,20249,Hamburg,Eis Schmidt,Eppendorfer Landstr. 96,58,53.59162,9.98841,"Eis Schmidt, Eppendorfer Landstr. 96, 20249 Hamburg"
237,20249,Hamburg,Eiscafé Eiszeit,Eppendorfer Landstr. 33,85,53.58802,9.98477999999999,"Eiscafé Eiszeit, Eppendorfer Landstr. 33, 20249 Hamburg"
238,20253,Hamburg,Eisliebe,Eppendorfer Weg 170,41,53.57996,9.9681,"Eisliebe, Eppendorfer Weg 170, 20253 Hamburg"
239,20255,Hamburg,enjoy it finest icecream and fruits,Stellinger Weg 26,4,53.57941,9.94962,"enjoy it finest icecream and fruits, Stellinger Weg 26, 20255 Hamburg"
240,20257,Hamburg,Liberty Eiscafé,Lappenbergsallee 43,59,53.5775699999999,9.94135,"Liberty Eiscafé, Lappenbergsallee 43, 20257 Hamburg"
241,20257,Hamburg,Eiszeit,Müggenkampstr. 36,53,53.5800001,9.9434056,"Eiszeit, Müggenkampstr. 36, 20257 Hamburg"
242,20259,Hamburg,Eis-Cafe Tropea,Osterstr. 116,4,53.5765006,9.9524244,"Eis-Cafe Tropea, Osterstr. 116, 20259 Hamburg"
243,20259,Hamburg,Eiscafé San Remo,Osterstr. 21,18,53.5742446999999,9.9597842,"Eiscafé San Remo, Osterstr. 21, 20259 Hamburg"
244,20354,Hamburg,Eis Livotto,Stephansplatz,10,53.5584732115653,9.98896281213376,"Eis Livotto, Stephansplatz, 20354 Hamburg"
245,20355,Hamburg,Eiskantine,Kohlhöfen 10,124,53.551936,9.980597,"Eiskantine, Kohlhöfen 10, 20355 Hamburg"
246,20357,Hamburg,Eis Schmidt,Schulterblatt 78,22,53.5622,9.96225999999999,"Eis Schmidt, Schulterblatt 78, 20357 Hamburg"
247,20357,Hamburg,Die Eisbande,Bartelsstr. 7,47,53.5615092,9.9648982,"Die Eisbande, Bartelsstr. 7, 20357 Hamburg"
248,20359,Hamburg,Beizini,Beim Grünen Jäger,3,53.5577805,9.9608557,"Beizini, Beim Grünen Jäger, 20359 Hamburg"
249,20359,Hamburg,Lieblings,Detlev-Bremer-Str. 50,3,53.5502909999999,9.9644171,"Lieblings, Detlev-Bremer-Str. 50, 20359 Hamburg"
250,20359,Hamburg,Luciella's Ice Cream,Detlev-Bremer-Str. 46,196,53.5503423,9.9647756,"Luciella's Ice Cream, Detlev-Bremer-Str. 46, 20359 Hamburg"
251,20359,Hamburg,Joschi,Neuer Kamp 19,35,53.55761,9.96637,"Joschi, Neuer Kamp 19, 20359 Hamburg"
252,20457,Hamburg,Orogelato,Osakaallee 4,8,53.5439936,9.99778989999999,"Orogelato, Osakaallee 4, 20457 Hamburg"
253,20457,Hamburg,Miss Sofie,Am Kaiserkai 59a,24,53.5413487999999,9.98629639999999,"Miss Sofie, Am Kaiserkai 59a, 20457 Hamburg"
254,21107,Hamburg,Eis-Eck: Wilhelmsburger Eisdealer,Veringstr. 155,6,53.5057799999999,9.98575999999999,"Eis-Eck: Wilhelmsburger Eisdealer, Veringstr. 155, 21107 Hamburg"
255,21149,Hamburg,Arktis,Cuxhavener Str. 439,26,53.47127,9.83164,"Arktis, Cuxhavener Str. 439, 21149 Hamburg"
256,21220,Seevetal,Maschener Eiscafe,Horster Landstr. 118,59,53.3774899999999,10.03417,"Maschener Eiscafe, Horster Landstr. 118, 21220 Seevetal"
257,21266,Jesteburg,Eiscafe Marinelli,Hauptstraße 61,4,53.310225,9.96019089999999,"Eiscafe Marinelli, Hauptstraße 61, 21266 Jesteburg"
258,21335,Lüneburg,Eiscafe Venezia,Am Sande 22,6,53.2475179,10.4112105,"Eiscafe Venezia, Am Sande 22, 21335 Lüneburg"
259,21382,Brietlingen,Eiscafé Tropical,Bundesstraße 10,4,53.3335,10.44765,"Eiscafé Tropical, Bundesstraße 10, 21382 Brietlingen"
260,21385,Amelinghausen,Eiscafé Tante Adele,Lüneburger Straße  55,3,53.1255509999999,10.2141822,"Eiscafé Tante Adele, Lüneburger Straße  55, 21385 Amelinghausen"
261,21465,Reinbek,Eiscafé Veneto,Bergstrasse 3,4,53.510082,10.2519147,"Eiscafé Veneto, Bergstrasse 3, 21465 Reinbek"
262,21614,Buxtehude,Sole Mio,Hinter dem Zwinger  13,5,53.47751,9.6982,"Sole Mio, Hinter dem Zwinger  13, 21614 Buxtehude"
263,21629,Neu Wulmstorf,Tanjas Eiscafé,Marktplatz 1,3,53.4672916,9.7917074,"Tanjas Eiscafé, Marktplatz 1, 21629 Neu Wulmstorf"
264,21629,Neu Wulmstorf,Eiscafe fresh,Bahnhofstraße 64,67,53.4698384,9.7913001,"Eiscafe fresh, Bahnhofstraße 64, 21629 Neu Wulmstorf"
265,21682,Stade,Köpkes Eiscafe,Bremervörder Str. 152,11,53.59524,9.43689,"Köpkes Eiscafe, Bremervörder Str. 152, 21682 Stade"
266,21698,Harsefeld,Eiscafé Dante,Wilhelmstrasse  2,4,53.4525234,9.50265179999999,"Eiscafé Dante, Wilhelmstrasse  2, 21698 Harsefeld"
267,22041,Hamburg,Eiscafe Jacobs,Schloßstr. 108,12,53.5720754,10.0750706,"Eiscafe Jacobs, Schloßstr. 108, 22041 Hamburg"
268,22043,Hamburg,Das Eis-Café,Rodigallee 167,5,53.57125,10.1162,"Das Eis-Café, Rodigallee 167, 22043 Hamburg"
269,22045,Hamburg,Eiscafe Röhling,Tonndorfer Hauptstr. 170A,5,53.59186,10.13632,"Eiscafe Röhling, Tonndorfer Hauptstr. 170A, 22045 Hamburg"
270,22049,Hamburg,Der Eismann,Dithmarscher Str. 28,3,53.5782919,10.0604974,"Der Eismann, Dithmarscher Str. 28, 22049 Hamburg"
271,22083,Hamburg,Salvatore Tomarchio,Imstedt 6,3,53.5798135999999,10.0296928,"Salvatore Tomarchio, Imstedt 6, 22083 Hamburg"
272,22085,Hamburg,Delzepich Eis,Winterhuder Weg 67,139,53.5773766,10.0182327,"Delzepich Eis, Winterhuder Weg 67, 22085 Hamburg"
273,22087,Hamburg,La Serenissima,Ifflandstr. 92,4,53.5641168999999,10.024055,"La Serenissima, Ifflandstr. 92, 22087 Hamburg"
274,22089,Hamburg,OroGelato,Wandsbeker Chaussee 94,8,53.5666537,10.0418476,"OroGelato, Wandsbeker Chaussee 94, 22089 Hamburg"
275,22175,Hamburg,Eis-Café Höft,Bramfelder Chaussee 384,9,53.622782,10.0840631,"Eis-Café Höft, Bramfelder Chaussee 384, 22175 Hamburg"
276,22179,Hamburg,Arktis Eiscafe,Wandsbeker Str. 42,6,53.5968922,10.0720995,"Arktis Eiscafe, Wandsbeker Str. 42, 22179 Hamburg"
277,22297,Hamburg,Eis-Perle,Alsterdorfer Str. 283,106,53.60856,10.00905,"Eis-Perle, Alsterdorfer Str. 283, 22297 Hamburg"
278,22299,Hamburg,Il Gelato,Dorotheenstr. 182,127,53.59158,10.00259,"Il Gelato, Dorotheenstr. 182, 22299 Hamburg"
279,22301,Hamburg,Eiscafé am Poelchaukamp,Poelchaukamp 3,23,53.5815879,10.0106198,"Eiscafé am Poelchaukamp, Poelchaukamp 3, 22301 Hamburg"
280,22301,Hamburg,Café Froyowelt,Dorotheenstr. 99,4,53.5861104,10.0055716,"Café Froyowelt, Dorotheenstr. 99, 22301 Hamburg"
281,22307,Hamburg,Gelateria Tanduo,Fuhlsbüttler Str. 291,5,53.59948,10.0408,"Gelateria Tanduo, Fuhlsbüttler Str. 291, 22307 Hamburg"
282,22391,Hamburg,Eiscuisine,Rolfinckstr. 12 a,4,53.64035,10.08292,"Eiscuisine, Rolfinckstr. 12 a, 22391 Hamburg"
283,22397,Hamburg,Eisbär Ohlstedt,Alte Dorfstr. 2a,12,53.6949216999999,10.1372502,"Eisbär Ohlstedt, Alte Dorfstr. 2a, 22397 Hamburg"
284,22397,Hamburg,Duvenstedter Eiscafé,Poppenbütteler Chaussee 8,8,53.70831,10.10461,"Duvenstedter Eiscafé, Poppenbütteler Chaussee 8, 22397 Hamburg"
285,22397,Hamburg,Heiß auf Eis,Duvenstedter Damm 56,8,53.7078332,10.1087575,"Heiß auf Eis, Duvenstedter Damm 56, 22397 Hamburg"
286,22415,Hamburg,Eiscafé Antonios,Flughafenstraße  69,3,53.64047,10.01689,"Eiscafé Antonios, Flughafenstraße  69, 22415 Hamburg"
287,22417,Hamburg,Eiscafe Brigitte Jacobs,Immenhöven  23,12,53.6609679,10.0214576,"Eiscafe Brigitte Jacobs, Immenhöven  23, 22417 Hamburg"
288,22417,Hamburg,Eiskult,Holitzberg 145 a,54,53.67524,10.02675,"Eiskult, Holitzberg 145 a, 22417 Hamburg"
289,22455,Hamburg,Eiscafe Siebenhüner,Paul-Sorge-Str. 140,12,53.6335799999999,9.95305,"Eiscafe Siebenhüner, Paul-Sorge-Str. 140, 22455 Hamburg"
290,22457,Hamburg,Eis-Cafe Höft,Burgwedel 67,13,53.6421445,9.9157815,"Eis-Cafe Höft, Burgwedel 67, 22457 Hamburg"
291,22549,Hamburg,Eisdiele Osdorf,Rugenbarg 10,9,53.573933,9.8469892,"Eisdiele Osdorf, Rugenbarg 10, 22549 Hamburg"
292,22559,Hamburg,Eis Kalte Schnauze,Wedeler Landstr. 34,28,53.582,9.75743999999999,"Eis Kalte Schnauze, Wedeler Landstr. 34, 22559 Hamburg"
293,22587,Hamburg,La Casa del Gelato,Blankeneser Bahnhofstr. 46,5,53.5617574,9.8115011,"La Casa del Gelato, Blankeneser Bahnhofstr. 46, 22587 Hamburg"
294,22607,Hamburg,Eis Schmidt,Waitzstr. 22,6,53.5596782999999,9.8829084,"Eis Schmidt, Waitzstr. 22, 22607 Hamburg"
295,22609,Hamburg,Dante-Eis,Nienstedtener Str. 3C,8,53.553907,9.84469159999999,"Dante-Eis, Nienstedtener Str. 3C, 22609 Hamburg"
296,22761,Hamburg,Eispiraten,Mendelssohnstr. 78,146,53.563725,9.908788,"Eispiraten, Mendelssohnstr. 78, 22761 Hamburg"
297,22761,Hamburg,Eispiraten,Mendelssohnstr. 78,8,53.563725,9.908788,"Eispiraten, Mendelssohnstr. 78, 22761 Hamburg"
298,22763,Hamburg,Biggis Eiscafe,Friedensallee  267,11,53.55889,9.91153999999999,"Biggis Eiscafe, Friedensallee  267, 22763 Hamburg"
299,22763,Hamburg,Eisprinzessinnen,Am Rathenaupark 15,202,53.55083,9.91206,"Eisprinzessinnen, Am Rathenaupark 15, 22763 Hamburg"
300,22763,Hamburg,Eisliebe,Bei der Reitbahn 2,351,53.5514781,9.92528,"Eisliebe, Bei der Reitbahn 2, 22763 Hamburg"
301,22765,Hamburg,Eiscafé Venezia,Ottenser Hauptstr. 23,8,53.5519787,9.9309725,"Eiscafé Venezia, Ottenser Hauptstr. 23, 22765 Hamburg"
302,22767,Hamburg,Filippi Eis,Große Bergstr. 219,5,53.5520288,9.9422096,"Filippi Eis, Große Bergstr. 219, 22767 Hamburg"
303,22767,Hamburg,Liberty Eiscafé & Bistro,Fischmarkt 11,100,53.5457013,9.9517201,"Liberty Eiscafé & Bistro, Fischmarkt 11, 22767 Hamburg"
304,22880,Wedel,Eis-Café Venezia,Feldstr. 1,5,53.5776125,9.7056211,"Eis-Café Venezia, Feldstr. 1, 22880 Wedel"
305,22926,Ahrensburg,Eiscafe La Volpe,Rathausplatz 25,10,53.6723768,10.2362403,"Eiscafe La Volpe, Rathausplatz 25, 22926 Ahrensburg"
306,22941,Bargteheide,Eiscafé La Piazza,Bahnhofstr. 1,118,53.7297796,10.2696522,"Eiscafé La Piazza, Bahnhofstr. 1, 22941 Bargteheide"
307,22946,Trittau,Eiscafe Griem,Poststr. 33,4,53.6078894,10.4115158,"Eiscafe Griem, Poststr. 33, 22946 Trittau"
308,22949,Ammersbek,Dein Café,Georg-Sasse-Str. 16,31,53.6778612,10.1492073,"Dein Café, Georg-Sasse-Str. 16, 22949 Ammersbek"
309,23552,Lübeck,Soulmade,Fleischhauerstr. 61,113,53.8665205,10.6902497,"Soulmade, Fleischhauerstr. 61, 23552 Lübeck"
310,23552,Lübeck,Venezia,Königstr. 64,9,53.8664752,10.6869471,"Venezia, Königstr. 64, 23552 Lübeck"
311,23552,Lübeck,Mein Eis,Mühlenstr. 27,5,53.8635867,10.6866046,"Mein Eis, Mühlenstr. 27, 23552 Lübeck"
312,23558,Lübeck,Eiscafe Paradiso,Moislinger Allee 6A,5,53.86511,10.67389,"Eiscafe Paradiso, Moislinger Allee 6A, 23558 Lübeck"
313,23570,Lubeck,Gelateria Campion,Vorderreihe 59,6,53.95891,10.87277,"Gelateria Campion, Vorderreihe 59, 23570 Lubeck"
314,23611,Bad Schwartau,Eiscafé Venezia,Markt 9,33,53.9189441,10.6982398,"Eiscafé Venezia, Markt 9, 23611 Bad Schwartau"
315,23683,Scharbeutz,Eiscafe bei Mario,Strandallee 131,13,54.0277397,10.7563926,"Eiscafe bei Mario, Strandallee 131, 23683 Scharbeutz"
316,23730,Neustadt,Eiscafé Dolomiti,Kremper Str. 12,5,54.1085299999999,10.81556,"Eiscafé Dolomiti, Kremper Str. 12, 23730 Neustadt"
317,23743,Grömitz,Eisperle  Eiscafe und Sonnenterrasse,Kurpromenade 90,5,54.1425407,10.9564503,"Eisperle  Eiscafe und Sonnenterrasse, Kurpromenade 90, 23743 Grömitz"
318,23769,Fehmarn,Radden's Eis,Süderstraße 40,16,54.43398,11.19755,"Radden's Eis, Süderstraße 40, 23769 Fehmarn"
319,23795,Bad Segeberg,Eiscafé Eislotte,Kurhausstraße 22,18,53.9383683,10.305697,"Eiscafé Eislotte, Kurhausstraße 22, 23795 Bad Segeberg"
320,23843,Bad Oldesloe,Eiscafe San Remo,Mühlenstr. 13,10,53.80961,10.37628,"Eiscafe San Remo, Mühlenstr. 13, 23843 Bad Oldesloe"
321,23843,Bad Oldesloe,eisbar,Hamburger Straße 6,57,53.80909,10.36983,"eisbar, Hamburger Straße 6, 23843 Bad Oldesloe"
322,23858,Reinfeld,Eiswitt,Paul-von-Schoenaich-Str. 44,105,53.83141,10.4889631,"Eiswitt, Paul-von-Schoenaich-Str. 44, 23858 Reinfeld"
323,23909,Ratzeburg,Eispavillon Pelz,Schloßwiese 1,17,53.6989941999999,10.7663721,"Eispavillon Pelz, Schloßwiese 1, 23909 Ratzeburg"
324,23936,Rüting,Gasthaus Horn,Schweriner Str. 2A,5,53.79772,11.2155,"Gasthaus Horn, Schweriner Str. 2A, 23936 Rüting"
325,23996,Bobitz,Panow's Eisdiele,Wismarsche Str. 32,5,53.8035299999999,11.36123,"Panow's Eisdiele, Wismarsche Str. 32, 23996 Bobitz"
326,24103,Kiel,Eisbar Zantopp,Sophienblatt 20,13,54.3171879999999,10.1310453,"Eisbar Zantopp, Sophienblatt 20, 24103 Kiel"
327,24103,Kiel,Giovanni L.,Sophienblatt 2,6,54.31836,10.13174,"Giovanni L., Sophienblatt 2, 24103 Kiel"
328,24103,Kiel,Eiscafe La Dolce Vita,Schülperbaum 7,60,54.3198662,10.1286368,"Eiscafe La Dolce Vita, Schülperbaum 7, 24103 Kiel"
329,24103,Kiel,Giovanni L.,Mühlendamm 1-13,9,54.3126897,10.0989207,"Giovanni L., Mühlendamm 1-13, 24103 Kiel"
330,24105,Kiel,Eisparadies,Knooper Weg 150a,57,54.334923,10.130015,"Eisparadies, Knooper Weg 150a, 24105 Kiel"
331,24114,Kiel,Liseis,Ringstr. 63,223,54.3176001999999,10.123632,"Liseis, Ringstr. 63, 24114 Kiel"
332,24159,Kiel,Eiscafe Venezia,An der Schanze 45,8,54.3950415,10.1734556,"Eiscafe Venezia, An der Schanze 45, 24159 Kiel"
333,24159,Kiel,Eis von Neitsch,An der Schanze 44a,3,54.3953151,10.1738111,"Eis von Neitsch, An der Schanze 44a, 24159 Kiel"
334,24232,Schönkirchen,Eiscafé Bertow,Schönberger Landstr. 72,5,54.33542,10.21426,"Eiscafé Bertow, Schönberger Landstr. 72, 24232 Schönkirchen"
335,24306,Plön,Eiscafé Cini,Markt  12,6,54.15832,10.41661,"Eiscafé Cini, Markt  12, 24306 Plön"
336,24321,Lütjenburg,Eiscafe Manuela,Am Markt 11,3,54.29326,10.5888973,"Eiscafe Manuela, Am Markt 11, 24321 Lütjenburg"
337,24340,Eckernförde,Eis Müller,Gartenstr. 16,32,54.47114,9.83502,"Eis Müller, Gartenstr. 16, 24340 Eckernförde"
338,24558,Henstedt-Ulzburg,Eis Soost,Wilstedter Str. 35,19,53.7537688,9.9952302,"Eis Soost, Wilstedter Str. 35, 24558 Henstedt-Ulzburg"
339,24589,Nortorf,Edith's Eisstübchen,Neue Str. 20,40,54.1690996,9.85108159999999,"Edith's Eisstübchen, Neue Str. 20, 24589 Nortorf"
340,24594,Hohenwestedt,Eiscafé Venezia,Lindenstr. 40,3,54.0902399999999,9.65397,"Eiscafé Venezia, Lindenstr. 40, 24594 Hohenwestedt"
341,24610,Trappenkamp,Cini Eiscafé,Kieler Str.  2,7,54.03707,10.22055,"Cini Eiscafé, Kieler Str.  2, 24610 Trappenkamp"
342,24768,Rendsburg,Eisstübchen,am kreishafen  3,24,54.2931199999999,9.66924,"Eisstübchen, am kreishafen  3, 24768 Rendsburg"
343,24837,Schleswig,Eishörnchen,Mönchenbrückstraße 4,19,54.517281,9.56872849999999,"Eishörnchen, Mönchenbrückstraße 4, 24837 Schleswig"
344,24937,Flensburg,Eiscafé Eiszeit,Holm 49,9,54.7837867999999,9.4361984,"Eiscafé Eiszeit, Holm 49, 24937 Flensburg"
345,24943,Flensburg,Eisdiele Flora,Beethovenstr. 40,15,54.7917999999999,9.47056,"Eisdiele Flora, Beethovenstr. 40, 24943 Flensburg"
346,24944,Flensburg,Eiscafé Eiszeit,Kleine Lücke 1,74,54.816211,9.47448569999999,"Eiscafé Eiszeit, Kleine Lücke 1, 24944 Flensburg"
347,25474,Bönningstedt,Eiscafé Eistraum,Kieler Str. 62,5,53.66087,9.90724,"Eiscafé Eistraum, Kieler Str. 62, 25474 Bönningstedt"
348,25551,Hohenlockstedt,Eiscafe Baldassar,Helgolandstr. 2,31,53.96449,9.6205,"Eiscafe Baldassar, Helgolandstr. 2, 25551 Hohenlockstedt"
349,25554,Wilster,Rialto,Am Markt 23,59,53.9222804,9.3749525,"Rialto, Am Markt 23, 25554 Wilster"
350,25704,Meldorf,Eiscafé Böthern,Süderstraße 14,11,54.0887068,9.0712304,"Eiscafé Böthern, Süderstraße 14, 25704 Meldorf"
351,25709,Marnerdeich,Eisblume Marnerdeich & Gartenbau Sjut,Nordseestr. 25,10,53.94896,8.98636,"Eisblume Marnerdeich & Gartenbau Sjut, Nordseestr. 25, 25709 Marnerdeich"
352,25718,Friedrichskoog,Windrose,Koogstr.  141,4,54.03019,8.84006999999999,"Windrose, Koogstr.  141, 25718 Friedrichskoog"
353,25840,Friedrichstadt,Eiscafé Pinocchio,Am Markt 18,6,54.3762051,9.0879529,"Eiscafé Pinocchio, Am Markt 18, 25840 Friedrichstadt"
354,25938,Wyk auf Föhr,Glenngelato,Sandwall 40,11,54.6876815,8.56942179999999,"Glenngelato, Sandwall 40, 25938 Wyk auf Föhr"
355,25938,Nieblum,Cappuccino,Jens-Jacob-Eschel Str. 20,3,54.6923089,8.49195999999999,"Cappuccino, Jens-Jacob-Eschel Str. 20, 25938 Nieblum"
356,25946,Norddorf,Eiscafe Cappuccino,Strunwai 12,11,54.6811899,8.33146599999999,"Eiscafe Cappuccino, Strunwai 12, 25946 Norddorf"
357,25946,Wittdün,Café Pustekuchen,Inselstr. 41,3,54.62672,8.39251,"Café Pustekuchen, Inselstr. 41, 25946 Wittdün"
358,25980,Sylt,Florida-Eis,Norderstr. 81,4,54.9256934999999,8.3145559,"Florida-Eis, Norderstr. 81, 25980 Sylt"
359,25980,Sylt,Häagen Dazs,Friedrichstr. 26,5,54.9077244,8.302734,"Häagen Dazs, Friedrichstr. 26, 25980 Sylt"
360,25992,List/Sylt,Sylter Eismanufaktur,Dünenstr. 3,264,55.0177,8.42185,"Sylter Eismanufaktur, Dünenstr. 3, 25992 List/Sylt"
361,25996,Wenningstedt-Braderup,Iismeer,Strandstr. 25,34,54.9369899999999,8.31629,"Iismeer, Strandstr. 25, 25996 Wenningstedt-Braderup"
362,25997,Hörnum,Lund Cafe und Restaurant,Rantumer Str. 1,58,54.75543,8.28858,"Lund Cafe und Restaurant, Rantumer Str. 1, 25997 Hörnum"
363,26121,Oldenburg,Eiscafé San Marco,Ofener Str. 42,40,53.1430644,8.194422,"Eiscafé San Marco, Ofener Str. 42, 26121 Oldenburg"
364,26122,Oldenburg,Gelateria Centrale San Marco,Markt 7,3,53.1391921,8.2150879,"Gelateria Centrale San Marco, Markt 7, 26122 Oldenburg"
365,26169,Friesoythe,Eiscafe Venezia,Bahnhofstr. 17,4,53.02312,7.85663,"Eiscafe Venezia, Bahnhofstr. 17, 26169 Friesoythe"
366,26316,Varel,Eis-Constantin,Neue Str. 3,3,53.3951,8.13928999999999,"Eis-Constantin, Neue Str. 3, 26316 Varel"
367,26384,Wilhelmshaven,Eiscafé Venezia,Gökerstr. 71,3,53.5297729,8.1261382,"Eiscafé Venezia, Gökerstr. 71, 26384 Wilhelmshaven"
368,26427,Esens,Eiscafé Venezia,Steinstr. 1,5,53.6464189999999,7.61294419999999,"Eiscafé Venezia, Steinstr. 1, 26427 Esens"
369,26434,Wangerland,Ital. Eis-Cafe San Marco,Goldstraße 17,4,53.6843565,8.0100951,"Ital. Eis-Cafe San Marco, Goldstraße 17, 26434 Wangerland"
370,26441,Jever,Das Eishaus,Alter Markt 10,160,53.5732969,7.9053273,"Das Eishaus, Alter Markt 10, 26441 Jever"
371,26474,Spiekeroog,Bunte Kuh,Noorderloog 4,4,53.7704187999999,7.694969,"Bunte Kuh, Noorderloog 4, 26474 Spiekeroog"
372,26486,Wangerooge,Bistro am Strand,Obere Strandpromenade 19,24,53.79317,7.89922999999999,"Bistro am Strand, Obere Strandpromenade 19, 26486 Wangerooge"
373,26548,Norderney,Frieseneis,Bülowallee 7 / Am Kurplatz,5,53.7050698,7.1440205,"Frieseneis, Bülowallee 7 / Am Kurplatz, 26548 Norderney"
374,26639,Wiesmoor,Eiscafe Italia,Hauptstr. 210,88,53.41108,7.72962999999999,"Eiscafe Italia, Hauptstr. 210, 26639 Wiesmoor"
375,26721,Emden,Eis-Café Rialto,Neutorstraße 38,4,53.3684176,7.2063206,"Eis-Café Rialto, Neutorstraße 38, 26721 Emden"
376,26736,Krummhörn,Eis-Café am Hafen,Sielstr. 17,13,53.5010109,7.094745,"Eis-Café am Hafen, Sielstr. 17, 26736 Krummhörn"
377,26757,Borkum,Die kleine Borkumer Eiskonditorei,Franz-Habich-Str. 23,7,53.5867389999999,6.66287,"Die kleine Borkumer Eiskonditorei, Franz-Habich-Str. 23, 26757 Borkum"
378,26789,Leer (Ostfriesland),Eiscafe bei Bruno,Mühlenstr. 79,3,53.23031,7.45746,"Eiscafe bei Bruno, Mühlenstr. 79, 26789 Leer (Ostfriesland)"
379,26817,Rhauderfehn,Bei Bruno,Untenende 28,28,53.1358399999999,7.57923,"Bei Bruno, Untenende 28, 26817 Rhauderfehn"
380,26826,Weener,Venezia,Westerstr. 30,114,53.16525,7.35147,"Venezia, Westerstr. 30, 26826 Weener"
381,26831,Bunde,Eiscafé Mola,Neuschanzener Str. 10,5,53.1836178999999,7.26637669999999,"Eiscafé Mola, Neuschanzener Str. 10, 26831 Bunde"
382,27337,Blender,Intscheder Bauernhof-Eis,An der Aue 16,20,52.95477,9.13755,"Intscheder Bauernhof-Eis, An der Aue 16, 27337 Blender"
383,27356,Rotenburg ( Wümme),Eismanufaktur Café,Große Str. 46-48,7,53.110648,9.4055617,"Eismanufaktur Café, Große Str. 46-48, 27356 Rotenburg ( Wümme)"
384,27404,Zeven,Eiscafé Maurizio u. Claudio Santin,Lange Str. 6,7,53.29469,9.27812999999999,"Eiscafé Maurizio u. Claudio Santin, Lange Str. 6, 27404 Zeven"
385,27412,Wilstedt,Milchkontor,Am Löhberg 2,148,53.19627,9.09717,"Milchkontor, Am Löhberg 2, 27412 Wilstedt"
386,27432,Bremervörde,Pinocchio Eiscafe,Kirchenstr. 14,5,53.48577,9.14580999999999,"Pinocchio Eiscafe, Kirchenstr. 14, 27432 Bremervörde"
387,27568,Bremerhaven,Eiscafe Venezia,Obere Bürger 18,5,53.54224,8.5781,"Eiscafe Venezia, Obere Bürger 18, 27568 Bremerhaven"
388,27570,Bremerhaven,Eiscafé Teo,An der Mühle 33,11,53.5299931,8.59243719999999,"Eiscafé Teo, An der Mühle 33, 27570 Bremerhaven"
389,27576,Bremerhaven,Faust  Der Eisladen,Goethestr. 11,69,53.55327,8.58011999999999,"Faust  Der Eisladen, Goethestr. 11, 27576 Bremerhaven"
390,27726,Worpswede,Eiscafé Dolomiti,Hembergstr. 21,5,53.22144,8.93098,"Eiscafé Dolomiti, Hembergstr. 21, 27726 Worpswede"
391,28195,Bremen,Schröter's Chocolaterie,Schnoor 14,8,53.0729,8.80975999999999,"Schröter's Chocolaterie, Schnoor 14, 28195 Bremen"
392,28195,Bremen,Eiscafé Cercenà,Schlengstr. 2,5,53.0492954,8.89281499999999,"Eiscafé Cercenà, Schlengstr. 2, 28195 Bremen"
393,28199,Bremen,Tiziano Gelateria Italiana,Pappelstr. 90,5,53.0672174,8.7924557,"Tiziano Gelateria Italiana, Pappelstr. 90, 28199 Bremen"
394,28201,Bremen,Der Eismacher,Buntentorsteinweg 246,4,53.0624289,8.81033489999999,"Der Eismacher, Buntentorsteinweg 246, 28201 Bremen"
395,28203,Bremen,Eiscafé Panciera,Ostertorsteinweg 73,11,53.0723683,8.81911549999999,"Eiscafé Panciera, Ostertorsteinweg 73, 28203 Bremen"
396,28203,Bremen,Marco Ferrari,Vor dem Steintor 110,8,53.0722409,8.8289609,"Marco Ferrari, Vor dem Steintor 110, 28203 Bremen"
397,28203,Bremen,Eislabor,Vor dem Steintor 31,3,53.0728386,8.82510469999999,"Eislabor, Vor dem Steintor 31, 28203 Bremen"
398,28205,Bremen,Eislabor,Am Schwarzen Meer 152,36,53.0725998,8.8419543,"Eislabor, Am Schwarzen Meer 152, 28205 Bremen"
399,28207,Bremen,Eiscafe de Luca,Föhrenstr. 42,6,53.063282,8.877362,"Eiscafe de Luca, Föhrenstr. 42, 28207 Bremen"
400,28209,Bremen,Eis Molin,Wachmannstr. 41,18,53.08523,8.82960999999999,"Eis Molin, Wachmannstr. 41, 28209 Bremen"
401,28213,Bremen,Café e Gelato,Emmastr. 207,6,53.09121,8.84451,"Café e Gelato, Emmastr. 207, 28213 Bremen"
402,28215,Bremen,Eiscafé Cercenà,Hemmstr. 124,38,53.0929323,8.8033603,"Eiscafé Cercenà, Hemmstr. 124, 28215 Bremen"
403,28237,Bremen,Eis Molin,Gröpelinger Heerstr. 159,18,53.1147895999999,8.7619156,"Eis Molin, Gröpelinger Heerstr. 159, 28237 Bremen"
404,28277,Bremen,Abraham-Café,Anna-Stiegler-Str. 124,5,53.03716,8.82685,"Abraham-Café, Anna-Stiegler-Str. 124, 28277 Bremen"
405,28357,Bremen,Blocklander Eisdiele,Niederblockland 6,55,53.15458,8.83842999999999,"Blocklander Eisdiele, Niederblockland 6, 28357 Bremen"
406,28757,Bremen,Gelateria Italiana Miotto,Gerhard-Rohlfs-Str. 7,9,53.17204,8.62046,"Gelateria Italiana Miotto, Gerhard-Rohlfs-Str. 7, 28757 Bremen"
407,28779,Bremen,Venezia,Kapitän-Dallmann-Str. 6,8,53.1821517,8.57205909999999,"Venezia, Kapitän-Dallmann-Str. 6, 28779 Bremen"
408,28779,Bremen,Bellissima,Pürschweg 2,26,53.20245,8.57505,"Bellissima, Pürschweg 2, 28779 Bremen"
409,28844,Weyhe,Riviera Eiscafe,Bahnhofstr. 50B,3,52.98363,8.85636,"Riviera Eiscafe, Bahnhofstr. 50B, 28844 Weyhe"
410,28870,Ottersberg,Café Lindenlaub,Wilhelmshauser Str. 2,49,53.1254128,9.06299149999999,"Café Lindenlaub, Wilhelmshauser Str. 2, 28870 Ottersberg"
411,29439,Lüchow,Eiscafe Cortina,Kirchstraße,6,52.9668,11.1572,"Eiscafe Cortina, Kirchstraße, 29439 Lüchow"
412,29451,Dannenberg,Eiscafe del Pizzo,Münzstr. 7,5,53.09847,11.09608,"Eiscafe del Pizzo, Münzstr. 7, 29451 Dannenberg"
413,29614,Soltau,Eis-Café Martini,Wilhelmstr. 12,3,52.98658,9.84155,"Eis-Café Martini, Wilhelmstr. 12, 29614 Soltau"
414,29640,Schneverdingen,Eiscafe Cortina,Schulstr. 4,6,53.1194095,9.7878964,"Eiscafe Cortina, Schulstr. 4, 29640 Schneverdingen"
415,30159,Hannover,Giovanni L.,Georgstraße 26,15,52.3743996,9.73787559999999,"Giovanni L., Georgstraße 26, 30159 Hannover"
416,30159,Hannover,Colosseum,Ernst August Platz 1,12,52.3765286,9.7408928,"Colosseum, Ernst August Platz 1, 30159 Hannover"
417,30161,Hannover,Eiscafé San Marco,Lister Meile 70,40,52.3872841,9.7491649,"Eiscafé San Marco, Lister Meile 70, 30161 Hannover"
418,30167,Hannover,Eis 2000,Engelbosteler Damm 34,5,52.3846184,9.7251541,"Eis 2000, Engelbosteler Damm 34, 30167 Hannover"
419,30169,Hannover,Eis 2000,Hildesheimer Str. 77,14,52.3608302,9.7502841,"Eis 2000, Hildesheimer Str. 77, 30169 Hannover"
420,30179,Hannover,Gondola Eiskaffee,Vahrenheider Markt 2,3,52.4115,9.7495,"Gondola Eiskaffee, Vahrenheider Markt 2, 30179 Hannover"
421,30449,Hannover,Frioli,Stephanusstr. 8,77,52.3683231,9.71462599999999,"Frioli, Stephanusstr. 8, 30449 Hannover"
422,30451,Hannover,Eiscafe da Beppo,Limmerstr. 30,10,52.3730111,9.70921199999999,"Eiscafe da Beppo, Limmerstr. 30, 30451 Hannover"
423,30559,Hannover,Eiscafe Soravia,Tiergartenstraße 126b,12,52.36069,9.82873,"Eiscafe Soravia, Tiergartenstraße 126b, 30559 Hannover"
424,30974,Wennigsen (Deister),Eis & Fantasy,Hauptstr. 31A,6,52.27173,9.56784,"Eis & Fantasy, Hauptstr. 31A, 30974 Wennigsen (Deister)"
425,31028,Gronau (Leine),Eiscafé Da Ros,Hauptstr. 4,3,52.084275,9.7767184,"Eiscafé Da Ros, Hauptstr. 4, 31028 Gronau (Leine)"
426,31224,Peine,Eisdiele Bernauer,Am Markt 19,5,52.3234151,10.2264314,"Eisdiele Bernauer, Am Markt 19, 31224 Peine"
427,31515,Wunstorf,Eiscafe Winkelgasse,Alter Winkel 4,317,52.4543715,9.351231,"Eiscafe Winkelgasse, Alter Winkel 4, 31515 Wunstorf"
428,31552,Rodenberg,Eiscafé Dolomiti,Lange Str. 1,7,52.31162,9.35178,"Eiscafé Dolomiti, Lange Str. 1, 31552 Rodenberg"
429,31812,Bad Pyrmont,Eiscafè Loris Calvi,Schillerstr. 45,5,51.98486,9.24016999999999,"Eiscafè Loris Calvi, Schillerstr. 45, 31812 Bad Pyrmont"
430,31867,Lauenau,Eiscafé Dolomiti,Am Markt 5,7,52.2738534,9.3704001,"Eiscafé Dolomiti, Am Markt 5, 31867 Lauenau"
431,32052,Herford,Kurz Eisbar,Janup 3,12,52.11579,8.66583,"Kurz Eisbar, Janup 3, 32052 Herford"
432,32257,Bünde,Eiscafé Roma,Eschstr. 23,9,52.19792,8.58391,"Eiscafé Roma, Eschstr. 23, 32257 Bünde"
433,32351,Stemwede,Eisdiele in der Alten Kantorei,Am Kirchplatz 8,13,52.37391,8.4536,"Eisdiele in der Alten Kantorei, Am Kirchplatz 8, 32351 Stemwede"
434,32425,Minden,Eiscafé Sweet Virginia,Marienstraße  108a,8,52.3046674,8.9158005,"Eiscafé Sweet Virginia, Marienstraße  108a, 32425 Minden"
435,32427,Minden,Eiscafe Giovanni L,Marianenstr. 10,4,52.2906442,8.9165222,"Eiscafe Giovanni L, Marianenstr. 10, 32427 Minden"
436,32427,Minden,Eiscafé Venezia,Kuhlenstr. 102,4,52.2841,8.88435,"Eiscafé Venezia, Kuhlenstr. 102, 32427 Minden"
437,32756,Detmold,Eissalon Europa,Lange Str. 39,45,51.9347116,8.87921169999999,"Eissalon Europa, Lange Str. 39, 32756 Detmold"
438,32760,Detmold,Daniele,Friedrich-Ebert-Str. 95,3,51.9243503999999,8.8427455,"Daniele, Friedrich-Ebert-Str. 95, 32760 Detmold"
439,33098,Paderborn,Mulino Eiscafé,Mühlenstr. 8,5,51.7204610999999,8.753103,"Mulino Eiscafé, Mühlenstr. 8, 33098 Paderborn"
440,33098,Paderborn,Eiscafe Artusa,Westernstr. 2,5,51.7170628999999,8.7512595,"Eiscafe Artusa, Westernstr. 2, 33098 Paderborn"
441,33330,Gütersloh,Eiscafé Terminio,Carl-Bertelsmann-Str. 34,21,51.9050133,8.3880232,"Eiscafé Terminio, Carl-Bertelsmann-Str. 34, 33330 Gütersloh"
442,33335,Gütersloh,Eiscafé Pino,Friedrichsdorfer Str. 53,5,51.9389,8.44279,"Eiscafé Pino, Friedrichsdorfer Str. 53, 33335 Gütersloh"
443,33378,Rheda-Wiedenbrück,Eiscafe Garda,Klingelbrink 21,14,51.8333121999999,8.31029689999999,"Eiscafe Garda, Klingelbrink 21, 33378 Rheda-Wiedenbrück"
444,33378,Rheda-Wiedenbrück,Eiscafe Corazza,Neuer Wall 8,8,51.8544233999999,8.2883892,"Eiscafe Corazza, Neuer Wall 8, 33378 Rheda-Wiedenbrück"
445,33428,Harsewinkel,Gelato & Café PreGo,Tecklenburger Weg 8,8,51.96382,8.21699,"Gelato & Café PreGo, Tecklenburger Weg 8, 33428 Harsewinkel"
446,33602,Bielefeld,Gelatteria De Lorenzo,Obernstr. 45,6,52.0195742,8.5284622,"Gelatteria De Lorenzo, Obernstr. 45, 33602 Bielefeld"
447,33602,Bielefeld,Giovanni L.,Arndtstr. 9,3,52.0250172999999,8.5291543,"Giovanni L., Arndtstr. 9, 33602 Bielefeld"
448,33602,Bielefeld,Giovanni L.,Rathausstr. 1,8,52.0205085,8.5324803,"Giovanni L., Rathausstr. 1, 33602 Bielefeld"
449,33604,Bielefeld,Café Schumacher,Oldentruper Str. 56,6,52.0131118,8.55853,"Café Schumacher, Oldentruper Str. 56, 33604 Bielefeld"
450,33615,Bielefeld,Der Koch,Rolandstr. 15,3,52.02785,8.52281,"Der Koch, Rolandstr. 15, 33615 Bielefeld"
451,33758,Schloß Holte-Stukenbrock,Eiscafé Gianni,Bahnhofstr. 64,6,51.90378,8.61427,"Eiscafé Gianni, Bahnhofstr. 64, 33758 Schloß Holte-Stukenbrock"
452,33803,Steinhagen,Eiscafé Smile,Kirchplatz 6,4,52.0055799999999,8.41443999999999,"Eiscafé Smile, Kirchplatz 6, 33803 Steinhagen"
453,33824,Werther,Eiscafe Venezia,Alte Bielefelder Str. 11,26,52.0724248,8.41376189999999,"Eiscafe Venezia, Alte Bielefelder Str. 11, 33824 Werther"
454,34119,Kassel,Eiscafé Cortina,Wilhelmshöher Allee 134,19,51.3129172,9.4636909,"Eiscafé Cortina, Wilhelmshöher Allee 134, 34119 Kassel"
455,34119,Kassel,Boutique Del Gelato,Friedrich-Ebert-Str. 81,21,51.3154718,9.47629289999999,"Boutique Del Gelato, Friedrich-Ebert-Str. 81, 34119 Kassel"
456,34131,Kassel,Frare,Wilhelmshöher Allee 274,3,51.3139109,9.4423099,"Frare, Wilhelmshöher Allee 274, 34131 Kassel"
457,34414,Warburg,Eiscafé Venezia,Briloner Str. 4,7,51.5308141999999,9.03070389999999,"Eiscafé Venezia, Briloner Str. 4, 34414 Warburg"
458,34454,Bad Arolsen,Eis Teo,Bahnhofstraße 38,15,51.3809566,9.010911,"Eis Teo, Bahnhofstraße 38, 34454 Bad Arolsen"
459,34471,Volkmarsen,Eiscafe Venezia,Steinweg 30,4,51.41214,9.11603,"Eiscafe Venezia, Steinweg 30, 34471 Volkmarsen"
460,34560,Fritzlar,Eiscafe Venezia,Kasseler Str. 22/a,5,51.1331445,9.2747133,"Eiscafe Venezia, Kasseler Str. 22/a, 34560 Fritzlar"
461,34576,Homberg,Eiscafé Bressan,Ziegenhainer Str. 9,188,51.0315674,9.40119069999999,"Eiscafé Bressan, Ziegenhainer Str. 9, 34576 Homberg"
462,35037,Marburg,Aroma Bistro & Eisbar,Anneliese Pohl Allee 1,39,50.8179318,8.77197129999999,"Aroma Bistro & Eisbar, Anneliese Pohl Allee 1, 35037 Marburg"
463,35037,Marburg,Cafe Klingelhöfer,Haspelstr. 21,8,50.80465,8.76559,"Cafe Klingelhöfer, Haspelstr. 21, 35037 Marburg"
464,35282,Rauschenberg,Damm's Hof,Auf den Röhren 12,4,50.8876299999999,8.91248,"Damm's Hof, Auf den Röhren 12, 35282 Rauschenberg"
465,35390,Gießen,Heisszeit,Plockstraße 7,83,50.5839545,8.6744401,"Heisszeit, Plockstraße 7, 35390 Gießen"
466,35423,Lich,Eisdiele Guiseppe Morandin,Unterstadt 11,5,50.5195203,8.81946999999999,"Eisdiele Guiseppe Morandin, Unterstadt 11, 35423 Lich"
467,35444,Biebertal,Eiscafe-Datoni,Gießener Str. 14,24,50.6180223,8.5979796,"Eiscafe-Datoni, Gießener Str. 14, 35444 Biebertal"
468,35457,Lollar,Eisdiele Silano,Marburger Straße 77,6,50.65371,8.71009,"Eisdiele Silano, Marburger Straße 77, 35457 Lollar"
469,35584,Wetzlar,Eiscafé Dolomiti,Wetzlarer Str. 22,5,50.5831396,8.5221935,"Eiscafé Dolomiti, Wetzlarer Str. 22, 35584 Wetzlar"
470,36037,Fulda,Eiscafe Bonifatius,Friedrichstr.6,8,50.5519968,9.6762655,"Eiscafe Bonifatius, Friedrichstr.6, 36037 Fulda"
471,36251,Bad Hersfeld,Eisdiele Venezia,Breitenstr. 1,3,50.8683377,9.7087607,"Eisdiele Venezia, Breitenstr. 1, 36251 Bad Hersfeld"
472,36381,Schlüchtern,Ca D'oro,Obertorstr. 4,15,50.3475278,9.5247698,"Ca D'oro, Obertorstr. 4, 36381 Schlüchtern"
473,36448,Bad Liebenstein,Eiscafe Zum Polarstern,Herzog-Georg-Str. 8,4,50.81556,10.34914,"Eiscafe Zum Polarstern, Herzog-Georg-Str. 8, 36448 Bad Liebenstein"
474,37073,Göttingen,Eiscafe Da Claudio,Lange-Geismar-Str. 39,3,51.5316999,9.93580349999999,"Eiscafe Da Claudio, Lange-Geismar-Str. 39, 37073 Göttingen"
475,37073,Göttingen,Eislust,Kurze-Geismar-Str. 26-30,15,51.5310914,9.9381121,"Eislust, Kurze-Geismar-Str. 26-30, 37073 Göttingen"
476,37073,Göttingen,Eiscafe Da Claudio,Lange-Geismar-Str. 39,16,51.5316999,9.93580349999999,"Eiscafe Da Claudio, Lange-Geismar-Str. 39, 37073 Göttingen"
477,37269,Eschwege,Eiscafé Vian,Stad 41,37,51.1887974,10.0553388,"Eiscafé Vian, Stad 41, 37269 Eschwege"
478,37308,Westhausen,Müllers Eis,Schmiedehof 115,5,51.3938661,10.1890149,"Müllers Eis, Schmiedehof 115, 37308 Westhausen"
479,37574,Einbeck,Eis Heise,Am Mühlenbach  1,6,51.8640298,9.8593019,"Eis Heise, Am Mühlenbach  1, 37574 Einbeck"
480,37581,Bad Gandersheim,Ebelings Bauernhofeis,Wolperode 40,4,51.88333,10.05953,"Ebelings Bauernhofeis, Wolperode 40, 37581 Bad Gandersheim"
481,37671,Höxter,Eiscafe Mosena,Marktstr. 29,3,51.7759499999999,9.38125,"Eiscafe Mosena, Marktstr. 29, 37671 Höxter"
482,38100,Braunschweig,Eiscafe De Pellegrin,Wendenstr. 2,8,52.26818,10.52398,"Eiscafe De Pellegrin, Wendenstr. 2, 38100 Braunschweig"
483,38100,Braunschweig,Tiziano SchlossLounge,Platz am Ritterbrunnen 1,8,52.2643755,10.5288027,"Tiziano SchlossLounge, Platz am Ritterbrunnen 1, 38100 Braunschweig"
484,38102,Braunschweig,Eis-Pavillon,Kasernenstr. 13,5,52.2675283,10.5355683,"Eis-Pavillon, Kasernenstr. 13, 38102 Braunschweig"
485,38108,Braunschweig,eisforum querum,Bevenroderstr. 126,4,52.29274,10.56079,"eisforum querum, Bevenroderstr. 126, 38108 Braunschweig"
486,38112,Braunschweig,Eiscafe Dolomiti,Ligusterweg 26,10,52.29264,10.50933,"Eiscafe Dolomiti, Ligusterweg 26, 38112 Braunschweig"
487,38300,Wolfenbüttel,Eiscafé Martini,Lange Str. 4,7,52.16141,10.5398341,"Eiscafé Martini, Lange Str. 4, 38300 Wolfenbüttel"
488,38302,Wolfenbüttel,Eiscafe Eiszeit,Braunschweiger Str. 5,12,52.19853,10.5861,"Eiscafe Eiszeit, Braunschweiger Str. 5, 38302 Wolfenbüttel"
489,38304,Wolfenbüttel,Sylter Eismanufaktur,Am Alten Schlachthof 2,90,52.16319,10.51305,"Sylter Eismanufaktur, Am Alten Schlachthof 2, 38304 Wolfenbüttel"
490,38465,Brome,Eiscafé Guzzo,Bahnhofstr. 40,3,52.60003,10.93559,"Eiscafé Guzzo, Bahnhofstr. 40, 38465 Brome"
491,38667,Bad Harzburg,Eiscafe Rialto,Herzog-Wilhelm-Str. 28,39,51.8841409,10.5572286,"Eiscafe Rialto, Herzog-Wilhelm-Str. 28, 38667 Bad Harzburg"
492,38855,Wernigerode,Busche's Imbiß Café,Pfarrstr. 56,7,51.83753,10.78455,"Busche's Imbiß Café, Pfarrstr. 56, 38855 Wernigerode"
493,39104,Magdeburg,Bortscheller,Schönebecker Str. 103,9,52.1067653,11.6410924,"Bortscheller, Schönebecker Str. 103, 39104 Magdeburg"
494,39108,Magdeburg,Eis-Blume,Olvenstedter Str. 31,14,52.1357336,11.6129575,"Eis-Blume, Olvenstedter Str. 31, 39108 Magdeburg"
495,39218,Schönebeck (Elbe),Eiscafe Ebeling,Randauer Str. 1A,51,52.0452792,11.7622836,"Eiscafe Ebeling, Randauer Str. 1A, 39218 Schönebeck (Elbe)"
496,39221,Welsleben,Eiscafe Brauckmann,Lindenstr. 15,5,52.0012,11.63705,"Eiscafe Brauckmann, Lindenstr. 15, 39221 Welsleben"
497,39387,Schermcke,Eiscafe Jordan,Am Sauren Holz 4,24,52.0565493999999,11.2877446,"Eiscafe Jordan, Am Sauren Holz 4, 39387 Schermcke"
498,40211,Düsseldorf,Tati - Die Eisdiele,Schirmerstr. 39,181,51.231479,6.79281919999999,"Tati - Die Eisdiele, Schirmerstr. 39, 40211 Düsseldorf"
499,40213,Düsseldorf,Yomaro Frozen Yogurt,Carlsplatz 6B,4,51.223128,6.77284,"Yomaro Frozen Yogurt, Carlsplatz 6B, 40213 Düsseldorf"
500,40213,Düsseldorf,Giovanni L,Berger Str. 22,4,51.2242172,6.77263219999999,"Giovanni L, Berger Str. 22, 40213 Düsseldorf"
501,40213,Düsseldorf,Eiscafe Pia,Kasernenstr. 1,53,51.2247308,6.7754568,"Eiscafe Pia, Kasernenstr. 1, 40213 Düsseldorf"
502,40215,Düsseldorf,Eiscafé Belluno,Helmholtzstr. 47,6,51.2144803,6.78670239999999,"Eiscafé Belluno, Helmholtzstr. 47, 40215 Düsseldorf"
503,40219,Düsseldorf,YOMARO Frozen Jogurt,Lorettostr. 17,3,51.2141836,6.7659889,"YOMARO Frozen Jogurt, Lorettostr. 17, 40219 Düsseldorf"
504,40219,Düsseldorf,Eisschmiede - Manufaktur für Genuss,Bilker Allee 22,5,51.2115651,6.764998,"Eisschmiede - Manufaktur für Genuss, Bilker Allee 22, 40219 Düsseldorf"
505,40223,Dusseldorf,Herrtotti Eis-Manufaktur,Brunnenstr. 4,17,51.20755,6.77782669999999,"Herrtotti Eis-Manufaktur, Brunnenstr. 4, 40223 Dusseldorf"
506,40223,Düsseldorf,Eiscafé Unbehaun,Aachener Str. 159,148,51.19872,6.77004999999999,"Eiscafé Unbehaun, Aachener Str. 159, 40223 Düsseldorf"
507,40233,Düsseldorf,Nordmanns Eisfabrik,Hermannstr. 22a,70,51.2301124,6.80783039999999,"Nordmanns Eisfabrik, Hermannstr. 22a, 40233 Düsseldorf"
508,40235,Düsseldorf,La Luna,Grafenberger Allee 413,3,51.2414195,6.8274919,"La Luna, Grafenberger Allee 413, 40235 Düsseldorf"
509,40477,Düsseldorf,Paul Da Forno,Schwerinstr. 1,12,51.2387284,6.77964,"Paul Da Forno, Schwerinstr. 1, 40477 Düsseldorf"
510,40545,Düsseldorf,La Vecchia Gelateria Confetti's,Düsseldorfer Str. 2,21,51.2268716,6.7588354,"La Vecchia Gelateria Confetti's, Düsseldorfer Str. 2, 40545 Düsseldorf"
511,40625,Düsseldorf,Eiscafé Cescon,Benderstr. 21,11,51.2373725,6.8578557,"Eiscafé Cescon, Benderstr. 21, 40625 Düsseldorf"
512,40667,Meerbusch,Pra Levis,Düsseldorfer Str 118,4,51.2442425,6.6983295,"Pra Levis, Düsseldorfer Str 118, 40667 Meerbusch"
513,40721,Hilden,Eisdiele Eisbär,Gerresheimer Str. 227,9,51.1832299999999,6.92481,"Eisdiele Eisbär, Gerresheimer Str. 227, 40721 Hilden"
514,40723,Hilden,Eiscafé Engelbertz,Lindenstr. 32,4,51.1596073,6.9450872,"Eiscafé Engelbertz, Lindenstr. 32, 40723 Hilden"
515,40724,Hilden,Dinges,Hochdahler Str. 111,13,51.1755625,6.9391981,"Dinges, Hochdahler Str. 111, 40724 Hilden"
516,40764,Langenfeld,Eiscafe Simonetti,Konrad-Adenauer-Platz 2,3,51.11309,6.9514,"Eiscafe Simonetti, Konrad-Adenauer-Platz 2, 40764 Langenfeld"
517,40789,Monheim am Rhein,Eis-Cafe Dolomiti,Rathausplatz 6,3,51.0911249,6.8889602,"Eis-Cafe Dolomiti, Rathausplatz 6, 40789 Monheim am Rhein"
518,40878,Ratingen,Il Gelato,Bechermer Str. 23,127,51.29638,6.85095,"Il Gelato, Bechermer Str. 23, 40878 Ratingen"
519,40883,Ratingen,Eiscafe da Claudio,Bahnhofstr. 177,22,51.3302987999999,6.9092014,"Eiscafe da Claudio, Bahnhofstr. 177, 40883 Ratingen"
520,41061,Mönchengladbach,Smilla Eismanufaktur,Sandradstr. 12,21,51.1963652,6.4310996,"Smilla Eismanufaktur, Sandradstr. 12, 41061 Mönchengladbach"
521,41063,Mönchengladbach,Eiscafe De Marco,Eickener Str. 119,9,51.20311,6.44511,"Eiscafe De Marco, Eickener Str. 119, 41063 Mönchengladbach"
522,41236,Mönchengladbach,Eiskonditorei Houben,Neusser Str. 282,3,51.2038944,6.4753208,"Eiskonditorei Houben, Neusser Str. 282, 41236 Mönchengladbach"
523,41236,Mönchengladbach,Eis Ovidio,Limiten 31,3,51.1671458999999,6.4474114,"Eis Ovidio, Limiten 31, 41236 Mönchengladbach"
524,41334,Nettetal,Eiscafe Cucco,Hauptstraße 27,10,51.3318179,6.280444,"Eiscafe Cucco, Hauptstraße 27, 41334 Nettetal"
525,41352,Korschenbroich,Eis Cafe Ciprian,Kirchplatz 5,4,51.19033,6.51326,"Eis Cafe Ciprian, Kirchplatz 5, 41352 Korschenbroich"
526,41372,Niederkrüchten,Tino's Eiscafé,Wiesenstr. 47,8,51.2174963,6.2232914,"Tino's Eiscafé, Wiesenstr. 47, 41372 Niederkrüchten"
527,41379,Brüggen,Tino's Eiscafé,Klosterstr. 57,8,51.2410498,6.1829405,"Tino's Eiscafé, Klosterstr. 57, 41379 Brüggen"
528,41460,Neuss,Eiscafé Roma,Markt 18,9,51.1982386,6.6927771,"Eiscafé Roma, Markt 18, 41460 Neuss"
529,41465,Kaarst,Eiscafé La Rosa,Bahnstr. 12,3,51.19627,6.60769,"Eiscafé La Rosa, Bahnstr. 12, 41465 Kaarst"
530,41466,Neuss,Picco  die Eis-Liebe,Otto-Wels-Str. 5,10,51.1565899999999,6.69605,"Picco  die Eis-Liebe, Otto-Wels-Str. 5, 41466 Neuss"
531,41468,Neuss,Meine Eisliebe,Rheinuferstr. 94,18,51.1793515,6.7429324,"Meine Eisliebe, Rheinuferstr. 94, 41468 Neuss"
532,41516,Grevenbroich,Eiscafe Europa,Poststr. 38,7,51.1082172,6.6234857,"Eiscafe Europa, Poststr. 38, 41516 Grevenbroich"
533,41539,Dormagen,Adamis,Römerstr. 29,4,51.0934712,6.8388169,"Adamis, Römerstr. 29, 41539 Dormagen"
534,41541,Dormagen,Eiscafe am Rheinturm,Rheinstrasse  1,3,51.12276,6.85131,"Eiscafe am Rheinturm, Rheinstrasse  1, 41541 Dormagen"
535,41541,Dormagen,Eiskultur,Schulstr. 1,7,51.14087,6.81600999999999,"Eiskultur, Schulstr. 1, 41541 Dormagen"
536,41542,Dormagen,Eiscafé Cellino,Neusser Str. 80,4,51.119197,6.7676834,"Eiscafé Cellino, Neusser Str. 80, 41542 Dormagen"
537,41812,Erkelenz,Diego's Eis,Hauptstr. 5,7,51.0323719,6.32406189999999,"Diego's Eis, Hauptstr. 5, 41812 Erkelenz"
538,41849,Wassenberg,Kohlens Eiscafé,Erkelenzer Str. 45,8,51.1031109,6.1701454,"Kohlens Eiscafé, Erkelenzer Str. 45, 41849 Wassenberg"
539,42103,Wuppertal,Eiscafe Mandoliti,Friedrich-Ebert-Str. 13,8,51.2561805,7.1402576,"Eiscafe Mandoliti, Friedrich-Ebert-Str. 13, 42103 Wuppertal"
540,42105,Wuppertal,Eiscafe Spathmann,Albrechtstr. 21,5,51.2613419,7.1459516,"Eiscafe Spathmann, Albrechtstr. 21, 42105 Wuppertal"
541,42105,Wuppertal,Cafe Clauß,Hochstr. 102,4,51.2603364,7.1441303,"Cafe Clauß, Hochstr. 102, 42105 Wuppertal"
542,42107,Wuppertal,Creme Eis,Platz der Republik 5,104,51.2650432,7.1518685,"Creme Eis, Platz der Republik 5, 42107 Wuppertal"
543,42111,Wuppertal,Il Sole,Höhenstr. 41,4,51.2971462999999,7.1613358,"Il Sole, Höhenstr. 41, 42111 Wuppertal"
544,42369,Wuppertal,Golosia Eiscafe,Lüttringhauser Straße 22,5,51.225984,7.2011949,"Golosia Eiscafe, Lüttringhauser Straße 22, 42369 Wuppertal"
545,42399,Wuppertal,Eiscafé Cortina,Am Kriegermal 50,5,51.2486775,7.2958013,"Eiscafé Cortina, Am Kriegermal 50, 42399 Wuppertal"
546,42555,Velbert,Eiscafe Angelo Levis,Hauptstr. 36,7,51.3516986,7.12204949999999,"Eiscafe Angelo Levis, Hauptstr. 36, 42555 Velbert"
547,42897,Remscheid,Eiscafe Sagui,Kölner Str. 55,3,51.1892396,7.2556501,"Eiscafe Sagui, Kölner Str. 55, 42897 Remscheid"
548,42899,Remscheid,Eiscafe Belfi,Richthofenstr. 9,3,51.2078409999999,7.2369538,"Eiscafe Belfi, Richthofenstr. 9, 42899 Remscheid"
549,44135,Dortmund,Kuhbar,Kaiserstr. 41,28,51.5134421,7.4780827,"Kuhbar, Kaiserstr. 41, 44135 Dortmund"
550,44135,Dortmund,Eiswerk,Kleppingstr. 22,19,51.5129357,7.4688186,"Eiswerk, Kleppingstr. 22, 44135 Dortmund"
551,44137,Dortmund,Eiscafé Angelo Losego,Rheinische Str. 33,48,51.5136408,7.4512,"Eiscafé Angelo Losego, Rheinische Str. 33, 44137 Dortmund"
552,44137,Dortmund,Eiscafe Panciera,Hansastrasse 14,6,51.5163125,7.46385459999999,"Eiscafe Panciera, Hansastrasse 14, 44137 Dortmund"
553,44137,Dortmund,Eiscafé Cream,Kleine Beurhausstraße 3,13,51.5085051999999,7.4525916,"Eiscafé Cream, Kleine Beurhausstraße 3, 44137 Dortmund"
554,44139,Dortmund,Eiswerk,Saarlandstraße 108,19,51.50452,7.4623,"Eiswerk, Saarlandstraße 108, 44139 Dortmund"
555,44225,Dortmund,Eiscafé Tiziana,Harkortstr. 51,3,51.4758303,7.44082999999999,"Eiscafé Tiziana, Harkortstr. 51, 44225 Dortmund"
556,44263,Dortmund,Kuhbar,Alte Benninghofer Str. 26,4,51.4855039,7.5019357,"Kuhbar, Alte Benninghofer Str. 26, 44263 Dortmund"
557,44269,Dortmund,Eiszeit bei Bruno,Berghofer Str. 166,111,51.4783344,7.5356091,"Eiszeit bei Bruno, Berghofer Str. 166, 44269 Dortmund"
558,44287,Dortmund,Eislädchen & Manufaktur,Schwerter Str. 291,53,51.4826888,7.5602101,"Eislädchen & Manufaktur, Schwerter Str. 291, 44287 Dortmund"
559,44287,Dortmund,Kuhbar,Wittbräucker Str. 133,5,51.4797851999999,7.54790499999999,"Kuhbar, Wittbräucker Str. 133, 44287 Dortmund"
560,44532,Lünen,Eis und Tortenzauber,Baukelweg 3,3,51.5937918,7.5492451,"Eis und Tortenzauber, Baukelweg 3, 44532 Lünen"
561,44534,Lünen,San Remo,Münsterstr. 18,23,51.61669,7.52513,"San Remo, Münsterstr. 18, 44534 Lünen"
562,44627,Herne,Il Gelato,Castroper Str  322,127,51.5485483,7.2802096,"Il Gelato, Castroper Str  322, 44627 Herne"
563,44787,Bochum,Eiscafe Gelatissimo,Brückstr. 32,10,51.4840777,7.21752629999999,"Eiscafe Gelatissimo, Brückstr. 32, 44787 Bochum"
564,44787,Bochum,Eisdiele 4Eck,Bongardstr. 16,5,51.48177,7.21774,"Eisdiele 4Eck, Bongardstr. 16, 44787 Bochum"
565,44787,Bochum,Eiscremebar Kugelpudel,Dorstener Str. 1,85,51.485716,7.213695,"Eiscremebar Kugelpudel, Dorstener Str. 1, 44787 Bochum"
566,44789,Bochum,I Am Love,Dibergstraße 2,216,51.472862,7.21402649999999,"I Am Love, Dibergstraße 2, 44789 Bochum"
567,44799,Bochum,Eiscafe Claudio,Brenscheder Str. 57,12,51.4509153,7.2312728,"Eiscafe Claudio, Brenscheder Str. 57, 44799 Bochum"
568,45127,Essen,Tiziano Gelati,Limbeckerplatz 1,8,51.4577409,7.0059942,"Tiziano Gelati, Limbeckerplatz 1, 45127 Essen"
569,45131,Essen,Mörchens Eis,Rüttenscheider Str. 202,47,51.4270417,7.00227289999999,"Mörchens Eis, Rüttenscheider Str. 202, 45131 Essen"
570,45145,Essen,Casal Eiscafé,Mülheimer Str. 62,66,51.4462476,6.9755492,"Casal Eiscafé, Mülheimer Str. 62, 45145 Essen"
571,45219,Essen,Mika's Eisbox,Heiligenhauser Str. 32,4,51.35368,6.93171,"Mika's Eisbox, Heiligenhauser Str. 32, 45219 Essen"
572,45239,Essen,Kikas Eiscafe,Werdener Markt 2,31,51.38811,7.00249,"Kikas Eiscafe, Werdener Markt 2, 45239 Essen"
573,45239,Essen,Sorelli's Frozen Yogurt & Eisbar,Brückstr. 7,81,51.3877457,7.0002619,"Sorelli's Frozen Yogurt & Eisbar, Brückstr. 7, 45239 Essen"
574,45257,Essen,Eiscafe Plückthun,Byfanger Straße 2,26,51.3901688,7.08333069999999,"Eiscafe Plückthun, Byfanger Straße 2, 45257 Essen"
575,45307,Essen,Eiscafé Bertram,Am Bocklerbaum 24-26,4,51.4602014,7.077558,"Eiscafé Bertram, Am Bocklerbaum 24-26, 45307 Essen"
576,45355,Essen,Eiskonditor Holzmann,Bocholder Str. 23,3,51.46491,6.95039999999999,"Eiskonditor Holzmann, Bocholder Str. 23, 45355 Essen"
577,45475,Mülheim a.d.Ruhr,Eiscafé Senatore,Heiermannstr. 10,68,51.46529,6.89023999999999,"Eiscafé Senatore, Heiermannstr. 10, 45475 Mülheim a.d.Ruhr"
578,45475,Mülheim a.d.Ruhr,Eiscafé Pinocchio,Mellinghofer Str. 234,6,51.455182,6.8861583,"Eiscafé Pinocchio, Mellinghofer Str. 234, 45475 Mülheim a.d.Ruhr"
579,45476,Mülheim a.d.Ruhr,Eiscafe & Pizzeria Calabria,Oberhausener Str. 163,3,51.4502292,6.8589153,"Eiscafe & Pizzeria Calabria, Oberhausener Str. 163, 45476 Mülheim a.d.Ruhr"
580,45478,Mülheim a.d.Ruhr,Eiscafe Kröömel,Hansastr. 22B,80,51.43035,6.84464,"Eiscafe Kröömel, Hansastr. 22B, 45478 Mülheim a.d.Ruhr"
581,45479,Mülheim a.d.Ruhr,Eiscafe Rizzardini,Kirchstr. 80,38,51.422588,6.85396999999999,"Eiscafe Rizzardini, Kirchstr. 80, 45479 Mülheim a.d.Ruhr"
582,45481,Mülheim a.d.Ruhr,La Petite Vie,Düsseldorfer Str. 131-133,8,51.40676,6.87144999999999,"La Petite Vie, Düsseldorfer Str. 131-133, 45481 Mülheim a.d.Ruhr"
583,45527,Hattingen,Eiscafé Fillipin,Marktplatz 7,6,51.4068595,7.228279,"Eiscafé Fillipin, Marktplatz 7, 45527 Hattingen"
584,45657,Recklinghausen,Eiscafe Dino,Hertener Str. 30,8,51.6111321,7.1891131,"Eiscafe Dino, Hertener Str. 30, 45657 Recklinghausen"
585,45731,Waltrop,Café Snice,Am Moselbach 9,48,51.6244449999999,7.39951019999999,"Café Snice, Am Moselbach 9, 45731 Waltrop"
586,45879,Gelsenkirchen,Eiscafe Graziella,Ebertstr. 9,15,51.510661,7.0933581,"Eiscafe Graziella, Ebertstr. 9, 45879 Gelsenkirchen"
587,45881,Gelsenkirchen,Eissalon Giovanni Costantin,Bismarckstr. 93,3,51.51806,7.10305999999999,"Eissalon Giovanni Costantin, Bismarckstr. 93, 45881 Gelsenkirchen"
588,45897,Gelsenkirchen,Eiscafé Dellnitz,Beckeradsdelle 78 A - B,6,51.5669608,7.0540411,"Eiscafé Dellnitz, Beckeradsdelle 78 A - B, 45897 Gelsenkirchen"
589,46049,Oberhausen,Eiscafé San Marco,Wilmsstr. 57,40,51.4808743,6.83560119999999,"Eiscafé San Marco, Wilmsstr. 57, 46049 Oberhausen"
590,46325,Borken,Eiscafé Venezia,Heilig-Geist-Str. 5,4,51.84405,6.85725,"Eiscafé Venezia, Heilig-Geist-Str. 5, 46325 Borken"
591,46397,Bocholt,GrenzLandeis,Vardingholter Str. 64,23,51.87797,6.6728,"GrenzLandeis, Vardingholter Str. 64, 46397 Bocholt"
592,46397,Bocholt,Eiscafe Dragone,Klausenerstr. 23,3,51.84461,6.62590999999999,"Eiscafe Dragone, Klausenerstr. 23, 46397 Bocholt"
593,46399,Bocholt,Eiscafe Leone,Markt 1,10,51.8381599999999,6.61451,"Eiscafe Leone, Markt 1, 46399 Bocholt"
594,46446,Emmerich am Rhein,Eis Italia,Am Löwentor 9,4,51.8348802999999,6.2474721,"Eis Italia, Am Löwentor 9, 46446 Emmerich am Rhein"
595,46509,Xanten,Fausto Santin und Sohn,Markt 2,7,51.6609241,6.4537507,"Fausto Santin und Sohn, Markt 2, 46509 Xanten"
596,46509,Xanten,Teatro,01.01.1970,13,51.6616668,6.4541378,"Teatro, 01.01.1970, 46509 Xanten"
597,46535,Dinslaken,Eis-Boutique Massimo Conedera,Altmarkt 3,3,51.5611894,6.7329725,"Eis-Boutique Massimo Conedera, Altmarkt 3, 46535 Dinslaken"
598,47051,Duisburg,Eiscafe Panciera,Königstr. 24,6,51.4330602,6.7666128,"Eiscafe Panciera, Königstr. 24, 47051 Duisburg"
599,47053,Duisburg,Eiscafé Behrens,Wanheimer Str. 11,13,51.4221251,6.7545825,"Eiscafé Behrens, Wanheimer Str. 11, 47053 Duisburg"
600,47057,Duisburg,Eiscafé Primavera,Mülheimer Str. 128,21,51.4328867,6.791309,"Eiscafé Primavera, Mülheimer Str. 128, 47057 Duisburg"
601,47198,Duisburg,Eiscafe De Luca,Augustastr. 24,3,51.4503552,6.7063202,"Eiscafe De Luca, Augustastr. 24, 47198 Duisburg"
602,47229,Duisburg,Eiscafé Romeo,Kaiserstr. 32,7,51.3915731,6.7076731,"Eiscafé Romeo, Kaiserstr. 32, 47229 Duisburg"
603,47269,Duisburg,Eiscafe Kaesemann,Walderbenweg 14,9,51.3705438,6.78105119999999,"Eiscafe Kaesemann, Walderbenweg 14, 47269 Duisburg"
604,47546,Kalkar,Eis Café Venezia,Markt 9,27,51.7388282999999,6.2918622,"Eis Café Venezia, Markt 9, 47546 Kalkar"
605,47559,Kranenburg-Nütterden,Panna & Cioccolato,Binnenfeld 2,6,51.78856,6.06534,"Panna & Cioccolato, Binnenfeld 2, 47559 Kranenburg-Nütterden"
606,47574,Goch,Eiscafé Dolomiti,Voßheider Str. 114,30,51.67387,6.17263999999999,"Eiscafé Dolomiti, Voßheider Str. 114, 47574 Goch"
607,47574,Goch,Eis Fattoral,Voßheiher Str. 120,5,51.67417,6.17291,"Eis Fattoral, Voßheiher Str. 120, 47574 Goch"
608,47652,Weeze,Alpago,Kevelaerer Str. 25,122,51.625316,6.201094,"Alpago, Kevelaerer Str. 25, 47652 Weeze"
609,47798,Krefeld,Eiscafe Sole Mio,Hülserstr. 5b,9,51.3406295,6.55852719999999,"Eiscafe Sole Mio, Hülserstr. 5b, 47798 Krefeld"
610,47798,Krefeld,Eissalon Lorenzi,Friedrichstr. 32,3,51.3347533,6.5611939,"Eissalon Lorenzi, Friedrichstr. 32, 47798 Krefeld"
611,47799,Krefeld,Eisecke Franken,Uerdinger Str. 133,12,51.3366012,6.58004659999999,"Eisecke Franken, Uerdinger Str. 133, 47799 Krefeld"
612,47799,Krefeld,Eiscafé Lentini,Dreikönigenstraße  20,5,51.3309481999999,6.5701999,"Eiscafé Lentini, Dreikönigenstraße  20, 47799 Krefeld"
613,47800,Krefeld,Eiscafe de Fanti,Uerdinger Str. 279,17,51.3390685,6.5915334,"Eiscafe de Fanti, Uerdinger Str. 279, 47800 Krefeld"
614,47802,Krefeld,Eiscafe San Marco,Moerser Landstr. 420,564,51.3822888,6.59912229999999,"Eiscafe San Marco, Moerser Landstr. 420, 47802 Krefeld"
615,47805,Krefeld,Eisdiele Dolce Vita,Seyffardtstr. 88,10,51.3180158,6.5609945,"Eisdiele Dolce Vita, Seyffardtstr. 88, 47805 Krefeld"
616,47805,Krefeld,Eiscafè Schöneweiß,Lerchenfeldstr. 2,27,51.3172061,6.57509469999999,"Eiscafè Schöneweiß, Lerchenfeldstr. 2, 47805 Krefeld"
617,47805,Krefeld,Eiscafe La Tradizione,Lehmheide 1,6,51.316668,6.55941619999999,"Eiscafe La Tradizione, Lehmheide 1, 47805 Krefeld"
618,47807,Krefeld,Sylter Eiscafé,Kölner Str. 574,25,51.3034223,6.5895893,"Sylter Eiscafé, Kölner Str. 574, 47807 Krefeld"
619,47809,Krefeld,Café Leven,Maybachstr. 153,8,51.3313877999999,6.6117555,"Café Leven, Maybachstr. 153, 47809 Krefeld"
620,47839,Krefeld,Eis Café Pieruz,Krefelder Str 3,75,51.37271,6.51007,"Eis Café Pieruz, Krefelder Str 3, 47839 Krefeld"
621,47877,Willich,Willicher Eishimmel,Kreuzstr. 1,31,51.2630974,6.54992289999999,"Willicher Eishimmel, Kreuzstr. 1, 47877 Willich"
622,47906,Kempen,Eiscafé Brustolon,Buttermarkt 13,11,51.36426,6.4181,"Eiscafé Brustolon, Buttermarkt 13, 47906 Kempen"
623,47906,Kempen,Sylter Eiscafe,Burgstr. 13,8,51.3667855,6.4187369,"Sylter Eiscafe, Burgstr. 13, 47906 Kempen"
624,47918,Tönisvorst,Eis & Sahne Paradies,Markt 6,10,51.30459,6.42796999999999,"Eis & Sahne Paradies, Markt 6, 47918 Tönisvorst"
625,48143,Münster,Raphaels Eis,Bült 1,256,51.9642926999999,7.6305584,"Raphaels Eis, Bült 1, 48143 Münster"
626,48143,Münster,Eis-Café Firenze,Königsstr. 12 - 14,32,51.9593843,7.6263315,"Eis-Café Firenze, Königsstr. 12 - 14, 48143 Münster"
627,48143,Münster,Art e Bio,Hörsterstr. 38,20,51.9649352,7.6323873,"Art e Bio, Hörsterstr. 38, 48143 Münster"
628,48149,Münster,Café im Schlosstheater,Melchersstr. 81,16,51.97107,7.61403999999999,"Café im Schlosstheater, Melchersstr. 81, 48149 Münster"
629,48155,Münster,Eiscafé Grava,Wolbecker Str. 43,6,51.9579005,7.63988749999999,"Eiscafé Grava, Wolbecker Str. 43, 48155 Münster"
630,48161,Münster,Milano,Rüschhausweg 1,9,51.96738,7.57904999999999,"Milano, Rüschhausweg 1, 48161 Münster"
631,48167,Münster,Eiscafe Misurina,Hiltruper Str. 2,6,51.9158992,7.72647579999999,"Eiscafe Misurina, Hiltruper Str. 2, 48167 Münster"
632,48317,Drensteinfurt,Eishaus,Mühlenstr. 6,118,51.79741,7.74179,"Eishaus, Mühlenstr. 6, 48317 Drensteinfurt"
633,48324,Sendenhorst,Eiscafé Etna,Münsterstr. 1,3,51.867855,7.7330247,"Eiscafé Etna, Münsterstr. 1, 48324 Sendenhorst"
634,48336,Sassenberg,Café Zanella,Zum Knapp 11,6,52.00002,8.05712,"Café Zanella, Zum Knapp 11, 48336 Sassenberg"
635,48366,Laer,Eiscafé San Remo,Hohe Str. 11,18,52.0546,7.35804,"Eiscafé San Remo, Hohe Str. 11, 48366 Laer"
636,48369,Saerbeck,Eiscafé Calzavara,Marktstr. 21,79,52.1736493,7.6334401,"Eiscafé Calzavara, Marktstr. 21, 48369 Saerbeck"
637,48369,Saerbeck,Eis-Cafe Calzavara,Marktstr. 21,3,52.1736493,7.6334401,"Eis-Cafe Calzavara, Marktstr. 21, 48369 Saerbeck"
638,48477,Hörstel,Eiscafé Santaniello,Lange Straße 20,3,52.2727547,7.58284549999999,"Eiscafé Santaniello, Lange Straße 20, 48477 Hörstel"
639,48624,Schöppingen,Eiszeit,Gildestr. 1,53,52.0632899,7.24393809999999,"Eiszeit, Gildestr. 1, 48624 Schöppingen"
640,48653,Coesfeld,GelatoMio Eismanufaktur,Hertzstr. 1,6,51.9052068,7.12885009999999,"GelatoMio Eismanufaktur, Hertzstr. 1, 48653 Coesfeld"
641,48683,Ahaus,Schloßcafé San Remo,Marktstr. 5,21,52.0666391,6.9744842,"Schloßcafé San Remo, Marktstr. 5, 48683 Ahaus"
642,48712,Gescher,Eiscafé Christian Bäing,Inselstr. 4,3,51.955917,7.0075448,"Eiscafé Christian Bäing, Inselstr. 4, 48712 Gescher"
643,49074,Osnabrück,Schlecks,Alte Münze 25a,764,52.273367,8.04434749999999,"Schlecks, Alte Münze 25a, 49074 Osnabrück"
644,49074,Osnabrück,Fontanella,Krahnstr. 50,51,52.2766374,8.04217259999999,"Fontanella, Krahnstr. 50, 49074 Osnabrück"
645,49074,Osnabrück,Leysieffer,Krahnstr. 41,3,52.2762889,8.0428816,"Leysieffer, Krahnstr. 41, 49074 Osnabrück"
646,49078,Osnabrück,Eiscafé bei Samanda,Große Schulstr. 83,3,52.2627653,7.9849877,"Eiscafé bei Samanda, Große Schulstr. 83, 49078 Osnabrück"
647,49134,Wallenhorst,Gelateria Gianni,Rathausallee 17,3,52.3502703,8.0130097,"Gelateria Gianni, Rathausallee 17, 49134 Wallenhorst"
648,49134,Wallenhorst,Eiscafé Emilia,Egbergsstr. 5,3,52.3491544,8.0052769,"Eiscafé Emilia, Egbergsstr. 5, 49134 Wallenhorst"
649,49163,Bohmte,Eiscafé Giovanni,Bremer Str. 44,5,52.36542,8.31355999999999,"Eiscafé Giovanni, Bremer Str. 44, 49163 Bohmte"
650,49214,Bad Rothenfelde,Eiscafe San Marco Breda e.K.,Salinenstr. 3,36,52.11072,8.16173,"Eiscafe San Marco Breda e.K., Salinenstr. 3, 49214 Bad Rothenfelde"
651,49326,Melle,Eiscafe bei Uschi,Am Ring 14,3,52.1589199999999,8.26569999999999,"Eiscafe bei Uschi, Am Ring 14, 49326 Melle"
652,49377,Vechta,Eiscafé Cortina,Große Str. 55,6,52.7283807,8.2853127,"Eiscafé Cortina, Große Str. 55, 49377 Vechta"
653,49413,Dinklage,Eiscafe Venezia,Am Markt 25,6,52.6610348,8.1236164,"Eiscafe Venezia, Am Markt 25, 49413 Dinklage"
654,49549,Ladbergen,Milena Fontanella,Linnenkampstr. 8,4,52.1331496,7.73552109999999,"Milena Fontanella, Linnenkampstr. 8, 49549 Ladbergen"
655,49577,Ankum,Cafe Sich,Hauptstr. 36,7,52.5423605,7.8698773,"Cafe Sich, Hauptstr. 36, 49577 Ankum"
656,49716,Meppen,Lido Eiscafe,Kuhstr.  4,4,52.69031,7.29081999999999,"Lido Eiscafe, Kuhstr.  4, 49716 Meppen"
657,49733,Haren,Eiscafe Dolomiti,Emsstr. 1,3,52.7903364,7.24220179999999,"Eiscafe Dolomiti, Emsstr. 1, 49733 Haren"
658,49809,Lingen,Eiscafé San Marco,Georgstr. 24,40,52.52221,7.32959,"Eiscafé San Marco, Georgstr. 24, 49809 Lingen"
659,50189,Elsdorf,Eisdiele Cucco,Köln-Aachener-Str. 106,10,50.9342210999999,6.56752389999999,"Eisdiele Cucco, Köln-Aachener-Str. 106, 50189 Elsdorf"
660,50321,Brühl,Eiscafé Segalla,Hauptstr. 8,4,50.8436773,6.8986081,"Eiscafé Segalla, Hauptstr. 8, 50321 Brühl"
661,50321,Brühl,Eiscafe Cercena,Schloßstraße 3,5,50.828,6.90478999999999,"Eiscafe Cercena, Schloßstraße 3, 50321 Brühl"
662,50374,Erftstadt,Eisdiele Gymnich,Hauptstr. 29,3,50.8377799,6.7422295,"Eisdiele Gymnich, Hauptstr. 29, 50374 Erftstadt"
663,50667,Köln,Smice,Neumarkt 2-4,4,50.9365676,6.9486064,"Smice, Neumarkt 2-4, 50667 Köln"
664,50672,Köln,Eiscafe Breda,Pfeilstr. 2,23,50.9364265,6.94093049999999,"Eiscafe Breda, Pfeilstr. 2, 50672 Köln"
665,50674,Köln,Wonder Waffel 2,Hohenstaufenring 78,3,50.9345519,6.93969809999999,"Wonder Waffel 2, Hohenstaufenring 78, 50674 Köln"
666,50674,Köln,Eis-Cafe Cortina,Hohenstaufenring 22,3,50.9306254,6.9414009,"Eis-Cafe Cortina, Hohenstaufenring 22, 50674 Köln"
667,50674,Köln,Bar Schmitz,Aachener Str. 34,71,50.936583,6.9359126,"Bar Schmitz, Aachener Str. 34, 50674 Köln"
668,50674,Köln,Café Braun,Lindenstr. 97,3,50.93151,6.93257,"Café Braun, Lindenstr. 97, 50674 Köln"
669,50678,Köln,Gelateria Cafeteria Süd,Mainzer Str. 77,97,50.9170102,6.96540779999999,"Gelateria Cafeteria Süd, Mainzer Str. 77, 50678 Köln"
670,50678,Köln,Gea,Severinstr. 124,21,50.9268457,6.958143,"Gea, Severinstr. 124, 50678 Köln"
671,50733,Köln,Eis-Engeln,Cranachstr. 22,35,50.9609,6.9516,"Eis-Engeln, Cranachstr. 22, 50733 Köln"
672,50823,Köln,Eis-Café Liliana,Simarplatz 18,29,50.9551472,6.9171385,"Eis-Café Liliana, Simarplatz 18, 50823 Köln"
673,50823,Köln,Eisfeld,Hansemannstr. 49,81,50.95131,6.91909,"Eisfeld, Hansemannstr. 49, 50823 Köln"
674,50825,Köln,Eiscafé Liliana,Simarplatz 18,3,50.9551472,6.9171385,"Eiscafé Liliana, Simarplatz 18, 50825 Köln"
675,50825,Köln,Die Eisdielerin,Venloer Str. 402,143,50.9526203,6.9132443,"Die Eisdielerin, Venloer Str. 402, 50825 Köln"
676,50858,Köln,Keiserlich,Kirchweg 134,19,50.9325257,6.85786719999999,"Keiserlich, Kirchweg 134, 50858 Köln"
677,50937,Köln,Keiserlich,Wittekindstr. 42,28,50.9183493,6.9256587,"Keiserlich, Wittekindstr. 42, 50937 Köln"
678,50939,Köln,Eis Café San Marco,Gottesweg 147,33,50.914592,6.929905,"Eis Café San Marco, Gottesweg 147, 50939 Köln"
679,50968,Köln,Il Gelato di Ferigo,Goltsteinstr. 32,336,50.9116988,6.96829179999999,"Il Gelato di Ferigo, Goltsteinstr. 32, 50968 Köln"
680,50969,Köln,Eiscafe van der Put,Höninger Platz 3,5,50.9011857,6.9438784,"Eiscafe van der Put, Höninger Platz 3, 50969 Köln"
681,51069,Köln,Eis Panciera,Dellbrücker Hauptstr. 159,13,50.9783718,7.070563,"Eis Panciera, Dellbrücker Hauptstr. 159, 51069 Köln"
682,51109,Köln,Ital. Eis Panciera,Olpener Str. 894,9,50.94504,7.07552,"Ital. Eis Panciera, Olpener Str. 894, 51109 Köln"
683,51375,Leverkusen,Eiscafe Minini,Bergische Landstr. 35,3,51.03422,7.04975,"Eiscafe Minini, Bergische Landstr. 35, 51375 Leverkusen"
684,51465,Bergisch Gladbach,Eiscafe de Fanti,Hauptstr. 229,3,50.9918507,7.1330862,"Eiscafe de Fanti, Hauptstr. 229, 51465 Bergisch Gladbach"
685,51467,Bergisch Gladbach,Sandro Pol Eiscafe,Altenberger-Dom-Str. 154,5,51.0168,7.08151,"Sandro Pol Eiscafe, Altenberger-Dom-Str. 154, 51467 Bergisch Gladbach"
686,52062,Aachen,Eiscafe Serafin,Pontstr. 15 - 17,82,50.7773219,6.0827474,"Eiscafe Serafin, Pontstr. 15 - 17, 52062 Aachen"
687,52062,Aachen,WonderWaffel Aachen,Theaterplatz 2,68,50.7724191999999,6.086399,"WonderWaffel Aachen, Theaterplatz 2, 52062 Aachen"
688,52062,Aachen,Al Teatro,Kapuzinergraben 2A,6,50.7733552,6.0865538,"Al Teatro, Kapuzinergraben 2A, 52062 Aachen"
689,52064,Aachen,Del Negro,Jakobstr. 73a,78,50.772437,6.07737099999999,"Del Negro, Jakobstr. 73a, 52064 Aachen"
690,52066,Aachen,Da Pian,Kapellenstr. 21,15,50.76136,6.093,"Da Pian, Kapellenstr. 21, 52066 Aachen"
691,52066,Aachen,Delzepich Eis,Bismarckstr. 197,127,50.7717566,6.1125246,"Delzepich Eis, Bismarckstr. 197, 52066 Aachen"
692,52066,Aachen,Oecher Eis-Treff,Bismarckstr. 72,80,50.7684941,6.1045804,"Oecher Eis-Treff, Bismarckstr. 72, 52066 Aachen"
693,52070,Aachen,Eiscafé San Remo,Adalbertsteinweg 14,18,50.77432,6.09753,"Eiscafé San Remo, Adalbertsteinweg 14, 52070 Aachen"
694,52076,Aachen,Il Gelato,Napoleonsberg 136,127,50.7285513,6.1801637,"Il Gelato, Napoleonsberg 136, 52076 Aachen"
695,52078,Aachen,Eis Café Zammatteo,Triererstrasse  806,8,50.74868,6.16562,"Eis Café Zammatteo, Triererstrasse  806, 52078 Aachen"
696,52080,Aachen,Eiscafe Uno,Haarener Gracht 1a,4,50.7955599999999,6.12746,"Eiscafe Uno, Haarener Gracht 1a, 52080 Aachen"
697,52080,Aachen,Eiscafé Annabella,Van-Coels-Str. 214,5,50.7788029,6.16158519999999,"Eiscafé Annabella, Van-Coels-Str. 214, 52080 Aachen"
698,52134,Herzogenrath,Eiscafe Peppone,Roermonder Str. 174,3,50.834498,6.07706599999999,"Eiscafe Peppone, Roermonder Str. 174, 52134 Herzogenrath"
699,52146,Würselen,Renato-Angela Casal,Neuhauser Str. 3,12,50.8182,6.1324087,"Renato-Angela Casal, Neuhauser Str. 3, 52146 Würselen"
700,52156,Monschau,Eiscafe Da Graziella,Trierer Str.  208,5,50.5776125999999,6.2608092,"Eiscafe Da Graziella, Trierer Str.  208, 52156 Monschau"
701,52349,Düren,Eiscafe Garda,Oberstr. 7,4,50.8011711,6.48472539999999,"Eiscafe Garda, Oberstr. 7, 52349 Düren"
702,52353,Düren,Eiscafé Cappuccino,Roermonder Str. 101,6,50.8447198,6.4199208,"Eiscafé Cappuccino, Roermonder Str. 101, 52353 Düren"
703,52353,Düren,Eiscafé D'Amici,Dorfstr. 62,14,50.8217017,6.46618629999999,"Eiscafé D'Amici, Dorfstr. 62, 52353 Düren"
704,52355,Düren,Eiscafe Rialto,Monschauer Str. 166,39,50.7875224,6.464109,"Eiscafe Rialto, Monschauer Str. 166, 52355 Düren"
705,52399,Merzenich,Eiscafé D'Amici,Dürener Str. 1,13,50.8283334,6.5245565,"Eiscafé D'Amici, Dürener Str. 1, 52399 Merzenich"
706,52428,Jülich,Eis Emanuele Panciera,Kölnstr. 38,10,50.9226798,6.3623004,"Eis Emanuele Panciera, Kölnstr. 38, 52428 Jülich"
707,52511,Geilenkrichen,Eiscafé Brustolon,Konrad-Adenauer-Str. 11,5,50.96255,6.12983,"Eiscafé Brustolon, Konrad-Adenauer-Str. 11, 52511 Geilenkrichen"
708,53111,Bonn,EisLabor,Maxstr. 16,271,50.7379079,7.0948797,"EisLabor, Maxstr. 16, 53111 Bonn"
709,53113,Bonn,Allegro,Weberstr,10,50.7252649501742,7.10049224048956,"Allegro, Weberstr, 53113 Bonn"
710,53115,Bonn,Gelateria Italiana,Clemens-August-Str. 1,5,50.72404,7.09019,"Gelateria Italiana, Clemens-August-Str. 1, 53115 Bonn"
711,53129,Bonn,Ciao.Ciao,Rheinweg 163,4,50.71281,7.11022,"Ciao.Ciao, Rheinweg 163, 53129 Bonn"
712,53129,Bonn,Heisskalt,Hausdorffstr. 185,33,50.7118996,7.109044,"Heisskalt, Hausdorffstr. 185, 53129 Bonn"
713,53129,Bonn,Gelateria Gattino,Quirinusplatz 3,3,50.70461,7.11276,"Gelateria Gattino, Quirinusplatz 3, 53129 Bonn"
714,53175,Bonn,Eiscafé Bressa,Annaberger Str. 159A,26,50.69763,7.12723,"Eiscafé Bressa, Annaberger Str. 159A, 53175 Bonn"
715,53179,Bonn,Eisdiele Valerio,Mainzer Str. 187,12,50.66103,7.19217,"Eisdiele Valerio, Mainzer Str. 187, 53179 Bonn"
716,53225,Bonn,Eiscafe Ollivotti,Friedrich-Breuer-Straße 69,27,50.7395205,7.1206734,"Eiscafe Ollivotti, Friedrich-Breuer-Straße 69, 53225 Bonn"
717,53225,Bonn,EisLabor,Friedrich-Breuer-Str. 16,72,50.738369,7.11655889999999,"EisLabor, Friedrich-Breuer-Str. 16, 53225 Bonn"
718,53329,Bonn-Pützchen,Eistraum,Adelheidsplatz 20,63,50.7422914,7.1493889,"Eistraum, Adelheidsplatz 20, 53329 Bonn-Pützchen"
719,53359,Rheinbach,das Eiswerk,Weiherstr. 8,149,50.6254298,6.9480662,"das Eiswerk, Weiherstr. 8, 53359 Rheinbach"
720,53489,Sinzig,Eiscafe Vallazza,Markt 3,3,50.544627,7.24942369999999,"Eiscafe Vallazza, Markt 3, 53489 Sinzig"
721,53541,Übach-Palenberg,Milanos Eiszauber,Em Koddes 4,7,50.9197007,6.1194145,"Milanos Eiszauber, Em Koddes 4, 53541 Übach-Palenberg"
722,53604,Bad Honnef,Eiscafe Alessandro,Rhöndorfer Str.   46,11,50.65673,7.21336,"Eiscafe Alessandro, Rhöndorfer Str.   46, 53604 Bad Honnef"
723,53604,Bad Honnef,Eis Atelier,Rheinpromenade 6,128,50.6433881,7.2175169,"Eis Atelier, Rheinpromenade 6, 53604 Bad Honnef"
724,53639,Königswinter,Eiscafé Bruno,Drachenfelsstr. 15,32,50.67396,7.19359999999999,"Eiscafé Bruno, Drachenfelsstr. 15, 53639 Königswinter"
725,53639,Königswinter,Eiscafe Cordella,Rheinallee 8,30,50.6732058,7.19239849999999,"Eiscafe Cordella, Rheinallee 8, 53639 Königswinter"
726,53721,Siegburg,Teatro,Markt 30,13,50.7971205,7.2081404,"Teatro, Markt 30, 53721 Siegburg"
727,53757,St. Augustin,Sabatella,Kölnstr. 158,20,50.7573283,7.16327339999999,"Sabatella, Kölnstr. 158, 53757 St. Augustin"
728,53773,Hennef,Zum Alten Turm,Katharinastr. 6,40,50.7617792,7.36418219999999,"Zum Alten Turm, Katharinastr. 6, 53773 Hennef"
729,53773,Hennef,Eissalon Remor,Frankfurter Str.  61,211,50.7736663,7.2886989,"Eissalon Remor, Frankfurter Str.  61, 53773 Hennef"
730,53840,Troisdorf,Eiscafé Fontanella,Frankfurter Str. 9,5,50.81432,7.16578,"Eiscafé Fontanella, Frankfurter Str. 9, 53840 Troisdorf"
731,53879,Euskirchen,Eismanufaktur Solo Qui,Wilhelmstr. 8,161,50.6597427,6.7903386,"Eismanufaktur Solo Qui, Wilhelmstr. 8, 53879 Euskirchen"
732,53913,Swisttal,Café Amorini,Kölner Straße 63,92,50.7175261,6.91150219999999,"Café Amorini, Kölner Straße 63, 53913 Swisttal"
733,53937,Schleiden,Eiscafe Calchera,Dreiborner Str. 9,3,50.57246,6.49948,"Eiscafe Calchera, Dreiborner Str. 9, 53937 Schleiden"
734,54290,Trier,Christis,Sternstr. 5,90,49.7565362,6.64185779999999,"Christis, Sternstr. 5, 54290 Trier"
735,54290,Trier,Calchera,Simeonstr. 54,4,49.7586901,6.6428337,"Calchera, Simeonstr. 54, 54290 Trier"
736,54292,Trier,Eiscafé Rigoni,Paulinstr. 43,9,49.7619144,6.6477546,"Eiscafé Rigoni, Paulinstr. 43, 54292 Trier"
737,54294,Trier,Eiscafe Rigoni,Eurener Str. 181,6,49.7408604,6.60966489999999,"Eiscafe Rigoni, Eurener Str. 181, 54294 Trier"
738,54439,Saarburg,Eisdiele Cortina,Graf-Siegfried-Str. 7,7,49.6095581,6.5513293,"Eisdiele Cortina, Graf-Siegfried-Str. 7, 54439 Saarburg"
739,54470,Bernkastel-Kues,Eiscafe Venezia,Cusanusstr.3,38,49.9160606,7.0702896,"Eiscafe Venezia, Cusanusstr.3, 54470 Bernkastel-Kues"
740,54550,Daun,Eiscafé Fontanella,Burgfriedstr. 30A,3,50.1974899999999,6.83014,"Eiscafé Fontanella, Burgfriedstr. 30A, 54550 Daun"
741,55116,Mainz,Eiscafe Florenz,Hopfengarten 6,11,49.99583,8.27606,"Eiscafe Florenz, Hopfengarten 6, 55116 Mainz"
742,55116,Mainz,Da Vito,Holzstr. 1,4,49.9963151,8.2762688,"Da Vito, Holzstr. 1, 55116 Mainz"
743,55118,Mainz,N'Eis  das Neustadteis,Gartenfeldplatz 12,739,50.0059052,8.259737,"N'Eis  das Neustadteis, Gartenfeldplatz 12, 55118 Mainz"
744,55124,Mainz,Eis Pavillion Mario,Budenheimerstr.,7,49.9999474,8.2060134,"Eis Pavillion Mario, Budenheimerstr., 55124 Mainz"
745,55126,Mainz,Gelateria Alessio,Poststraße,3,49.9858988193555,8.17502524852439,"Gelateria Alessio, Poststraße, 55126 Mainz"
746,55218,Ingelheim am Rhein,Eiscafé Napolitano,Bahnhofstr. 27,5,49.9733812,8.0552245,"Eiscafé Napolitano, Bahnhofstr. 27, 55218 Ingelheim am Rhein"
747,55237,Bornheim,Eiscafé Wenath,Am Vogelsang  9,5,49.7819499999999,8.07016,"Eiscafé Wenath, Am Vogelsang  9, 55237 Bornheim"
748,55246,Wiesbaden,Elfis Eisdiele,Mainufer 12,8,50.001211,8.3101723,"Elfis Eisdiele, Mainufer 12, 55246 Wiesbaden"
749,55411,Bingen,Eiscafe Rialto,Neugasse 6,39,49.9677328999999,7.89359449999999,"Eiscafe Rialto, Neugasse 6, 55411 Bingen"
750,55435,Gau-Algesheim,Eiscafé Napolitano,Langgasse 1,5,49.95692,8.01555999999999,"Eiscafé Napolitano, Langgasse 1, 55435 Gau-Algesheim"
751,55543,Bad Kreuznach,Die Blaue Eisdiele,Mannheimer Str. 216 - 218,29,49.8393598,7.8654386,"Die Blaue Eisdiele, Mannheimer Str. 216 - 218, 55543 Bad Kreuznach"
752,55595,Weinsheim,Il Cappuccino,Sponheimer Str. 30,14,49.8384906,7.7656892,"Il Cappuccino, Sponheimer Str. 30, 55595 Weinsheim"
753,55606,Kirn,Eiscafe Venezia,Marktplatz 13-15,9,49.78614,7.45989999999999,"Eiscafe Venezia, Marktplatz 13-15, 55606 Kirn"
754,55765,Birkenfeld,Eiscafe Venezia,Achtstr. 13,93,49.64949,7.1685678,"Eiscafe Venezia, Achtstr. 13, 55765 Birkenfeld"
755,56068,Koblenz,Brustolon,Firmungstr. 34,5,50.3607186,7.598749,"Brustolon, Firmungstr. 34, 56068 Koblenz"
756,56068,Koblenz,e Gel o Sia,Braugasse 6,271,50.360814,7.59662869999999,"e Gel o Sia, Braugasse 6, 56068 Koblenz"
757,56477,Nister-Möhrendorf,Venezia,Hauptstr. 77,4,50.657794,8.079008,"Venezia, Hauptstr. 77, 56477 Nister-Möhrendorf"
758,56588,Waldbreitbach,Eiscafe Riviera,Neuwieder Str. 77,3,50.5518726,7.4173278,"Eiscafe Riviera, Neuwieder Str. 77, 56588 Waldbreitbach"
759,56642,Kruft,Lung's Milcheis,Ochtendunger Straße 34,3,50.37706,7.34222999999999,"Lung's Milcheis, Ochtendunger Straße 34, 56642 Kruft"
760,56812,Cochem,Gelateria Fratelli Bortolot,Moselpromenade 1,51,50.1469953,7.16634929999999,"Gelateria Fratelli Bortolot, Moselpromenade 1, 56812 Cochem"
761,57072,Siegen,Das Naschwerk,Am Bahnhof 17,49,50.8750499999999,8.01696,"Das Naschwerk, Am Bahnhof 17, 57072 Siegen"
762,57339,Erndtebrück,Eiscafe Dolomiti,Marburger Str. 3,7,50.98889,8.25591,"Eiscafe Dolomiti, Marburger Str. 3, 57339 Erndtebrück"
763,58095,Hagen,Öse Eis Volkspark,Körnerstr. 33,4,51.35921,7.4708,"Öse Eis Volkspark, Körnerstr. 33, 58095 Hagen"
764,58239,Schwerte,Kuhbar,Schützenstr. 66,4,51.44908,7.58627,"Kuhbar, Schützenstr. 66, 58239 Schwerte"
765,58239,Schwerte,Eiscafe Venezia,Hüsingstr. 26,3,51.441469,7.566778,"Eiscafe Venezia, Hüsingstr. 26, 58239 Schwerte"
766,58256,Ennepetal,Eissalon Enzo Del Longo,Lindenstr. 40,7,51.3063922,7.3876748,"Eissalon Enzo Del Longo, Lindenstr. 40, 58256 Ennepetal"
767,58285,Gevelsberg,Das kleine Kaffeehaus,Mittelstr. 34,9,51.3195975,7.33830929999999,"Das kleine Kaffeehaus, Mittelstr. 34, 58285 Gevelsberg"
768,58313,Herdecke,Kuhbar,Mühlenstr. 1,3,51.3971855,7.4301,"Kuhbar, Mühlenstr. 1, 58313 Herdecke"
769,58332,Schwelm,Renzo Conti,Hauptstr. 55,41,51.2844912,7.2939979,"Renzo Conti, Hauptstr. 55, 58332 Schwelm"
770,58332,Schwelm,Kuhbar Schwelm,Hauptstr. 159,23,51.290144,7.3019779,"Kuhbar Schwelm, Hauptstr. 159, 58332 Schwelm"
771,58452,Witten,Eiscafe Simonetti,Ruhrstr. 20,8,51.4380096999999,7.33702519999999,"Eiscafe Simonetti, Ruhrstr. 20, 58452 Witten"
772,58453,Witten,Dolomiti,Holzkampstr. 6,3,51.4442284999999,7.367436,"Dolomiti, Holzkampstr. 6, 58453 Witten"
773,58455,Witten,Eisdiele Vizzini,Pferdebachstr. 79,34,51.4473972,7.3473899,"Eisdiele Vizzini, Pferdebachstr. 79, 58455 Witten"
774,58540,Meinerzhagen,Eis Café Cortina,Zur Alten Post 3,107,51.1073688,7.63905919999999,"Eis Café Cortina, Zur Alten Post 3, 58540 Meinerzhagen"
775,58675,Hemer,Eiswerk Nina Lenninghaus e.K.,Hönnetalstr. 159a,3,51.37531,7.79004999999999,"Eiswerk Nina Lenninghaus e.K., Hönnetalstr. 159a, 58675 Hemer"
776,58791,Werdohl,Eiscafé Valentino,Freiheitstr. 22,3,51.25721,7.76298,"Eiscafé Valentino, Freiheitstr. 22, 58791 Werdohl"
777,59065,Hamm,Eiscafe Casal,Marktplatz 10,4,51.68188,7.81959999999999,"Eiscafe Casal, Marktplatz 10, 59065 Hamm"
778,59399,Olfen,De Bona Eiscafé,Marktplatz 1,4,51.7073786,7.37882449999999,"De Bona Eiscafé, Marktplatz 1, 59399 Olfen"
779,59494,Soest,Venezia Eisdiele,Wildemannsgasse 1,7,51.5729721,8.10532319999999,"Venezia Eisdiele, Wildemannsgasse 1, 59494 Soest"
780,59494,Soest,Eismanufaktur Soest,Brüdertor 4,13,51.5768318,8.1032418,"Eismanufaktur Soest, Brüdertor 4, 59494 Soest"
781,59609,Dolomiti,Eisdiele Dolomiti,Hauptstr. 82,43,51.5586756,8.3251775,"Eisdiele Dolomiti, Hauptstr. 82, 59609 Dolomiti"
782,59755,Arnsberg,Eis Cafe Am Brunnen,Hauptstraße 37,4,51.4506131,7.9660522,"Eis Cafe Am Brunnen, Hauptstraße 37, 59755 Arnsberg"
783,59872,Meschede,Eiscafe Cortina,Ruhrstr. 26,3,51.3478435,8.2825701,"Eiscafe Cortina, Ruhrstr. 26, 59872 Meschede"
784,60311,Frankfurt am Main,DasEis,Hasengasse 1,22,50.1124512,8.6839397,"DasEis, Hasengasse 1, 60311 Frankfurt am Main"
785,60316,Frankfurt am Main,Mint.,Berger Str. 36,29,50.1198226,8.6951463,"Mint., Berger Str. 36, 60316 Frankfurt am Main"
786,60318,Frankfurt am Main,Rosa Canina,Spohrstr. 41,56,50.1291653,8.6903167,"Rosa Canina, Spohrstr. 41, 60318 Frankfurt am Main"
787,60318,Frankfurt am Main,Olimpio,Oeder Weg 58,5,50.122,8.68098,"Olimpio, Oeder Weg 58, 60318 Frankfurt am Main"
788,60318,Frankfurt am Main,Eis Christina,Eckenheimer Landstr. 78,163,50.1255325,8.6860254,"Eis Christina, Eckenheimer Landstr. 78, 60318 Frankfurt am Main"
789,60318,Frankfurt am Main,Bizziice,Koselstr. 42,12,50.1232493,8.6881794,"Bizziice, Koselstr. 42, 60318 Frankfurt am Main"
790,60322,Frankfurt am Main,Eiscafé Michielin,Eschersheimer Landstr. 46,17,50.1212427,8.6756567,"Eiscafé Michielin, Eschersheimer Landstr. 46, 60322 Frankfurt am Main"
791,60385,Frankfurt am Main,Venezia,Berger Str. 245,4,50.1282949,8.71038789999999,"Venezia, Berger Str. 245, 60385 Frankfurt am Main"
792,60385,Frankfurt am Main,Eis-Cafe Venezia,Berger Str. 245,4,50.1282949,8.71038789999999,"Eis-Cafe Venezia, Berger Str. 245, 60385 Frankfurt am Main"
793,60433,Frankfurt am Main,Eis-Cafe Lido,Rhaban-Fröhlich-Str. 2,3,50.1566142,8.65739329999999,"Eis-Cafe Lido, Rhaban-Fröhlich-Str. 2, 60433 Frankfurt am Main"
794,60438,Frankfurt am Main,La Piazza,Riedbergplatz  5,4,50.1768353999999,8.6288848,"La Piazza, Riedbergplatz  5, 60438 Frankfurt am Main"
795,60529,Frankfurt am Main,Eis Café Riviera,Alt Schwanheim 40,10,50.0839623,8.5811659,"Eis Café Riviera, Alt Schwanheim 40, 60529 Frankfurt am Main"
796,60594,Frankfurt am Main,Eissalon Firenze,Walther-von-Cronberg-Platz 13,5,50.105278,8.6966918,"Eissalon Firenze, Walther-von-Cronberg-Platz 13, 60594 Frankfurt am Main"
797,60594,Frankfurt am Main,The Cooking Ape,Walther-von-Cronberg-Platz 2 - 4,3,50.1051403,8.6958403,"The Cooking Ape, Walther-von-Cronberg-Platz 2 - 4, 60594 Frankfurt am Main"
798,60594,Frankfurt am Main,Bizziice,Wallstr. 26,25,50.10539,8.68755,"Bizziice, Wallstr. 26, 60594 Frankfurt am Main"
799,60594,Frankfurt am Main,Eiscafe Mini Milano,Schweizer Str. 69,16,50.10063,8.682,"Eiscafe Mini Milano, Schweizer Str. 69, 60594 Frankfurt am Main"
800,61348,Bad Homburg,Eiscafé de Pellegrin,Louisenstraße 9,6,50.2286,8.61245179999999,"Eiscafé de Pellegrin, Louisenstraße 9, 61348 Bad Homburg"
801,61440,Oberursel (Taunus),Eiscafe Daniel Nigro,Adenauerallee 14,5,50.1995213999999,8.5844829,"Eiscafe Daniel Nigro, Adenauerallee 14, 61440 Oberursel (Taunus)"
802,63065,Offenbach,Cortina,Herrnstr. 34,6,50.1051478,8.7621538,"Cortina, Herrnstr. 34, 63065 Offenbach"
803,63069,Offenbach,Eiscafe Da Claudio,Odenwaldring 70,3,50.0878749,8.7609585,"Eiscafe Da Claudio, Odenwaldring 70, 63069 Offenbach"
804,63075,Offenbach am Main,Eiscafe Triangolo,Langstr. 3,6,50.11912,8.78518,"Eiscafe Triangolo, Langstr. 3, 63075 Offenbach am Main"
805,63075,Offenbach,Eiscafé Dolomiti,Alicestr. 18,4,50.1153098,8.7834308,"Eiscafé Dolomiti, Alicestr. 18, 63075 Offenbach"
806,63110,Rodgau,Eis-Bayer,Hinter dem Born 2,5,50.008608,8.8923589,"Eis-Bayer, Hinter dem Born 2, 63110 Rodgau"
807,63179,Obertshausen,Eisdiele Dolomiti,Max - Planck Str.  2,26,50.07176,8.84803,"Eisdiele Dolomiti, Max - Planck Str.  2, 63179 Obertshausen"
808,63225,Langen,Maison De La Glace,Berliner Allee 5a,100,49.9923527,8.6486825,"Maison De La Glace, Berliner Allee 5a, 63225 Langen"
809,63322,Rödermark,Eis Venezia,Traminer Str. 13,4,49.9705182999999,8.7978376,"Eis Venezia, Traminer Str. 13, 63322 Rödermark"
810,63450,Hanau,Land of Plenty - Frozen Yogurt Bar,Am Freiheitsplatz 7,3,50.134289,8.9173201,"Land of Plenty - Frozen Yogurt Bar, Am Freiheitsplatz 7, 63450 Hanau"
811,63500,Seligenstadt,Der süße Löwer,Kleine Maingasse 2,4,50.0432902,8.97672839999999,"Der süße Löwer, Kleine Maingasse 2, 63500 Seligenstadt"
812,63500,Seligenstadt,Eis Bar Roma,Am Riegelsbach 12,10,50.0405267999999,8.9764808,"Eis Bar Roma, Am Riegelsbach 12, 63500 Seligenstadt"
813,63500,Seligenstadt,Eiscafé Maintor,Große Maingasse 22,9,50.0436294,8.9783029,"Eiscafé Maintor, Große Maingasse 22, 63500 Seligenstadt"
814,63512,Hainburg,Eis Köhler,Herderstr. 31-33,5,50.0750727,8.95860549999999,"Eis Köhler, Herderstr. 31-33, 63512 Hainburg"
815,63512,Hainburg,Eiscafe Eis-Henss,Krotzenburger Str. 20,4,50.07712,8.96957,"Eiscafe Eis-Henss, Krotzenburger Str. 20, 63512 Hainburg"
816,63654,Büdingen,Eiscafé Venzia,Vorstadt 20,12,50.2922805,9.1131817,"Eiscafé Venzia, Vorstadt 20, 63654 Büdingen"
817,63739,Aschaffenburg,Gelateria Da Rocco,Würzburger Str. 4,5,49.9740204,9.1514858,"Gelateria Da Rocco, Würzburger Str. 4, 63739 Aschaffenburg"
818,63776,Mömbris,Eiscafe Piazza De Giuseppe Raffaele,Im Markthof  4,3,50.06907,9.16634,"Eiscafe Piazza De Giuseppe Raffaele, Im Markthof  4, 63776 Mömbris"
819,63785,Obernburg,Gelateria Da Olly,Römerstr. 1,27,49.8395985,9.1440466,"Gelateria Da Olly, Römerstr. 1, 63785 Obernburg"
820,64283,Darmstadt,Coccola Die Eis- und Schokomacher,Schustergasse 7,225,49.8722885,8.65646059999999,"Coccola Die Eis- und Schokomacher, Schustergasse 7, 64283 Darmstadt"
821,64283,Darmstadt,Venezia,Ernst-Ludwig-Str. 7,11,49.8721219,8.65358949999999,"Venezia, Ernst-Ludwig-Str. 7, 64283 Darmstadt"
822,64297,Darmstadt,Eiscafé Dolomiti,Heidelberger Landstr. 257,3,49.8170082,8.6438855,"Eiscafé Dolomiti, Heidelberger Landstr. 257, 64297 Darmstadt"
823,64319,Pflungstadt,Eiscafé Venezia,Eberstädter Str. 69,3,49.8043397,8.6024479,"Eiscafé Venezia, Eberstädter Str. 69, 64319 Pflungstadt"
824,64331,Weiterstadt,Die Eisecke,Darmstädter Landstr. 6,12,49.92992,8.59972,"Die Eisecke, Darmstädter Landstr. 6, 64331 Weiterstadt"
825,64342,Seeheim-Jugenheim,Eiscafé Natale,Bergstraße 2,98,49.7650259,8.6490867,"Eiscafé Natale, Bergstraße 2, 64342 Seeheim-Jugenheim"
826,64342,Seeheim-Jugenheim,Eiscafé Natale,Bergstraße 2,26,49.7650259,8.6490867,"Eiscafé Natale, Bergstraße 2, 64342 Seeheim-Jugenheim"
827,64401,Groß-Bieberau,Wennel Eis,Bahnhofstr. 20,4,49.8018146999999,8.8265392,"Wennel Eis, Bahnhofstr. 20, 64401 Groß-Bieberau"
828,64625,Bensheim,Eiscafé Rialto,Am Wambolterhof 5,18,49.68078,8.62157,"Eiscafé Rialto, Am Wambolterhof 5, 64625 Bensheim"
829,64625,Bensheim,coccola,Bahnhofstraße 6,72,49.68115,8.62187999999999,"coccola, Bahnhofstraße 6, 64625 Bensheim"
830,64646,Heppenheim (Bergstraße),Eisboutique Monteleone,Wilhelmstr. 2,4,49.6423982,8.6411056,"Eisboutique Monteleone, Wilhelmstr. 2, 64646 Heppenheim (Bergstraße)"
831,64646,Heppenheim (Bergstraße),Coccola,Großer Markt 7,45,49.6418542,8.6448995,"Coccola, Großer Markt 7, 64646 Heppenheim (Bergstraße)"
832,64678,Lindenfels,Eiscafé Venezia,Burgstr. 28,69,49.68327,8.779,"Eiscafé Venezia, Burgstr. 28, 64678 Lindenfels"
833,64823,Groß-Umstadt,Tivoli,Carlo Mierendorff 16,9,49.86599,8.92578,"Tivoli, Carlo Mierendorff 16, 64823 Groß-Umstadt"
834,65183,Wiesbaden,Caffé Latte Art,Langgasse 27,32,50.08431,8.24025,"Caffé Latte Art, Langgasse 27, 65183 Wiesbaden"
835,65183,Wiesbaden,Eis Cafe Rialto,Marktstr. 8,3,50.0812524,8.2416806,"Eis Cafe Rialto, Marktstr. 8, 65183 Wiesbaden"
836,65197,Wiesbaden,Eiscafé Cortina,Dotzheimer Str. 77,22,50.07799,8.22402,"Eiscafé Cortina, Dotzheimer Str. 77, 65197 Wiesbaden"
837,65203,Wiesbaden,Stefano Covre Eiscafe am Rhein,Rheingaustr. 152,18,50.0366183,8.23662429999999,"Stefano Covre Eiscafe am Rhein, Rheingaustr. 152, 65203 Wiesbaden"
838,65510,Idstein-Wörsdorf,Gelateria Espresso Bar Da Raffale,Wallbacher Str. 5,53,50.2459506999999,8.25498099999999,"Gelateria Espresso Bar Da Raffale, Wallbacher Str. 5, 65510 Idstein-Wörsdorf"
839,65549,Limburg,Cafe Lazzaris,Bahnhofstr. 5,9,50.3855983,8.0632204,"Cafe Lazzaris, Bahnhofstr. 5, 65549 Limburg"
840,65582,Diez,Gefrorenes Glück,Wilhelmstr. 1,155,50.37217,8.00954999999999,"Gefrorenes Glück, Wilhelmstr. 1, 65582 Diez"
841,65594,Runkel,Ital.Eiscafe Mancuso,Borngasse 2,7,50.405206,8.15727,"Ital.Eiscafe Mancuso, Borngasse 2, 65594 Runkel"
842,65611,Niederbrechen,Eismanufaktur Niederbrechen,Limburger Str. 71,245,50.3621466,8.1639452,"Eismanufaktur Niederbrechen, Limburger Str. 71, 65611 Niederbrechen"
843,65719,Hofheim am Taunus,Eiscafé Venezia,Hauptstr. 65,9,50.0866153,8.4442167,"Eiscafé Venezia, Hauptstr. 65, 65719 Hofheim am Taunus"
844,66111,Saarbrücken,Eiscafé De Lorenzo,Sankt-Johanner-Markt 37,4,49.23232,6.99688,"Eiscafé De Lorenzo, Sankt-Johanner-Markt 37, 66111 Saarbrücken"
845,66111,Saarbrücken,Eiscafe Jesolo,Bahnhofstr. 26,3,49.2341534,6.995333,"Eiscafe Jesolo, Bahnhofstr. 26, 66111 Saarbrücken"
846,66111,Saarbrücken,Eisbar Amore,Cecilienstr.,37,49.2363,6.99674,"Eisbar Amore, Cecilienstr., 66111 Saarbrücken"
847,66111,Saarbrücken,Henry's Eismanufaktur,Kappenstr. 1,196,49.23298,6.99661,"Henry's Eismanufaktur, Kappenstr. 1, 66111 Saarbrücken"
848,66117,Saarbrücken,Eiscafé Capri,Eisenbahnstr. 47,3,49.2356405,6.9893515,"Eiscafé Capri, Eisenbahnstr. 47, 66117 Saarbrücken"
849,66265,Heusweiler,Eiscafé Da-Ren,Am Markt 3,5,49.33748,6.93015,"Eiscafé Da-Ren, Am Markt 3, 66265 Heusweiler"
850,66333,Völklingen,Eiscafé Venezia,Völklinger Str. 58,13,49.2230625,6.8098594,"Eiscafé Venezia, Völklinger Str. 58, 66333 Völklingen"
851,66424,Homburg,De Lazzero,Saarbrücker Str. 18,3,49.32074,7.34025219999999,"De Lazzero, Saarbrücker Str. 18, 66424 Homburg"
852,66459,Kirkel,Eis Cortina,Kaiserstr. 66,3,49.2857883,7.228754,"Eis Cortina, Kaiserstr. 66, 66459 Kirkel"
853,66557,Illingen,Eiscafé Venezia,Hauptstr. 44,3,49.3771669,7.0513923,"Eiscafé Venezia, Hauptstr. 44, 66557 Illingen"
854,66625,Nohfelden,Mary's Eiscafé,Saarbrücker Straße 48,3,49.57686,7.11161999999999,"Mary's Eiscafé, Saarbrücker Straße 48, 66625 Nohfelden"
855,66629,Freisen,Eiscafe Bettin,Schulstr. 15,3,49.5508,7.24984999999999,"Eiscafe Bettin, Schulstr. 15, 66629 Freisen"
856,66740,Saarlouis,Eiscafe Paradiso,Lindenstr. 102,5,49.3312257,6.75218039999999,"Eiscafe Paradiso, Lindenstr. 102, 66740 Saarlouis"
857,66763,Dillingen/Saar,Eiscafe Vulcano,Stummstr. 13,10,49.35274,6.72492,"Eiscafe Vulcano, Stummstr. 13, 66763 Dillingen/Saar"
858,66822,Lebach,Eis Costantin,Am Bahnhof  9,8,49.40878,6.90940679999999,"Eis Costantin, Am Bahnhof  9, 66822 Lebach"
859,66849,Landstuhl,Eiscafé Dolomiti,Kaiserstr. 28,4,49.4133073,7.5672598,"Eiscafé Dolomiti, Kaiserstr. 28, 66849 Landstuhl"
860,66953,Pirmasens,Zaroli-Eis,Luisenstr. 2A,59,49.20267,7.60736,"Zaroli-Eis, Luisenstr. 2A, 66953 Pirmasens"
861,67117,Limburgerhof,Eismanufaktur Zeitgeist,Carl-Bosch-Str. 11,58,49.41714,8.39013,"Eismanufaktur Zeitgeist, Carl-Bosch-Str. 11, 67117 Limburgerhof"
862,67165,Waldsee,Eiscafe Dolomiti,Ludwigstr. 22,15,49.3947549,8.4411152,"Eiscafe Dolomiti, Ludwigstr. 22, 67165 Waldsee"
863,67165,Waldsee,Dolomiti,Ludwigstr. 22,3,49.3947549,8.4411152,"Dolomiti, Ludwigstr. 22, 67165 Waldsee"
864,67346,Speyer,Eis-Bertolini,Industriestr. 50,3,49.302825,8.44817879999999,"Eis-Bertolini, Industriestr. 50, 67346 Speyer"
865,67346,Speyer,Café Hindenburg,Maximilianstr. 91,3,49.3175971999999,8.4379108,"Café Hindenburg, Maximilianstr. 91, 67346 Speyer"
866,67433,Neustadt an der Weinstraße,Eisdiele Vannini,Hauptstr. 48,6,49.3523267,8.1369441,"Eisdiele Vannini, Hauptstr. 48, 67433 Neustadt an der Weinstraße"
867,67433,Neustadt an der Weinstraße,Eissalon De Rossi,Hauptstr. 60,9,49.3527291,8.1369392,"Eissalon De Rossi, Hauptstr. 60, 67433 Neustadt an der Weinstraße"
868,67435,Neustadt an der Weinstraße,La Gelateria,Heinrichstr. 44,16,49.3272039,8.1972094,"La Gelateria, Heinrichstr. 44, 67435 Neustadt an der Weinstraße"
869,67454,Haßloch,Eis Di Meo,Langgasse 79,5,49.3633256,8.2563649,"Eis Di Meo, Langgasse 79, 67454 Haßloch"
870,67480,Edenkoben,Rialto,Tanzstr. 28,59,49.2800297,8.127168,"Rialto, Tanzstr. 28, 67480 Edenkoben"
871,67487,Maikammer,Eiscafé Bellini,Frantzplatz,4,49.3043,8.13296,"Eiscafé Bellini, Frantzplatz, 67487 Maikammer"
872,67487,St. Martin,Zappels Eis-Ecke,Tanzstr. 13,5,49.2994478,8.1022192,"Zappels Eis-Ecke, Tanzstr. 13, 67487 St. Martin"
873,67547,Worms,Vannini,Am Marktplatz,468,49.6303796814528,8.36185933996784,"Vannini, Am Marktplatz, 67547 Worms"
874,67549,Worms,Eis Simoni,von-Steuben-Str. 17,66,49.6362616,8.35330149999999,"Eis Simoni, von-Steuben-Str. 17, 67549 Worms"
875,67591,Offstein,Casa del Gelato,Wormser Str. 58,3,49.60561,8.24381,"Casa del Gelato, Wormser Str. 58, 67591 Offstein"
876,67655,Kaiserslautern,Eiscafe Dolomiten,Schillerstr. 2,4,49.44488,7.77082999999999,"Eiscafe Dolomiten, Schillerstr. 2, 67655 Kaiserslautern"
877,67659,Kaiserslautern,Eiscafé Rialto,Mühlstraße 2,18,49.4448081,7.76572709999999,"Eiscafé Rialto, Mühlstraße 2, 67659 Kaiserslautern"
878,68161,Mannheim,Eis Fontanella,L11 11,6,49.4821205,8.4683105,"Eis Fontanella, L11 11, 68161 Mannheim"
879,68161,Mannheim,Gran Caffe Vittoria,P7 19,4,49.4854122,8.4726787,"Gran Caffe Vittoria, P7 19, 68161 Mannheim"
880,68161,Mannheim,Eis Fontanella,O4 5,108,49.48651,8.46907809999999,"Eis Fontanella, O4 5, 68161 Mannheim"
881,68163,Mannheim,Eismanufaktur ZeitgEISt,Meerfeldstr. 45,397,49.4738757,8.4692504,"Eismanufaktur ZeitgEISt, Meerfeldstr. 45, 68163 Mannheim"
882,68199,Mannheim,Italo,Rheingoldstr. 5,3,49.453198,8.49094,"Italo, Rheingoldstr. 5, 68199 Mannheim"
883,68305,Mannheim,Café Wissenbach,Mittelstr. 55,6,49.4995571,8.46624499999999,"Café Wissenbach, Mittelstr. 55, 68305 Mannheim"
884,68469,Weinheim,Vanini,Hauptstr. 78,49,49.5498235,8.6717149,"Vanini, Hauptstr. 78, 68469 Weinheim"
885,68535,Edingen-Neckarhausen,Eiscafé Leone,Rathausstraße 2,3,49.44744,8.61299,"Eiscafé Leone, Rathausstraße 2, 68535 Edingen-Neckarhausen"
886,68549,Ilvesheim,Eis Leone,Brückenstr. 1,4,49.469635,8.56577699999999,"Eis Leone, Brückenstr. 1, 68549 Ilvesheim"
887,68623,Lampertheim,Eis - Oberfeld,Neue Schulstr.  5,104,49.59658,8.46978,"Eis - Oberfeld, Neue Schulstr.  5, 68623 Lampertheim"
888,68723,Schwetzingen,Grancaffé La Gelateria,Dreikönigstr. 8,16,49.3858474,8.5726101,"Grancaffé La Gelateria, Dreikönigstr. 8, 68723 Schwetzingen"
889,68753,Waghäusel,Cafe Vincenza,Waghäuseler Str. 10,3,49.24252,8.54746,"Cafe Vincenza, Waghäuseler Str. 10, 68753 Waghäusel"
890,68804,Altlußheim,Da Mario,Tullastr. 21,32,49.303687,8.5022531,"Da Mario, Tullastr. 21, 68804 Altlußheim"
891,69115,Heidelberg,Gelato go,Nightingalestr. 1,11,49.4013853,8.6691168,"Gelato go, Nightingalestr. 1, 69115 Heidelberg"
892,69115,Heidelberg,Bio-Eismanufaktur,Kleinschmidtstr. 1,18,49.405258,8.6873344,"Bio-Eismanufaktur, Kleinschmidtstr. 1, 69115 Heidelberg"
893,69117,Heidelberg,Schmelzpunkt,Hauptstraße 90,47,49.41092,8.7015,"Schmelzpunkt, Hauptstraße 90, 69117 Heidelberg"
894,69117,Heidelberg,That's Gelato,Steingasse 12,12,49.41274,8.70947,"That's Gelato, Steingasse 12, 69117 Heidelberg"
895,69117,Heidelberg,Amorino Eiscafé,Hauptstraße 177,3,49.41185,8.7084148,"Amorino Eiscafé, Hauptstraße 177, 69117 Heidelberg"
896,69117,Heidelberg,Chocolaterie St.Anna No.1,St.-Anna-Gasse 1,4,49.4096076,8.6941998,"Chocolaterie St.Anna No.1, St.-Anna-Gasse 1, 69117 Heidelberg"
897,69117,Heidelberg,Gelati caffè bar,Hauptsraße 141,22,49.4117483,8.7065032,"Gelati caffè bar, Hauptsraße 141, 69117 Heidelberg"
898,69117,Heidelberg,Gelato go,Hauptstraße 100,120,49.4111723,8.703017,"Gelato go, Hauptstraße 100, 69117 Heidelberg"
899,69120,Heidelberg,Capri,Brückenstr. 19,16,49.4145864,8.69206389999999,"Capri, Brückenstr. 19, 69120 Heidelberg"
900,69121,Heidelberg,That's Gelato,Steubenstr. 34,12,49.4240699,8.6882878,"That's Gelato, Steubenstr. 34, 69121 Heidelberg"
901,69126,Heidelberg,Eis Dolomiti,Rathausstraße 60,5,49.3787852,8.6919132,"Eis Dolomiti, Rathausstraße 60, 69126 Heidelberg"
902,69190,Walldorf,Eiscafe Capri,Hauptstr. 7,3,49.3025181,8.6416483,"Eiscafe Capri, Hauptstr. 7, 69190 Walldorf"
903,69221,Dossenheim,Eiscafé Italia,Schwabenheimer Str. 4,3,49.4508555,8.6711323,"Eiscafé Italia, Schwabenheimer Str. 4, 69221 Dossenheim"
904,69234,Dielheim,Adria,Hauptstr. 47,4,49.28239,8.73359,"Adria, Hauptstr. 47, 69234 Dielheim"
905,69257,Wiesenbach,Eiscafe Tremiti,Hauptstr. 22,3,49.3596693999999,8.80407649999999,"Eiscafe Tremiti, Hauptstr. 22, 69257 Wiesenbach"
906,69434,Hirschhorn-Langenthal,Corinnas Eisperle,Wald-Mechelbacher Str. 33,9,49.4725662,8.84743469999999,"Corinnas Eisperle, Wald-Mechelbacher Str. 33, 69434 Hirschhorn-Langenthal"
907,69469,Weinheim,Bertolini,Am Hauptbahnhof 10,8,49.55437,8.66683999999999,"Bertolini, Am Hauptbahnhof 10, 69469 Weinheim"
908,69502,Hemsbach,Eis Café Ciao,Bachgasse 23,4,49.5905721,8.6556698,"Eis Café Ciao, Bachgasse 23, 69502 Hemsbach"
909,69514,Laudenbach,Geisslein,Mittelstr. 47,157,49.611973,8.6531213,"Geisslein, Mittelstr. 47, 69514 Laudenbach"
910,70173,Stuttgart,Old Bridge Gelateria,Eberhardstr. 31,13,48.7740774,9.179413,"Old Bridge Gelateria, Eberhardstr. 31, 70173 Stuttgart"
911,70173,Stuttgart,Eiscafe Old Bridge,Bolzstr. 10,83,48.78019,9.17785999999999,"Eiscafe Old Bridge, Bolzstr. 10, 70173 Stuttgart"
912,70176,Stuttgart,Flori & Palma,Senefelderstr. 109,5,48.7804155,9.15712589999999,"Flori & Palma, Senefelderstr. 109, 70176 Stuttgart"
913,70178,Stuttgart,Gelateria Kaiserbau,Marienplatz 12,169,48.7646577999999,9.1688232,"Gelateria Kaiserbau, Marienplatz 12, 70178 Stuttgart"
914,70184,Stuttgart,Eis-Bistro Pinguin,Eugensplatz 2a,71,48.7777204,9.1907695,"Eis-Bistro Pinguin, Eugensplatz 2a, 70184 Stuttgart"
915,70192,Stuttgart,Schloz Eisdiele,Am Höhenpark 2,104,48.7997723,9.1713881,"Schloz Eisdiele, Am Höhenpark 2, 70192 Stuttgart"
916,70599,Stuttgart,Eisschnuppe,Filderhauptstr. 45,36,48.7010388,9.2102718,"Eisschnuppe, Filderhauptstr. 45, 70599 Stuttgart"
917,70734,Fellbach,Vana Eis Die Manufaktur,Sebastian-Bach-Str. 14,54,48.8131348,9.2750936,"Vana Eis Die Manufaktur, Sebastian-Bach-Str. 14, 70734 Fellbach"
918,70736,Fellbach,Eis-Cafe-Mario,Fellbacher Str. 62,5,48.82902,9.26538,"Eis-Cafe-Mario, Fellbacher Str. 62, 70736 Fellbach"
919,70771,Leinfelden-Echterdingen,Eiscafé Venezia,Hauptstr. 50,6,48.6871753,9.1669275,"Eiscafé Venezia, Hauptstr. 50, 70771 Leinfelden-Echterdingen"
920,70794,Filderstadt,Eiscafe Eisbär,Rosenstr. 3,4,48.67824,9.2155,"Eiscafe Eisbär, Rosenstr. 3, 70794 Filderstadt"
921,71063,Sindelfingen,Eiscafé Venedig,Ziegelstr. 8,4,48.7089454,9.0031234,"Eiscafé Venedig, Ziegelstr. 8, 71063 Sindelfingen"
922,71083,Herrenberg,Eisdiele Crema Gelato,Hasenplatz 1,9,48.59476,8.87195,"Eisdiele Crema Gelato, Hasenplatz 1, 71083 Herrenberg"
923,71088,Holzgerlingen,Eiscafe Adria,Tübinger Straße 7,25,48.63881,9.01229,"Eiscafe Adria, Tübinger Straße 7, 71088 Holzgerlingen"
924,712135,Dettenhausen,Cafe Mieze,Tübinger Str. 66,21,48.60263,9.09563,"Cafe Mieze, Tübinger Str. 66, 712135 Dettenhausen"
925,71282,Hemmingen,Eiscafe Pizzeria Pavione,Hauptstr. 32,7,48.86525,9.03141,"Eiscafe Pizzeria Pavione, Hauptstr. 32, 71282 Hemmingen"
926,71638,Ludwigsburg,Eis Olivier,Wilhelmstr. 10,9,48.8962929,9.1921572,"Eis Olivier, Wilhelmstr. 10, 71638 Ludwigsburg"
927,71638,Ludwigsburg,Eissalon Olivier,Myliusstr. 3,10,48.8938311,9.1875175,"Eissalon Olivier, Myliusstr. 3, 71638 Ludwigsburg"
928,71723,Großbottwar,Eismeisterei Kreiß,Haaggasse 19,7,49.0023296,9.29343289999999,"Eismeisterei Kreiß, Haaggasse 19, 71723 Großbottwar"
929,71726,Benningen am Neckar,Eis To Go Da Rosario,Dengelberg 3,7,48.9468735,9.2414021,"Eis To Go Da Rosario, Dengelberg 3, 71726 Benningen am Neckar"
930,72070,Tübingen,Il Dolce,Metzgergase 6,3,48.5214465,9.0561281,"Il Dolce, Metzgergase 6, 72070 Tübingen"
931,72070,Tübingen,Porto Pino,Neckargasse 15,4,48.5197849,9.0573093,"Porto Pino, Neckargasse 15, 72070 Tübingen"
932,72070,Tübingen,Eiscafé San Marco,Beim Nonnenhaus 14,40,48.5219949,9.05649519999999,"Eiscafé San Marco, Beim Nonnenhaus 14, 72070 Tübingen"
933,72070,Tübingen,Tübinger Zuckerbäcker,Ammergasse 13,9,48.5207835,9.0507137,"Tübinger Zuckerbäcker, Ammergasse 13, 72070 Tübingen"
934,72108,Rottenburg am Neckar,Eiscafé Rino,Marktplatz 17,7,48.4769809,8.9341138,"Eiscafé Rino, Marktplatz 17, 72108 Rottenburg am Neckar"
935,72336,Balingen,Eisdiele Venedig,Am Spitaltörle 2,5,48.27345,8.85073,"Eisdiele Venedig, Am Spitaltörle 2, 72336 Balingen"
936,72764,Reutlingen,Hubi's,Nikolaiplatz 3,3,48.4934338,9.2096726,"Hubi's, Nikolaiplatz 3, 72764 Reutlingen"
937,72800,Eningen unter Achalm,Eishaus,Schwanenstr. 1,118,48.48719,9.2602,"Eishaus, Schwanenstr. 1, 72800 Eningen unter Achalm"
938,73033,Göppingen,Pierrot,Grabenstr 16,3,48.7018557,9.6530071,"Pierrot, Grabenstr 16, 73033 Göppingen"
939,73207,Plochingen,Eiscafè Zanetti,Esslinger Str. 20,3,48.71198,9.41498,"Eiscafè Zanetti, Esslinger Str. 20, 73207 Plochingen"
940,73525,Schwäbisch Gmünd,Eissalon Venezia,Marktplatz 17,10,48.80038,9.79717,"Eissalon Venezia, Marktplatz 17, 73525 Schwäbisch Gmünd"
941,73642,Welzheim,Eiscafe Garda,Gottlob-Bauknecht-Platz 8,10,48.876828,9.635013,"Eiscafe Garda, Gottlob-Bauknecht-Platz 8, 73642 Welzheim"
942,73728,Esslingen am Neckar,Eiscafe Dolomiti,Innere Brücke 6,12,48.7412439,9.307006,"Eiscafe Dolomiti, Innere Brücke 6, 73728 Esslingen am Neckar"
943,73728,Esslingen am Neckar,Eiscafe La Torre,Schelztorstr. 2,14,48.7414677,9.303825,"Eiscafe La Torre, Schelztorstr. 2, 73728 Esslingen am Neckar"
944,73728,Esslingen am Neckar,Bertazzoni Eis,Bahnhofstraße,3,48.7407,9.30355,"Bertazzoni Eis, Bahnhofstraße, 73728 Esslingen am Neckar"
945,74072,Heilbronn,Gelatone,Sülmerstr. 35,8,49.1439896,9.2206272,"Gelatone, Sülmerstr. 35, 74072 Heilbronn"
946,74072,Heilbronn,Primafila,Obere Neckarstr. 32,127,49.1414787999999,9.2158058,"Primafila, Obere Neckarstr. 32, 74072 Heilbronn"
947,74072,Heilbronn,Dellarte,Allee 18,18,49.1411899999999,9.22247,"Dellarte, Allee 18, 74072 Heilbronn"
948,74193,Schwaigern,Cupo Gerardo Eis Café San Remo,Marktplatz 9,4,49.1417953,9.0570088,"Cupo Gerardo Eis Café San Remo, Marktplatz 9, 74193 Schwaigern"
949,74385,Pleidelsheim,Eiscafe La Sila,Hindenburgplatz 3,5,48.9604418,9.2049267,"Eiscafe La Sila, Hindenburgplatz 3, 74385 Pleidelsheim"
950,74523,Schwäbisch Hall,Eisdiele Simonetti,Schulgasse 14,4,49.11259,9.73486999999999,"Eisdiele Simonetti, Schulgasse 14, 74523 Schwäbisch Hall"
951,74889,Sinsheim,San Marco,Rosengasse 5,3,49.2524512,8.8776602,"San Marco, Rosengasse 5, 74889 Sinsheim"
952,75015,Bretten,Eis Capri,Melanchthonstr. 39,4,49.0373899999999,8.70393,"Eis Capri, Melanchthonstr. 39, 75015 Bretten"
953,75015,Bretten,Gelateria Spatuzzi,Weißhoferstr. 93,4,49.0339399,8.7170901,"Gelateria Spatuzzi, Weißhoferstr. 93, 75015 Bretten"
954,75173,Pforzheim,Eispavilion Rialto,Jörg-Ratgeb-Str. 12,4,48.8895,8.69798,"Eispavilion Rialto, Jörg-Ratgeb-Str. 12, 75173 Pforzheim"
955,75210,Keltern,Eiscafé Ai Giardini,,10,48.896478,8.631911,"Eiscafé Ai Giardini, , 75210 Keltern"
956,75249,Merzhausen,EisMeierei,Friedhofweg 2,4,47.9658058,7.82704319999999,"EisMeierei, Friedhofweg 2, 75249 Merzhausen"
957,76131,Karlsruhe,Eis Cassata,Georg-Friedrich-Str. 30,77,49.0089208,8.4235033,"Eis Cassata, Georg-Friedrich-Str. 30, 76131 Karlsruhe"
958,76133,Karlsruhe,Arte Dolce Gelateria,Kaiserallee 51,39,49.01059,8.37755999999999,"Arte Dolce Gelateria, Kaiserallee 51, 76133 Karlsruhe"
959,76133,Karlsruhe,Eiscafé Casal,Kaiserstr. 124C,12,49.0099838999999,8.39692859999999,"Eiscafé Casal, Kaiserstr. 124C, 76133 Karlsruhe"
960,76133,Karlsruhe,Eissalon Capri,Kaiserpassage 6,5,49.0106344999999,8.3969953,"Eissalon Capri, Kaiserpassage 6, 76133 Karlsruhe"
961,76133,Karlsruhe,Goldzünglein,Zirkel 11,9,49.0103702,8.40695519999999,"Goldzünglein, Zirkel 11, 76133 Karlsruhe"
962,76133,Karlsruhe,Eismanufaktur Charlotte,Kaiserstr. 44,3,49.009557,8.407252,"Eismanufaktur Charlotte, Kaiserstr. 44, 76133 Karlsruhe"
963,76133,Karlsruhe,Eis Café Cortina,Kaiserstr. 101,3,49.0092461,8.4078129,"Eis Café Cortina, Kaiserstr. 101, 76133 Karlsruhe"
964,76135,Karlsruhe,Eiscafé am Sophienpark,Sophienstr. 98,4,49.00804,8.38314,"Eiscafé am Sophienpark, Sophienstr. 98, 76135 Karlsruhe"
965,76137,Karlsruhe,Zooterrasssen,Bahnhofstr. 28,3,48.99727,8.39903,"Zooterrasssen, Bahnhofstr. 28, 76137 Karlsruhe"
966,76189,Karlsruhe,Eiscafe Eis-Oma,Hellbergstr. 1,87,48.9930841,8.3540955,"Eiscafe Eis-Oma, Hellbergstr. 1, 76189 Karlsruhe"
967,76227,Karlsruhe,Gelatone,Pfinztalstraße,8,48.9992,8.47008,"Gelatone, Pfinztalstraße, 76227 Karlsruhe"
968,76275,Ettlingen,Cafe Pierod,Kirchenplatz 5,6,48.94128,8.40838,"Cafe Pierod, Kirchenplatz 5, 76275 Ettlingen"
969,76287,Rheinstetten,Eiscafe Eis-Oma,Rappenwörthstr. 43,3,48.96809,8.30459,"Eiscafe Eis-Oma, Rappenwörthstr. 43, 76287 Rheinstetten"
970,76297,Stutensee,Eis Onkel,Draisstr. 13,3,49.0907215,8.5070418,"Eis Onkel, Draisstr. 13, 76297 Stutensee"
971,76334,Eggenstein-Leopoldshafen,Eis La Veneta,Hauptstr. 37A,7,49.07886,8.38926,"Eis La Veneta, Hauptstr. 37A, 76334 Eggenstein-Leopoldshafen"
972,76337,Waldbronn,Eiscafe Michelino,Marktplatz 4,5,48.9293214,8.4711192,"Eiscafe Michelino, Marktplatz 4, 76337 Waldbronn"
973,76437,Rastatt,Eis Rimini,Fährstrasse 49,14,48.8828693,8.1551113,"Eis Rimini, Fährstrasse 49, 76437 Rastatt"
974,76530,Baden-Baden,Eiscafe Capri,Sophienstr. 1B,6,48.7607115,8.23930049999999,"Eiscafe Capri, Sophienstr. 1B, 76530 Baden-Baden"
975,76530,Baden-Baden,Eisdiele Crema Gelato,Lange Str. 20,9,48.7624764,8.2385783,"Eisdiele Crema Gelato, Lange Str. 20, 76530 Baden-Baden"
976,76571,Gaggenau,Eis Rimini,Hauptstr. 36,14,48.8032867,8.31931599999999,"Eis Rimini, Hauptstr. 36, 76571 Gaggenau"
977,76571,Gaggenau,Eis-Wolf,Beethovenstr. 70,7,48.79055,8.33321999999999,"Eis-Wolf, Beethovenstr. 70, 76571 Gaggenau"
978,76593,Gernsbach,Eiscafe Rizzardini,Bleichstr. 3,38,48.7638879999999,8.3366774,"Eiscafe Rizzardini, Bleichstr. 3, 76593 Gernsbach"
979,76669,Bad Schönborn,Mariotti,Friedrichstraße 97,4,49.2192062,8.6620853,"Mariotti, Friedrichstraße 97, 76669 Bad Schönborn"
980,76676,Graben-Neudorf,Eiscristallo,Bahnhofsring 39,7,49.1622302,8.4869401,"Eiscristallo, Bahnhofsring 39, 76676 Graben-Neudorf"
981,76684,Östringen,Eiscafe Adria,Nibelungenstr. 23,25,49.1793075999999,8.7501289,"Eiscafe Adria, Nibelungenstr. 23, 76684 Östringen"
982,76829,Landau in der Pfalz,Eiscafe Palazzo Sandro,Badstr. 21,8,49.1973276,8.11140509999999,"Eiscafe Palazzo Sandro, Badstr. 21, 76829 Landau in der Pfalz"
983,76855,Annweiler,Eiscafe Chelini,Hauptstraße  59,4,49.2029299999999,7.96545999999999,"Eiscafe Chelini, Hauptstraße  59, 76855 Annweiler"
984,76879,Ottersheim bei Landau,Eis Oase,Lange Str. 62a,17,49.1917725,8.2320351,"Eis Oase, Lange Str. 62a, 76879 Ottersheim bei Landau"
985,76887,Bad Bergzabern,Pola,Böhämmerweg 1,9,49.0992198,7.99046269999999,"Pola, Böhämmerweg 1, 76887 Bad Bergzabern"
986,76889,Pleisweiler-Oberhofen,Pfälzer Eis Café,Baumgartenstraße 1,3,49.1139562,8.0038036,"Pfälzer Eis Café, Baumgartenstraße 1, 76889 Pleisweiler-Oberhofen"
987,77652,Offenburg,Zampolli Eiscafe,Hauptstr. 61,9,48.4701537,7.9433392,"Zampolli Eiscafe, Hauptstr. 61, 77652 Offenburg"
988,77704,Oberkirch,Café Crema Gelato,Hauptstr. 59,5,48.5312843,8.0782695,"Café Crema Gelato, Hauptstr. 59, 77704 Oberkirch"
989,77767,Appenweier,Eiscafe Buon Gelato,Ortenauer Str. 23,72,48.53835,7.97928999999999,"Eiscafe Buon Gelato, Ortenauer Str. 23, 77767 Appenweier"
990,77815,Bühl,Gelato Eismanufaktur,Schwanenstr. 9,9,48.6955026,8.13723289999999,"Gelato Eismanufaktur, Schwanenstr. 9, 77815 Bühl"
991,77855,Achern,Gelato Amore Mio,Ratskellerstr. 2B,18,48.62842,8.07274,"Gelato Amore Mio, Ratskellerstr. 2B, 77855 Achern"
992,77933,Lahr,Crema Caffe & Gelato,Marktstr. 31,3,48.3405086,7.8729044,"Crema Caffe & Gelato, Marktstr. 31, 77933 Lahr"
993,78050,Villingen-Schwenningen,Zampolli,Rietstr. 33,6,48.05979,8.45708999999999,"Zampolli, Rietstr. 33, 78050 Villingen-Schwenningen"
994,78315,Radolfzell,Eiscafé Fernando,Poststr. 32,50,47.73799,8.9673,"Eiscafé Fernando, Poststr. 32, 78315 Radolfzell"
995,78462,Konstanz,Stadtkind Konstanz,Brauneggerstr. 31,4,47.6656858,9.1710412,"Stadtkind Konstanz, Brauneggerstr. 31, 78462 Konstanz"
996,78462,Konstanz,Dolomiti,Marktstätte 10,7,47.6605433,9.17634449999999,"Dolomiti, Marktstätte 10, 78462 Konstanz"
997,78462,Konstanz,Eiscafe Nicoletti,Marktstätte 5,6,47.660166,9.1760898,"Eiscafe Nicoletti, Marktstätte 5, 78462 Konstanz"
998,78462,Konstanz,Pano-Brot & Kaffee,Marktstätte 6,5,47.66064,9.17729,"Pano-Brot & Kaffee, Marktstätte 6, 78462 Konstanz"
999,78467,Konstanz,Holly's,Reichenaustr. 19A,3,47.671479,9.1667831,"Holly's, Reichenaustr. 19A, 78467 Konstanz"
1000,78467,Konstanz,Flavio Pampanin,Theodor-Heuss-Str. 33,28,47.6704059,9.182297,"Flavio Pampanin, Theodor-Heuss-Str. 33, 78467 Konstanz"
1001,78476,Allensbach,Konditorei Schuhmacher,Konstanzer Str. 2,4,47.71536,9.06651,"Konditorei Schuhmacher, Konstanzer Str. 2, 78476 Allensbach"
1002,78549,Spaichingen,Oasi del Gusto,Marktplatz 9,3,48.07534,8.73615,"Oasi del Gusto, Marktplatz 9, 78549 Spaichingen"
1003,78713,Schramberg,Eis-Café Rino,Oberndorfer Str. 18,10,48.2262099999999,8.386239,"Eis-Café Rino, Oberndorfer Str. 18, 78713 Schramberg"
1004,79098,Freiburg,Portofino,Bertoldstr. 44,70,47.9954905,7.8449496,"Portofino, Bertoldstr. 44, 79098 Freiburg"
1005,79098,Freiburg im Breisgau,Eiscafe Mona Lisa,Salzstr. 6,6,47.9945241,7.8502087,"Eiscafe Mona Lisa, Salzstr. 6, 79098 Freiburg im Breisgau"
1006,79100,Freiburg,Limette Eis-Cafe-Vauban,Vaubanallee 12,14,47.97461,7.82434,"Limette Eis-Cafe-Vauban, Vaubanallee 12, 79100 Freiburg"
1007,79100,Freiburg,Eisdiele Mariotti,Kronenstr. 9,40,47.98921,7.84329999999999,"Eisdiele Mariotti, Kronenstr. 9, 79100 Freiburg"
1008,79102,Freiburg im Breisgau,Eiscafe Castaldi,Güntertalstr. 7,8,47.9893611,7.8482978,"Eiscafe Castaldi, Güntertalstr. 7, 79102 Freiburg im Breisgau"
1009,79104,Freiburg im Breisgau,Eiscafe Gelatogioia,Habsburgerstr. 81,4,48.0057214,7.85548509999999,"Eiscafe Gelatogioia, Habsburgerstr. 81, 79104 Freiburg im Breisgau"
1010,79108,Freiburg,Eiscafé Nart,Zähringer Str.  336,3,48.0221707,7.857871,"Eiscafé Nart, Zähringer Str.  336, 79108 Freiburg"
1011,79110,Freiburg im Breisgau,Eis-Saviane,Elsässer Str. 60,5,48.01536,7.82295999999999,"Eis-Saviane, Elsässer Str. 60, 79110 Freiburg im Breisgau"
1012,79111,Freiburg im Breisgau,Hofeis vom Mundenhof,Mundenhof 15,10,48.01641,7.77797,"Hofeis vom Mundenhof, Mundenhof 15, 79111 Freiburg im Breisgau"
1013,79115,Freiburg im Breisgau,Gioia,Eschholzstr. 76,3,47.9968507,7.8347623,"Gioia, Eschholzstr. 76, 79115 Freiburg im Breisgau"
1014,79199,Kirchzarten,Eis-Cafe Orangerie,Freiburger Str. 6,3,47.9637,7.95144999999999,"Eis-Cafe Orangerie, Freiburger Str. 6, 79199 Kirchzarten"
1015,79219,Staufen,Kalte Sophie,Hauptstr. 41,10,47.8821006,7.73133459999999,"Kalte Sophie, Hauptstr. 41, 79219 Staufen"
1016,79268,Bötzingen,Eiscafe Gio Gelati,Hauptstr. 2,4,48.0717419,7.7191724,"Eiscafe Gio Gelati, Hauptstr. 2, 79268 Bötzingen"
1017,79289,Horben,Eckhof Eisdiele,Eckhofweg 1,5,47.91858,7.85521999999999,"Eckhof Eisdiele, Eckhofweg 1, 79289 Horben"
1018,79312,Emmendingen,Eis-Saviane,Kirchstr. 8,13,48.12123,7.85035,"Eis-Saviane, Kirchstr. 8, 79312 Emmendingen"
1019,79346,Endingen am Kaiserstuhl,Kaiserstühler Landeis,Untere Guldenstr. 10,114,48.13414,7.65572999999999,"Kaiserstühler Landeis, Untere Guldenstr. 10, 79346 Endingen am Kaiserstuhl"
1020,79356,Eichstetten am Kaiserstuhl,Cafe Mitnander,Hauptstr. 32,3,48.0942269,7.7463373,"Cafe Mitnander, Hauptstr. 32, 79356 Eichstetten am Kaiserstuhl"
1021,79539,Lörrach,Casa del Gelato,Am Alten Markt 1,5,47.611273,7.66136,"Casa del Gelato, Am Alten Markt 1, 79539 Lörrach"
1022,79539,Lörrach,Eiscafé Mona Lisa,Baseler Str. 165,5,47.61161,7.66076,"Eiscafé Mona Lisa, Baseler Str. 165, 79539 Lörrach"
1023,79761,Waldshut-Tiengen,Eiscafe Mona Lisa,Kaiserstr. 18,6,47.6229174,8.2138434,"Eiscafe Mona Lisa, Kaiserstr. 18, 79761 Waldshut-Tiengen"
1024,79837,St. Blasien,Eiscafe Claudio,Hauptstr. 21,12,47.76129,8.13023999999999,"Eiscafe Claudio, Hauptstr. 21, 79837 St. Blasien"
1025,80333,München,Ballabeni,Theresienstr. 46,244,48.1484314,11.574552,"Ballabeni, Theresienstr. 46, 80333 München"
1026,80336,München,Crema Gelato,Landwehrstr. 14,3,48.1364802,11.5629298,"Crema Gelato, Landwehrstr. 14, 80336 München"
1027,80337,München,Gelato Naturale,Kapuzinerstr. 2,13,48.1278537,11.5562204,"Gelato Naturale, Kapuzinerstr. 2, 80337 München"
1028,80339,München,Punto Gelato,Schwanthalerstr. 131,26,48.1378209,11.5440099,"Punto Gelato, Schwanthalerstr. 131, 80339 München"
1029,80469,München,Jessas Eis,Klenzestr. 97,30,48.1264490999999,11.5702043,"Jessas Eis, Klenzestr. 97, 80469 München"
1030,80469,München,Del Fiore,Gärtnerplatz 1,16,48.13195,11.5766833,"Del Fiore, Gärtnerplatz 1, 80469 München"
1031,80469,München,Domori,Kapuzinerstr. 43,10,48.1237923,11.5662598,"Domori, Kapuzinerstr. 43, 80469 München"
1032,80469,München,Eismeer,Pestalozzistr. 21,32,48.1304625,11.5675279,"Eismeer, Pestalozzistr. 21, 80469 München"
1033,80469,München,Luigia Ferraro,Ehrengutstr. 23,3,48.1212945,11.5616345,"Luigia Ferraro, Ehrengutstr. 23, 80469 München"
1034,80538,München,Schokoladengalerie,Triftstr. 4,3,48.1403404,11.5888394,"Schokoladengalerie, Triftstr. 4, 80538 München"
1035,80538,München,Bayerische Eismanufaktur,Oettingenstr. 42A,47,48.1462499999999,11.59339,"Bayerische Eismanufaktur, Oettingenstr. 42A, 80538 München"
1036,80634,München,Sarcletti,Nymphenburger Str. 155,55,48.1523029,11.5343885,"Sarcletti, Nymphenburger Str. 155, 80634 München"
1037,80639,München,Cremagelato,Notburgastr. 4,8,48.1576614,11.5111618,"Cremagelato, Notburgastr. 4, 80639 München"
1038,80687,München,Detterbeck,Agnes-Bernauer-Str. 89,44,48.13942,11.50049,"Detterbeck, Agnes-Bernauer-Str. 89, 80687 München"
1039,80799,München,Der Verrückte Eismacher,Amalienstr. 77,246,48.15111,11.57799,"Der Verrückte Eismacher, Amalienstr. 77, 80799 München"
1040,80801,München,Gelateria Lorenzo Corno,Hohenzollernstr. 44,21,48.1601205,11.5797667,"Gelateria Lorenzo Corno, Hohenzollernstr. 44, 80801 München"
1041,80801,München,Trampolin Eiscafé,Nordendstr. 62,42,48.1588317,11.575186,"Trampolin Eiscafé, Nordendstr. 62, 80801 München"
1042,80801,München,Gelato Bartu,Wilhelmstr. 23,46,48.1607729,11.5830067,"Gelato Bartu, Wilhelmstr. 23, 80801 München"
1043,80802,München,Café  Münchner Freiheit,Münchner Freiheit 20,16,48.1632952999999,11.5876025,"Café  Münchner Freiheit, Münchner Freiheit 20, 80802 München"
1044,81377,München,Konditorei Widmann,Heiglhofstr. 11,7,48.11351,11.47889,"Konditorei Widmann, Heiglhofstr. 11, 81377 München"
1045,81539,München,Eisdiele Riviera,Tegernseer Landstr. 91,6,48.1140285,11.5787028,"Eisdiele Riviera, Tegernseer Landstr. 91, 81539 München"
1046,81541,München,Artefredda,Tegernseer Landstraße 38,3,48.1172574,11.5814532,"Artefredda, Tegernseer Landstraße 38, 81541 München"
1047,81543,München,Patisserie Lehmann,Pilgersheimer Str. 48,3,48.1154282,11.5726439,"Patisserie Lehmann, Pilgersheimer Str. 48, 81543 München"
1048,81667,München,Chocolatte,Wörthstr. 1,4,48.1321351,11.5982036,"Chocolatte, Wörthstr. 1, 81667 München"
1049,81667,München,Il Gelato Italiano,Weißenburgerstr. 50,10,48.1280948,11.6023933,"Il Gelato Italiano, Weißenburgerstr. 50, 81667 München"
1050,81669,München,True & 12 Handmade Ice Cream,Rosenheimer Str. 14,61,48.1312586,11.5895949,"True & 12 Handmade Ice Cream, Rosenheimer Str. 14, 81669 München"
1051,81825,München,Eisinsel - Die Eismacher,Schmuckerweg 1,6,48.1219514999999,11.6710498,"Eisinsel - Die Eismacher, Schmuckerweg 1, 81825 München"
1052,81925,München,Adriano,Arabellastr. 19,13,48.1504197999999,11.621302,"Adriano, Arabellastr. 19, 81925 München"
1053,81927,München,Il Gelato Italiano,Ostpreussenstr. 25,10,48.14906,11.64025,"Il Gelato Italiano, Ostpreussenstr. 25, 81927 München"
1054,82024,Taufkirchen,Cremagelato,Münchener Str. 29,8,48.04692,11.61624,"Cremagelato, Münchener Str. 29, 82024 Taufkirchen"
1055,82031,Grünwald,Gelato Italiano Di Simone Peressutti,Marktplatz 9,16,48.0397496999999,11.5217929,"Gelato Italiano Di Simone Peressutti, Marktplatz 9, 82031 Grünwald"
1056,82061,Neuried,Café & Restaurant Vor Ort,Gautinger Str. 3,4,48.0925673,11.46504,"Café & Restaurant Vor Ort, Gautinger Str. 3, 82061 Neuried"
1057,82110,Germering,Eiscenter Roberto,Otto-Wagner-Str.18,5,48.1245433,11.3661039,"Eiscenter Roberto, Otto-Wagner-Str.18, 82110 Germering"
1058,82131,Stockdorf,Confiserie Harter,Baierplatz 4,5,48.0913824999999,11.4084177,"Confiserie Harter, Baierplatz 4, 82131 Stockdorf"
1059,82178,Puchheim,Il Gelato Italiano,Lochhauser Str. 49,10,48.1752666,11.3603969,"Il Gelato Italiano, Lochhauser Str. 49, 82178 Puchheim"
1060,82291,Mammendorf,Vivo Eis & Cafe,Grottenstr. 25,12,48.2123725,11.1670761,"Vivo Eis & Cafe, Grottenstr. 25, 82291 Mammendorf"
1061,82319,Starnberg,GelatOk!,Wittelsbacherstr. 17,10,47.9996079999999,11.3426038,"GelatOk!, Wittelsbacherstr. 17, 82319 Starnberg"
1062,82418,Murnau,Eisdiele Gabrielli,Untermarkt 9,9,47.6777752,11.2011422,"Eisdiele Gabrielli, Untermarkt 9, 82418 Murnau"
1063,82487,Oberammergau,Eiscafe Paradiso,Dorfstr. 4,9,47.5983291999999,11.0623516,"Eiscafe Paradiso, Dorfstr. 4, 82487 Oberammergau"
1064,82515,Wolfratshausen,Eiscafe Roma,Schießstättstr. 94,13,47.90835,11.43059,"Eiscafe Roma, Schießstättstr. 94, 82515 Wolfratshausen"
1065,83022,Rosenheim,Caffe Da Noi,Ludwigsplatz 22,7,47.85679,12.12822,"Caffe Da Noi, Ludwigsplatz 22, 83022 Rosenheim"
1066,83088,Kiefersfelden,Gelateria Sotto Zero,Kufsteiner Str. 38,3,47.610163,12.1880232,"Gelateria Sotto Zero, Kufsteiner Str. 38, 83088 Kiefersfelden"
1067,83093,Bad Endorf,Venezia Eis Boutique,Bahnhofplatz 2,3,47.90529,12.30174,"Venezia Eis Boutique, Bahnhofplatz 2, 83093 Bad Endorf"
1068,83410,Laufen,Eis Center,Marienplatz 4,17,47.9398312,12.9371971,"Eis Center, Marienplatz 4, 83410 Laufen"
1069,83607,Holzkirchen,Franzetti,Münchner Str. 7,148,47.8791352,11.6995287,"Franzetti, Münchner Str. 7, 83607 Holzkirchen"
1070,84028,Landshut,GelatOK!,Zweibrückenstr. 696,14,48.5406732999999,12.1504672,"GelatOK!, Zweibrückenstr. 696, 84028 Landshut"
1071,84028,Landshut,Eis Panciera,Altstadt 78,31,48.5358848,12.1511298,"Eis Panciera, Altstadt 78, 84028 Landshut"
1072,84347,Pfarrkirchen,Eis Center,Bahnhofstr. 8,3,48.4314946,12.9379453,"Eis Center, Bahnhofstr. 8, 84347 Pfarrkirchen"
1073,84453,Mühldorf am Inn,EisCafe Cappuccino,Stadtplatz 47,11,48.24145,12.52471,"EisCafe Cappuccino, Stadtplatz 47, 84453 Mühldorf am Inn"
1074,85049,Ingolstadt,Die Eismacher,Steuartstr. 2,45,48.7614254,11.4266923,"Die Eismacher, Steuartstr. 2, 85049 Ingolstadt"
1075,85072,Eichstätt,Eiscafé Dolomiti,Marktplatz 6,3,48.89292,11.18393,"Eiscafé Dolomiti, Marktplatz 6, 85072 Eichstätt"
1076,85276,Pfaffenhofen,Eiscenter 2000,Frauenstr. 6,6,48.5295508,11.509128,"Eiscenter 2000, Frauenstr. 6, 85276 Pfaffenhofen"
1077,85354,Freising,Garda,Untere Hauptstr. 9,3,48.4013087,11.7454298,"Garda, Untere Hauptstr. 9, 85354 Freising"
1078,85716,Unterschleißheim,Eisdiele Centro Bar,Alleestr. 11a,3,48.2819034,11.5786948,"Eisdiele Centro Bar, Alleestr. 11a, 85716 Unterschleißheim"
1079,86150,Augsburg,Cortina Eis,Karolinenstr. 21,6,48.3702772,10.8975418,"Cortina Eis, Karolinenstr. 21, 86150 Augsburg"
1080,86150,Augsburg,Eiscafé Tutti Frutti,Pfladergasse 20,6,48.3676436,10.9000274,"Eiscafé Tutti Frutti, Pfladergasse 20, 86150 Augsburg"
1081,86150,Augsburg,Santin Eiscafe Gelateria,Bahnhofstr. 24,7,48.3660996,10.8887981,"Santin Eiscafe Gelateria, Bahnhofstr. 24, 86150 Augsburg"
1082,86163,Augsburg,Dolce Vita,Friedberger Straße 153,23,48.3556612,10.9486685,"Dolce Vita, Friedberger Straße 153, 86163 Augsburg"
1083,86199,Augsburg,Eiscafe Dolomiti,Bgm-Aurnhammer-Str. 20,9,48.3395609,10.8678626,"Eiscafe Dolomiti, Bgm-Aurnhammer-Str. 20, 86199 Augsburg"
1084,86399,Bobingen,Eiscafé Lazzaris,Hochstr. 6a,8,48.2689678,10.8322495,"Eiscafé Lazzaris, Hochstr. 6a, 86399 Bobingen"
1085,86641,Rain,Eismosena,Hauptstraße 12,4,48.690501,10.9189775,"Eismosena, Hauptstraße 12, 86641 Rain"
1086,86653,Monheim,Eiscafé Cortina,Raiffeisenstraße 20,5,48.8431499999999,10.85773,"Eiscafé Cortina, Raiffeisenstraße 20, 86653 Monheim"
1087,86899,Landsberg,Cortina Eiscafe,Salzgasse 125,5,48.0492028,10.8755614,"Cortina Eiscafe, Salzgasse 125, 86899 Landsberg"
1088,86983,Lechbruck am See,Eiscafé Venezia,Flößerstr. 36,6,47.69597,10.79821,"Eiscafé Venezia, Flößerstr. 36, 86983 Lechbruck am See"
1089,87435,Kempten,Eiscafe Venezia,An der Sutt 14,6,47.7253795,10.3157463,"Eiscafe Venezia, An der Sutt 14, 87435 Kempten"
1090,87435,Kempten,Eiscafe Europa,Hildegardplatz 13,7,47.728112,10.3103839,"Eiscafe Europa, Hildegardplatz 13, 87435 Kempten"
1091,87437,Kempten,Eiscafe Cordella,Brodkorbweg 26,32,47.7290159999999,10.3266886,"Eiscafe Cordella, Brodkorbweg 26, 87437 Kempten"
1092,87600,Kaufbeuren,Eiscafe San Marco,Neuer Markt 12,34,47.9138157,10.6363657,"Eiscafe San Marco, Neuer Markt 12, 87600 Kaufbeuren"
1093,87600,Kaufbeuren,Eiscafe Paradiso,Schmiedgasse 10,23,47.88055,10.61933,"Eiscafe Paradiso, Schmiedgasse 10, 87600 Kaufbeuren"
1094,88045,Friedrichshafen,Eiscafe Italia,Seestr.  10,3,47.64934,9.47994,"Eiscafe Italia, Seestr.  10, 88045 Friedrichshafen"
1095,88069,Tettnang,Eiscafe Dolomiti,Montfortstr. 31,3,47.6720142,9.58788579999999,"Eiscafe Dolomiti, Montfortstr. 31, 88069 Tettnang"
1096,88131,Lindau (bodensee),Kleines Cafe,Fischergasse 21,4,47.5462686,9.6883725,"Kleines Cafe, Fischergasse 21, 88131 Lindau (bodensee)"
1097,88131,Lindau,La Gelateria,Maximilianstr. 32,16,47.54619,9.68294,"La Gelateria, Maximilianstr. 32, 88131 Lindau"
1098,88212,Ravensburg,Eiscafé Venezia,Gerberstr. 3,5,47.7822891,9.6117785,"Eiscafé Venezia, Gerberstr. 3, 88212 Ravensburg"
1099,88212,Ravensburg,Schokoladen Manufaktur,Eisenbahnstr. 12,8,47.7830238,9.6121721,"Schokoladen Manufaktur, Eisenbahnstr. 12, 88212 Ravensburg"
1100,88212,Ravensburg,Gelatomania,Adlerstr. 20,4,47.7821222,9.6114471,"Gelatomania, Adlerstr. 20, 88212 Ravensburg"
1101,88239,Wangen im Allgäu,Eiscafe Capri,Herrenstr. 30,16,47.6873973999999,9.833928,"Eiscafe Capri, Herrenstr. 30, 88239 Wangen im Allgäu"
1102,88316,Isny im Allgäu,Soravia Eiscafé,Wassertorstr. 13,10,47.69295,10.03963,"Soravia Eiscafé, Wassertorstr. 13, 88316 Isny im Allgäu"
1103,88400,Biberach,Eiscafé  Il Buon Gelato,Marktplatz 7,4,48.0988532999999,9.7886019,"Eiscafé  Il Buon Gelato, Marktplatz 7, 88400 Biberach"
1104,88416,Ochsenhausen,Eiscafe Rino,Poststraße  32,12,48.0715276,9.9523694,"Eiscafe Rino, Poststraße  32, 88416 Ochsenhausen"
1105,88662,Überlingen,Italienisches Eis Paradies,Marktstr. 1,10,47.7667267,9.1590092,"Italienisches Eis Paradies, Marktstr. 1, 88662 Überlingen"
1106,88662,Überlingen,Eiscafe Cristallo,Pfarrhofstr. 4,7,47.76755,9.15957,"Eiscafe Cristallo, Pfarrhofstr. 4, 88662 Überlingen"
1107,88709,Hagnau am Bodensee,Kibele Eis,Seestr. 38,18,47.6743321,9.315182,"Kibele Eis, Seestr. 38, 88709 Hagnau am Bodensee"
1108,89073,Ulm,Märkleshof Eis,Pfluggasse 2,4,48.3994546,9.99391,"Märkleshof Eis, Pfluggasse 2, 89073 Ulm"
1109,89073,Ulm,Gelateria Miraval,Glöcklerstr. 6,5,48.3977,9.987,"Gelateria Miraval, Glöcklerstr. 6, 89073 Ulm"
1110,89077,Ulm,Eiscafe Bar De Marco,Kapellengasse 24,7,48.3954615,9.9547948,"Eiscafe Bar De Marco, Kapellengasse 24, 89077 Ulm"
1111,89129,Langenau,Eiscafé Crema- Gelato Cattaruzza,Hindenburgstr. 14,4,48.4980904,10.1201387,"Eiscafé Crema- Gelato Cattaruzza, Hindenburgstr. 14, 89129 Langenau"
1112,89143,Blaubeuren,Eis-Café Bof,Karlstr. 26,3,48.4107801,9.785139,"Eis-Café Bof, Karlstr. 26, 89143 Blaubeuren"
1113,89312,Günzburg,Eiscafe Numero Uno,Hofgasse 16,6,48.45507,10.27705,"Eiscafe Numero Uno, Hofgasse 16, 89312 Günzburg"
1114,89415,Lauingen,Le Bistro Boulevard,Gundelfinger Str. 28,3,48.56501,10.42317,"Le Bistro Boulevard, Gundelfinger Str. 28, 89415 Lauingen"
1115,89518,Heidenheim,Gelatiamo,Eugen-Jaekle-Platz 3,3,48.6779014,10.151718,"Gelatiamo, Eugen-Jaekle-Platz 3, 89518 Heidenheim"
1116,90402,Nürnberg,Eiscafe Gelatone,Königstr. 38,4,49.4503104,11.0782388,"Eiscafe Gelatone, Königstr. 38, 90402 Nürnberg"
1117,90403,Nürnberg,Kalahua TraumEis,Äußerer Läufer Platz 15,9,49.4575548,11.0869108,"Kalahua TraumEis, Äußerer Läufer Platz 15, 90403 Nürnberg"
1118,90403,Nürnberg,Buonissimo,Plobenhofstr. 6,3,49.4536218999999,11.078017,"Buonissimo, Plobenhofstr. 6, 90403 Nürnberg"
1119,90403,Nürnberg,Die Kleine Eismanufaktur,Weißgerbergasse 28,25,49.4551509,11.0722552,"Die Kleine Eismanufaktur, Weißgerbergasse 28, 90403 Nürnberg"
1120,90403,Nürnberg,Gelateria 4D,Spitalgasse 1,3,49.4534081,11.0783411,"Gelateria 4D, Spitalgasse 1, 90403 Nürnberg"
1121,90408,Nürnberg,Il Gelato,Kaulbachstr. 29,127,49.4630204,11.0770358,"Il Gelato, Kaulbachstr. 29, 90408 Nürnberg"
1122,90409,Nürnberg,Eiscafe Val Gardena,Äußere Bayreuther Str. 103,7,49.471655,11.1021,"Eiscafe Val Gardena, Äußere Bayreuther Str. 103, 90409 Nürnberg"
1123,90409,Nürnberg,Piccolo Palladio,Pirckheimerstr. 112,4,49.4612874,11.0889629,"Piccolo Palladio, Pirckheimerstr. 112, 90409 Nürnberg"
1124,90419,Nürnberg,Eis im Glück,Bucherstr. 45,76,49.4624365,11.0712463,"Eis im Glück, Bucherstr. 45, 90419 Nürnberg"
1125,90427,Nürnberg,Campo-Eis,Schnieglinger Straße 245,15,49.4681,11.02736,"Campo-Eis, Schnieglinger Straße 245, 90427 Nürnberg"
1126,90451,Nürnberg,Eisboutique Bedolli,Eibacher Hauptstr. 98,19,49.4003526,11.0365213,"Eisboutique Bedolli, Eibacher Hauptstr. 98, 90451 Nürnberg"
1127,90482,Nürnberg,Dolomiddi,Winner Zeile 1,12,49.4679929,11.159214,"Dolomiddi, Winner Zeile 1, 90482 Nürnberg"
1128,90482,Nürnberg,Eisdiele Cristallo,Ostendstr. 227,12,49.4601584,11.1315605,"Eisdiele Cristallo, Ostendstr. 227, 90482 Nürnberg"
1129,90489,Nürnberg,Eis im Glück,Fenitzerplatz 4,14,49.46174,11.09877,"Eis im Glück, Fenitzerplatz 4, 90489 Nürnberg"
1130,90518,Altdorf bei Nürnberg,Eiscafe Dolomiti,Oberer Markt 11,3,49.385359,11.3554743,"Eiscafe Dolomiti, Oberer Markt 11, 90518 Altdorf bei Nürnberg"
1131,90537,Feucht,Eis-Center,Hauptstr. 23,3,49.3761575,11.2129298,"Eis-Center, Hauptstr. 23, 90537 Feucht"
1132,90537,Feucht,Tischner Eis Cafe Bistro,Hauptstr. 5,7,49.3773154,11.2116682,"Tischner Eis Cafe Bistro, Hauptstr. 5, 90537 Feucht"
1133,90556,Cadolzburg,Loisl's Eiscafe,Marktplatz 17,6,49.4580379,10.8521941,"Loisl's Eiscafe, Marktplatz 17, 90556 Cadolzburg"
1134,90617,Puschendorf,Eis-Carlo,Neustädter Str. 31,3,49.52467,10.82626,"Eis-Carlo, Neustädter Str. 31, 90617 Puschendorf"
1135,90763,Fürth,Dolomiddi,Kaiserstr. 45,6,49.4629266,10.9888681,"Dolomiddi, Kaiserstr. 45, 90763 Fürth"
1136,91054,Erlangen,Eis Venezia,Bayreuther Str. 29,4,49.6054705,11.0045985,"Eis Venezia, Bayreuther Str. 29, 91054 Erlangen"
1137,91054,Erlangen,Eishaus,Luitpoldstr. 15,118,49.5966336,11.0147688,"Eishaus, Luitpoldstr. 15, 91054 Erlangen"
1138,91054,Erlangen,Café Bassanese,Marktplatz 1,4,49.5972509,11.0036616,"Café Bassanese, Marktplatz 1, 91054 Erlangen"
1139,91058,Erlangen,Eiszeit,Gedbbertstr. 95,53,49.58506,11.01794,"Eiszeit, Gedbbertstr. 95, 91058 Erlangen"
1140,91074,Herzogenaurach,Eiscafe Carlo,Erlanger Str. 8,6,49.5675307,10.8854896,"Eiscafe Carlo, Erlanger Str. 8, 91074 Herzogenaurach"
1141,91126,Schwabach,Eiscafé De Rocco,Ludwigstr. 10,45,49.32891,11.02361,"Eiscafé De Rocco, Ludwigstr. 10, 91126 Schwabach"
1142,91161,Hilpoltstein,Ettore,Christoph-Sturm-Str. 7,4,49.1887592,11.1920305,"Ettore, Christoph-Sturm-Str. 7, 91161 Hilpoltstein"
1143,91207,Lauf an der Pegnitz,Campo-Eis,Marktplatz 35,15,49.5124,11.2823,"Campo-Eis, Marktplatz 35, 91207 Lauf an der Pegnitz"
1144,91207,Lauf an der Pegnitz,Eislounge,Schmiedstr. 4,8,49.5080959,11.2769482,"Eislounge, Schmiedstr. 4, 91207 Lauf an der Pegnitz"
1145,91207,Lauf an der Pegnitz,Dolomiddi,Johannisstr. 19,20,49.5105044,11.2806197,"Dolomiddi, Johannisstr. 19, 91207 Lauf an der Pegnitz"
1146,91217,Hersbruck,Der Eisladen,Prager Str. 15,3,49.5089911,11.4305765,"Der Eisladen, Prager Str. 15, 91217 Hersbruck"
1147,91522,Ansbach,Eiscafè Antonio Quarta,Bahnhofsplatz  7,4,49.2989,10.5766,"Eiscafè Antonio Quarta, Bahnhofsplatz  7, 91522 Ansbach"
1148,91541,Rothenburg ob der Tauber,Paolo D Isep,Hafengasse 17,46,49.3770276,10.1805812,"Paolo D Isep, Hafengasse 17, 91541 Rothenburg ob der Tauber"
1149,92224,Amberg,Cadore Eiscafé,Bahnhofstr. 11,3,49.4463269,11.8605915,"Cadore Eiscafé, Bahnhofstr. 11, 92224 Amberg"
1150,92245,Kümmersbruck,Eiscafe Eisiglu,Vilstalstr. 99,3,49.4187899999999,11.8795,"Eiscafe Eisiglu, Vilstalstr. 99, 92245 Kümmersbruck"
1151,93047,Regensburg,Aamu Italian Cafe & Ice Cream,Thundorferstr. 10,7,49.0204487,12.1008182,"Aamu Italian Cafe & Ice Cream, Thundorferstr. 10, 93047 Regensburg"
1152,93047,Regensburg,Diba Chocolat,Rote-Hahnen-Gasse 6,46,49.0191664,12.0930579,"Diba Chocolat, Rote-Hahnen-Gasse 6, 93047 Regensburg"
1153,93047,Regensburg,Stenz,Bismarckplatz 8,404,49.0187951,12.0902474,"Stenz, Bismarckplatz 8, 93047 Regensburg"
1154,93047,Regensburg,Eiscafé Piccolo,Drei-Mohren-Str. 2,7,49.0196062,12.0901904,"Eiscafé Piccolo, Drei-Mohren-Str. 2, 93047 Regensburg"
1155,93133,Burglengenfeld,Eis Europa,Regensburger Str. 22,4,49.2046316,12.0427261,"Eis Europa, Regensburger Str. 22, 93133 Burglengenfeld"
1156,94032,Passau,Eiscafé Rialto,Rindermarkt 6,18,48.57587,13.46214,"Eiscafé Rialto, Rindermarkt 6, 94032 Passau"
1157,94032,Passau,Eiscafé Fontanella,Ludwigstr. 20,10,48.5741024,13.4585077,"Eiscafé Fontanella, Ludwigstr. 20, 94032 Passau"
1158,94315,Straubing,Poldis Eis im Turm,Ludwigsplatz,5,48.8818701,12.5676489,"Poldis Eis im Turm, Ludwigsplatz, 94315 Straubing"
1159,94526,Metten,Eisdiele Fontanella,Donaustraße 1,25,48.85445,12.91525,"Eisdiele Fontanella, Donaustraße 1, 94526 Metten"
1160,95028,Hof,Venezia Eiscafé,Altstadt 36,29,50.316733,11.9148193,"Venezia Eiscafé, Altstadt 36, 95028 Hof"
1161,95028,Hof,Dolomiti Eiscafe,Bismarckstr. 12,11,50.3154052999999,11.9151352,"Dolomiti Eiscafe, Bismarckstr. 12, 95028 Hof"
1162,95028,Hof,Florida Eisdiele,Königstr. 38,120,50.31168,11.92105,"Florida Eisdiele, Königstr. 38, 95028 Hof"
1163,95100,Selb,Eiscafe Cortina,Marktplatz 12,4,50.1694982,12.1314829,"Eiscafe Cortina, Marktplatz 12, 95100 Selb"
1164,95326,Kulmbach,Sanremo,Marktplatz 9,7,50.10724,11.45771,"Sanremo, Marktplatz 9, 95326 Kulmbach"
1165,95444,Bayreuth,Eis Opera,Opernstr. 9,17,49.94464,11.57756,"Eis Opera, Opernstr. 9, 95444 Bayreuth"
1166,95632,Wunsiedel,Eis Oase,Marktplatz 4,17,50.0375046,12.0024868,"Eis Oase, Marktplatz 4, 95632 Wunsiedel"
1167,96047,Bamberg,Cafe Riffelmacher,Obere Brücke 12,14,49.8918566,10.8881217,"Cafe Riffelmacher, Obere Brücke 12, 96047 Bamberg"
1168,96047,Bamberg,Lido Eis Café,Keßlerstr. 14,4,49.8927418,10.8893105,"Lido Eis Café, Keßlerstr. 14, 96047 Bamberg"
1169,96049,Bamberg,Bassanese,Karolnenstr. 2,4,49.89149,10.88669,"Bassanese, Karolnenstr. 2, 96049 Bamberg"
1170,96052,Bamberg,Eiscafe Bassano,Obere Königstr. 2,4,49.8969377,10.8918669,"Eiscafe Bassano, Obere Königstr. 2, 96052 Bamberg"
1171,96106,Ebern,Eiscafe Alpi,Spitaltorstr. 1,16,50.09478,10.79297,"Eiscafe Alpi, Spitaltorstr. 1, 96106 Ebern"
1172,96132,Schlüsselfeld,Eis Capriccio,Marktplatz 13,23,49.757122,10.6182319,"Eis Capriccio, Marktplatz 13, 96132 Schlüsselfeld"
1173,96317,Kronach,Eiscafé Fontana,Johann-Nikolaus-Zitter-Straße 45,6,50.23914,11.32528,"Eiscafé Fontana, Johann-Nikolaus-Zitter-Straße 45, 96317 Kronach"
1174,96450,Coburg,Eiscafe Adria,Hindenburgstr. 14,25,50.2634806,10.9650892,"Eiscafe Adria, Hindenburgstr. 14, 96450 Coburg"
1175,96450,Coburg,Cortina Eiscafe Fam. Da Col,Spitalgasse 29,24,50.25995,10.96472,"Cortina Eiscafe Fam. Da Col, Spitalgasse 29, 96450 Coburg"
1176,97070,Würzburg,Fontana,Beim Grafeneckart 8,3,49.79307,9.92809,"Fontana, Beim Grafeneckart 8, 97070 Würzburg"
1177,97070,Würzburg,Eiscafé Benito,Schustergasse 2,8,49.7934687,9.9297399,"Eiscafé Benito, Schustergasse 2, 97070 Würzburg"
1178,97070,Würzburg,Köhler,Karmelitenstr. 1,3,49.7932326,9.9275241,"Köhler, Karmelitenstr. 1, 97070 Würzburg"
1179,97070,Würzburg,Casa Prima,Hofstr. 18,11,49.7931824,9.93549449999999,"Casa Prima, Hofstr. 18, 97070 Würzburg"
1180,97070,Würzburg,Bar D.O.C,Beim Grafeneckart 15,5,49.7925892,9.928974,"Bar D.O.C, Beim Grafeneckart 15, 97070 Würzburg"
1181,97209,Veitshöchheim,Eis Stephan,Bahnhofstr. 24,134,49.83313,9.87305,"Eis Stephan, Bahnhofstr. 24, 97209 Veitshöchheim"
1182,97337,Dettelbach,Eiscafe Galeria,Kirchplatz 2,3,49.80219,10.16179,"Eiscafe Galeria, Kirchplatz 2, 97337 Dettelbach"
1183,97340,Marktbreit,Cremamarena,Ochsenfurther Str. 22,10,49.66728,10.14236,"Cremamarena, Ochsenfurther Str. 22, 97340 Marktbreit"
1184,97437,Haßfurt,Bassanese,Marktplatz 1,4,50.031914,10.5068017,"Bassanese, Marktplatz 1, 97437 Haßfurt"
1185,97816,Lohr,Café Bernhard,Jahnstraße,8,49.9985,9.58175,"Café Bernhard, Jahnstraße, 97816 Lohr"
1186,97980,Bad Mergentheim,Eiscafé Venezia,Kirchstr. 9,6,49.49151,9.77235999999999,"Eiscafé Venezia, Kirchstr. 9, 97980 Bad Mergentheim"
1187,98574,Schmalkalden,Viba Nougat-Welt,Nougat-Allee 1,14,50.7186779,10.432257,"Viba Nougat-Welt, Nougat-Allee 1, 98574 Schmalkalden"
1188,99084,Erfurt,Zucker & Zimt,Marktstr. 5,13,50.9777657,11.0274975,"Zucker & Zimt, Marktstr. 5, 99084 Erfurt"
1189,99084,Erfurt,San Remo,Marktstr. 21,23,50.9776313,11.0255882,"San Remo, Marktstr. 21, 99084 Erfurt"
1190,99084,Erfurt,Eiscafé Venezia,Domplatz 21,3,50.9768309,11.0250447,"Eiscafé Venezia, Domplatz 21, 99084 Erfurt"
1191,99084,Erfurt,Riva,Lange Brücke 64,9,50.976082,11.0262908,"Riva, Lange Brücke 64, 99084 Erfurt"
1192,99084,Erfurt,Goldhelm Eiskrämer,Krämerbrücke 15,118,50.978951,11.031328,"Goldhelm Eiskrämer, Krämerbrücke 15, 99084 Erfurt"
1193,99084,Erfurt,Eiscafé Riva,Lange Brücke 64,17,50.976082,11.0262908,"Eiscafé Riva, Lange Brücke 64, 99084 Erfurt"
1194,99091,Erfurt,Eiscafe Schimmis Eiseck,Ringstr. 13,3,51.022801,10.9906228,"Eiscafe Schimmis Eiseck, Ringstr. 13, 99091 Erfurt"
1195,99423,Weimar,Eiscafé Venezia,Theaterplatz 1,4,50.97931,11.3261,"Eiscafé Venezia, Theaterplatz 1, 99423 Weimar"
1196,99423,Weimar,Eiscafé Giancarlo,Schillerstr. 11,5,50.97841,11.32725,"Eiscafé Giancarlo, Schillerstr. 11, 99423 Weimar"
1197,99423,Weimar,Biebereis,Erfurter Straße 35,90,50.980551,11.318262,"Biebereis, Erfurter Straße 35, 99423 Weimar"
1198,99706,Sondershausen,Eisdiele Franzberg,Bahnhofstr. 2,26,51.36939,10.84886,"Eisdiele Franzberg, Bahnhofstr. 2, 99706 Sondershausen"
1199,99734,Nordhausen,Eiscafé Verona,Bahnhofstr. 8 a,3,51.4949837,10.7904107,"Eiscafé Verona, Bahnhofstr. 8 a, 99734 Nordhausen"
1200,99817,Eisenach,Toccata,Markt 2,12,50.97506,10.32041,"Toccata, Markt 2, 99817 Eisenach"
